{
"type": "FeatureCollection",
"name": "posko_pengungsian_logistik_diy_2025",
"crs": { "type": "name", "properties": { "name": "urn:ogc:def:crs:OGC:1.3:CRS84" } },
"features": [
{ "type": "Feature", "properties": { "id": 1, "nama_lokasi": "Balai Kalurahan Margosari", "jenis_posko": "Pengungsian dan Dapur Umum", "fungsi": "Pusat evakuasi warga dan dapur umum untuk logistik makanan", "kabupaten_kota": "Kabupaten Kulon Progo", "kapanewon": "Pengasih", "kalurahan": "Margosari", "padukuhan": "Margosari/Karangtengah sekitar balai kalurahan", "alamat_deskripsi": "Jl. KRT Kertodiningrat No.15, Margosari, Pengasih, Kulon Progo, DIY 55652", "latitude": -7.855133, "longitude": 110.174386, "sumber_informasi": "Website Kalurahan Margosari; Pemda DIY", "tingkat_akurasi": "Tinggi untuk kalurahan; titik koordinat memakai acuan lokasi Balai/Kalurahan Margosari", "catatan": "Digunakan sebagai pusat evakuasi dan dapur umum berdasarkan informasi Dinas Sosial/Tagana.", "tahun_data": 2025, "crs": "EPSG:4326 - WGS 84" }, "geometry": { "type": "Point", "coordinates": [ 110.174386, -7.855133 ] } },
{ "type": "Feature", "properties": { "id": 2, "nama_lokasi": "Masjid Al Fitrah", "jenis_posko": "Perlindungan Sementara dan Distribusi Bantuan", "fungsi": "Tempat perlindungan sementara dan distribusi bantuan seperti kasur dan selimut", "kabupaten_kota": "Kabupaten Kulon Progo", "kapanewon": "Pengasih", "kalurahan": "Margosari", "padukuhan": "Karang Tengah Kidul", "alamat_deskripsi": "Masjid Al Fitrah, Karang Tengah Kidul, Margosari, Pengasih, Kulon Progo, DIY", "latitude": -7.8539, "longitude": 110.18, "sumber_informasi": "Pemda DIY; informasi pendukung wilayah Margosari/Karang Tengah Kidul", "tingkat_akurasi": "Perkiraan titik berdasarkan padukuhan/kalurahan; verifikasi koordinat lapangan disarankan", "catatan": "Digunakan sebagai perlindungan sementara dan lokasi distribusi bantuan.", "tahun_data": 2025, "crs": "EPSG:4326 - WGS 84" }, "geometry": { "type": "Point", "coordinates": [ 110.18, -7.8539 ] } },
{ "type": "Feature", "properties": { "id": 3, "nama_lokasi": "Posko Sompok", "jenis_posko": "Posko Logistik dan Evakuasi", "fungsi": "Posko distribusi logistik dan layanan warga terdampak melalui jalur alternatif", "kabupaten_kota": "Kabupaten Bantul", "kapanewon": "Imogiri", "kalurahan": "Sriharjo", "padukuhan": "Sompok", "alamat_deskripsi": "Padukuhan Sompok, Kalurahan Sriharjo, Kapanewon Imogiri, Bantul, DIY", "latitude": -7.9425, "longitude": 110.403, "sumber_informasi": "RRI; LensaNusa; informasi resmi wilayah Kalurahan Sriharjo", "tingkat_akurasi": "Perkiraan titik berdasarkan padukuhan; verifikasi koordinat lapangan disarankan", "catatan": "Posko utama untuk keselamatan warga dan distribusi logistik pada masa tanggap darurat.", "tahun_data": 2025, "crs": "EPSG:4326 - WGS 84" }, "geometry": { "type": "Point", "coordinates": [ 110.403, -7.9425 ] } },
{ "type": "Feature", "properties": { "id": 4, "nama_lokasi": "Posko Kedungjati", "jenis_posko": "Posko Logistik Alternatif", "fungsi": "Posko alternatif distribusi bantuan/logistik melalui akses Kedungjati dan jembatan gantung Wunut", "kabupaten_kota": "Kabupaten Bantul", "kapanewon": "Imogiri", "kalurahan": "Selopamioro", "padukuhan": "Kedungjati", "alamat_deskripsi": "Padukuhan Kedungjati, Kalurahan Selopamioro, Kapanewon Imogiri, Bantul, DIY", "latitude": -7.9615, "longitude": 110.4115, "sumber_informasi": "RRI; LensaNusa; Website Kalurahan Selopamioro", "tingkat_akurasi": "Perkiraan titik berdasarkan padukuhan; verifikasi koordinat lapangan disarankan", "catatan": "Posko alternatif untuk suplai bantuan apabila akses utama Sompok-Wunut tidak dapat dilalui.", "tahun_data": 2025, "crs": "EPSG:4326 - WGS 84" }, "geometry": { "type": "Point", "coordinates": [ 110.4115, -7.9615 ] } }
]
}
