{"type": "FeatureCollection", "features": [{"type": "Feature", "geometry": {"type": "Point", "coordinates": [110.414226, -7.778534]}, "properties": {"name": "University", "type": "University", "category": "akademik", "subcategory": "Universitas", "opening_hours": null, "operator": null, "osm_id": 4585536386}}, {"type": "Feature", "geometry": {"type": "Point", "coordinates": [110.407222, -7.756781]}, "properties": {"name": "SD Perumnas", "type": "School", "category": "akademik", "subcategory": "Sekolah", "opening_hours": null, "operator": null, "osm_id": 1988467903}}, {"type": "Feature", "geometry": {"type": "Point", "coordinates": [110.382397, -7.833523]}, "properties": {"name": "Kampus 4 Universitas Ahmad Dahlan", "type": "University", "category": "akademik", "subcategory": "Universitas", "opening_hours": null, "operator": null, "osm_id": 6709846383}}, {"type": "Feature", "geometry": {"type": "Point", "coordinates": [110.39149, -7.796301]}, "properties": {"name": "F. Hukum Univ. Janabadra'", "type": "University", "category": "akademik", "subcategory": "Universitas", "opening_hours": null, "operator": null, "osm_id": 1360407160}}, {"type": "Feature", "geometry": {"type": "Point", "coordinates": [110.370665, -7.765705]}, "properties": {"name": "Laboratorium Teknik Mesin", "type": "College", "category": "akademik", "subcategory": "Kolese", "opening_hours": null, "operator": null, "osm_id": 3195290749}}, {"type": "Feature", "geometry": {"type": "Point", "coordinates": [110.338339, -7.893404]}, "properties": {"name": "STiKIP CATUR SAKTI", "type": "University", "category": "akademik", "subcategory": "Universitas", "opening_hours": "Mo-Fr 09:00-18:00", "operator": null, "osm_id": 8229873061}}, {"type": "Feature", "geometry": {"type": "Point", "coordinates": [110.226148, -7.846693]}, "properties": {"name": "SD Negeri Lebeng", "type": "College", "category": "akademik", "subcategory": "Kolese", "opening_hours": null, "operator": null, "osm_id": 11333012013}}, {"type": "Feature", "geometry": {"type": "Point", "coordinates": [110.365175, -7.814448]}, "properties": {"name": "Akademi Pariwisata Buana Pariwisata", "type": "College", "category": "akademik", "subcategory": "Kolese", "opening_hours": null, "operator": null, "osm_id": 3256671759}}, {"type": "Feature", "geometry": {"type": "Point", "coordinates": [110.356426, -7.818291]}, "properties": {"name": "UPBJJ-UT Yogyakarta", "type": "University", "category": "akademik", "subcategory": "Universitas", "opening_hours": null, "operator": null, "osm_id": 3585153781}}, {"type": "Feature", "geometry": {"type": "Point", "coordinates": [110.325006, -7.818502]}, "properties": {"name": "Kampus Alma Atha", "type": "University", "category": "akademik", "subcategory": "Universitas", "opening_hours": null, "operator": null, "osm_id": 3616854460}}, {"type": "Feature", "geometry": {"type": "Point", "coordinates": [110.411297, -7.760618]}, "properties": {"name": "UII Kampus Condongcatur", "type": "University", "category": "akademik", "subcategory": "Universitas", "opening_hours": null, "operator": null, "osm_id": 537322627}}, {"type": "Feature", "geometry": {"type": "Point", "coordinates": [110.416336, -7.773108]}, "properties": {"name": "Institut Teknologi Nasional Yogyakarta", "type": "College", "category": "akademik", "subcategory": "Kolese", "opening_hours": null, "operator": "Yayasan Pendidikan Teknologi Nasional Yogyakarta", "osm_id": 122798030}}, {"type": "Feature", "geometry": {"type": "Point", "coordinates": [110.411865, -7.779176]}, "properties": {"name": "STTN BATAN", "type": "College", "category": "akademik", "subcategory": "Kolese", "opening_hours": null, "operator": "government", "osm_id": 591999854}}, {"type": "Feature", "geometry": {"type": "Point", "coordinates": [110.40342, -7.778462]}, "properties": {"name": "Sekolah Tinggi Pariwisata AMPTA", "type": "College", "category": "akademik", "subcategory": "Kolese", "opening_hours": null, "operator": null, "osm_id": 590646587}}, {"type": "Feature", "geometry": {"type": "Point", "coordinates": [110.38441, -7.784023]}, "properties": {"name": "Politeknik LPP", "type": "College", "category": "akademik", "subcategory": "Kolese", "opening_hours": null, "operator": null, "osm_id": 362493968}}, {"type": "Feature", "geometry": {"type": "Point", "coordinates": [110.450291, -7.775375]}, "properties": {"name": "UKRIM", "type": "University", "category": "akademik", "subcategory": "Universitas", "opening_hours": null, "operator": null, "osm_id": 435612518}}, {"type": "Feature", "geometry": {"type": "Point", "coordinates": [110.383084, -7.798067]}, "properties": {"name": "Kampus 2 FIP UNY", "type": "University", "category": "akademik", "subcategory": "Universitas", "opening_hours": null, "operator": null, "osm_id": 1060445402}}, {"type": "Feature", "geometry": {"type": "Point", "coordinates": [110.382752, -7.798661]}, "properties": {"name": "Universitas Ahmad Dahlan Kampus 1", "type": "University", "category": "akademik", "subcategory": "Universitas", "opening_hours": null, "operator": null, "osm_id": 383755542}}, {"type": "Feature", "geometry": {"type": "Point", "coordinates": [110.394929, -7.769919]}, "properties": {"name": "STIKES Panti Rapih", "type": "College", "category": "akademik", "subcategory": "Kolese", "opening_hours": null, "operator": "private", "osm_id": 287211347}}, {"type": "Feature", "geometry": {"type": "Point", "coordinates": [110.395893, -7.782485]}, "properties": {"name": "Institut Pertanian STIPER", "type": "University", "category": "akademik", "subcategory": "Universitas", "opening_hours": null, "operator": null, "osm_id": 270035468}}, {"type": "Feature", "geometry": {"type": "Point", "coordinates": [110.40749, -7.793522]}, "properties": {"name": "Universitas Teknologi Digital", "type": "College", "category": "akademik", "subcategory": "Kolese", "opening_hours": null, "operator": null, "osm_id": 228796196}}, {"type": "Feature", "geometry": {"type": "Point", "coordinates": [110.413676, -7.778006]}, "properties": {"name": "STTN Batan", "type": "College", "category": "akademik", "subcategory": "Kolese", "opening_hours": null, "operator": null, "osm_id": 122797722}}, {"type": "Feature", "geometry": {"type": "Point", "coordinates": [110.416706, -7.797994]}, "properties": {"name": "Sekolah Tinggi Adi Sucipto", "type": "College", "category": "akademik", "subcategory": "Kolese", "opening_hours": null, "operator": null, "osm_id": 123332808}}, {"type": "Feature", "geometry": {"type": "Point", "coordinates": [110.370466, -7.765679]}, "properties": {"name": "Laboratorium Teknik Mesin", "type": "University", "category": "akademik", "subcategory": "Universitas", "opening_hours": null, "operator": null, "osm_id": 120382156}}, {"type": "Feature", "geometry": {"type": "Point", "coordinates": [110.410791, -7.769493]}, "properties": {"name": "STIE YKPN", "type": "University", "category": "akademik", "subcategory": "Universitas", "opening_hours": null, "operator": null, "osm_id": 165389734}}, {"type": "Feature", "geometry": {"type": "Point", "coordinates": [110.418144, -7.776021]}, "properties": {"name": "Politeknik API", "type": "College", "category": "akademik", "subcategory": "Kolese", "opening_hours": null, "operator": null, "osm_id": 592021712}}, {"type": "Feature", "geometry": {"type": "Point", "coordinates": [110.417828, -7.774363]}, "properties": {"name": "Universitas Proklamasi 45", "type": "University", "category": "akademik", "subcategory": "Universitas", "opening_hours": null, "operator": null, "osm_id": 592021717}}, {"type": "Feature", "geometry": {"type": "Point", "coordinates": [110.392561, -7.776367]}, "properties": {"name": "Fakultas Hukum Universitas Atma Jaya Yogyakarta (UAJY)", "type": "University", "category": "akademik", "subcategory": "Universitas", "opening_hours": null, "operator": null, "osm_id": 129909483}}, {"type": "Feature", "geometry": {"type": "Point", "coordinates": [110.359493, -7.790922]}, "properties": {"name": "Sekolah Tinggi Agama Islam Masjid Syuhada", "type": "College", "category": "akademik", "subcategory": "Kolese", "opening_hours": null, "operator": null, "osm_id": 591927709}}, {"type": "Feature", "geometry": {"type": "Point", "coordinates": [110.352755, -7.77966]}, "properties": {"name": "Akademi Perawatan Notokusumo", "type": "College", "category": "akademik", "subcategory": "Kolese", "opening_hours": null, "operator": null, "osm_id": 591503003}}, {"type": "Feature", "geometry": {"type": "Point", "coordinates": [110.356815, -7.784722]}, "properties": {"name": "Akademi Kesehatan Karya Husada", "type": "University", "category": "akademik", "subcategory": "Universitas", "opening_hours": null, "operator": null, "osm_id": 529958548}}, {"type": "Feature", "geometry": {"type": "Point", "coordinates": [110.417248, -7.797561]}, "properties": {"name": "Sekolah Tinggi Adi Sucipto", "type": "College", "category": "akademik", "subcategory": "Kolese", "opening_hours": null, "operator": null, "osm_id": 530862971}}, {"type": "Feature", "geometry": {"type": "Point", "coordinates": [110.358277, -7.807137]}, "properties": {"name": "Universitas Widya Mataram", "type": "University", "category": "akademik", "subcategory": "Universitas", "opening_hours": null, "operator": null, "osm_id": 156642242}}, {"type": "Feature", "geometry": {"type": "Point", "coordinates": [110.352968, -7.780085]}, "properties": {"name": "ASMI Santa Maria", "type": "College", "category": "akademik", "subcategory": "Kolese", "opening_hours": null, "operator": "Yayasan Marsudirini Yogyakarta", "osm_id": 591502991}}, {"type": "Feature", "geometry": {"type": "Point", "coordinates": [110.355676, -7.816818]}, "properties": {"name": "Kampus UUP 2 FIP UNY", "type": "University", "category": "akademik", "subcategory": "Universitas", "opening_hours": null, "operator": null, "osm_id": 414540690}}, {"type": "Feature", "geometry": {"type": "Point", "coordinates": [110.425043, -7.603704]}, "properties": {"name": "AURI Wanita", "type": "College", "category": "akademik", "subcategory": "Kolese", "opening_hours": null, "operator": null, "osm_id": 533528997}}, {"type": "Feature", "geometry": {"type": "Point", "coordinates": [110.437932, -7.61507]}, "properties": {"name": "College", "type": "College", "category": "akademik", "subcategory": "Kolese", "opening_hours": null, "operator": null, "osm_id": 261203279}}, {"type": "Feature", "geometry": {"type": "Point", "coordinates": [110.438119, -7.615061]}, "properties": {"name": "College", "type": "College", "category": "akademik", "subcategory": "Kolese", "opening_hours": null, "operator": null, "osm_id": 261202727}}, {"type": "Feature", "geometry": {"type": "Point", "coordinates": [110.438448, -7.614733]}, "properties": {"name": "College", "type": "College", "category": "akademik", "subcategory": "Kolese", "opening_hours": null, "operator": null, "osm_id": 261202892}}, {"type": "Feature", "geometry": {"type": "Point", "coordinates": [110.163648, -7.854873]}, "properties": {"name": "GOR UNY Kampus Wates", "type": "University", "category": "akademik", "subcategory": "Universitas", "opening_hours": null, "operator": null, "osm_id": 236502143}}, {"type": "Feature", "geometry": {"type": "Point", "coordinates": [110.164672, -7.853465]}, "properties": {"name": "Asrama Mahasiswa UNY Kampus Wates", "type": "University", "category": "akademik", "subcategory": "Universitas", "opening_hours": null, "operator": null, "osm_id": 887812123}}, {"type": "Feature", "geometry": {"type": "Point", "coordinates": [110.174879, -7.856111]}, "properties": {"name": "IKIP PGRI Wates", "type": "College", "category": "akademik", "subcategory": "Kolese", "opening_hours": null, "operator": null, "osm_id": 536296882}}, {"type": "Feature", "geometry": {"type": "Point", "coordinates": [110.174716, -7.856251]}, "properties": {"name": "IKIP PGRI Wates", "type": "College", "category": "akademik", "subcategory": "Kolese", "opening_hours": null, "operator": null, "osm_id": 536296883}}, {"type": "Feature", "geometry": {"type": "Point", "coordinates": [110.364521, -7.767298]}, "properties": {"name": "Akademi maritim Yogyakarta", "type": "College", "category": "akademik", "subcategory": "Kolese", "opening_hours": null, "operator": null, "osm_id": 270024475}}, {"type": "Feature", "geometry": {"type": "Point", "coordinates": [110.42527, -7.761065]}, "properties": {"name": "Institut Pertanian Stiper", "type": "College", "category": "akademik", "subcategory": "Kolese", "opening_hours": null, "operator": "private", "osm_id": 241201944}}, {"type": "Feature", "geometry": {"type": "Point", "coordinates": [110.37688, -7.738392]}, "properties": {"name": "STIM YKPN", "type": "University", "category": "akademik", "subcategory": "Universitas", "opening_hours": null, "operator": null, "osm_id": 165405243}}, {"type": "Feature", "geometry": {"type": "Point", "coordinates": [110.164784, -7.853146]}, "properties": {"name": "Asrama Mahasiswa UNY Kampus Wates", "type": "University", "category": "akademik", "subcategory": "Universitas", "opening_hours": null, "operator": null, "osm_id": 236502168}}, {"type": "Feature", "geometry": {"type": "Point", "coordinates": [110.39557, -7.795305]}, "properties": {"name": "Akademi Perikanan Yogyakarta (APY)", "type": "College", "category": "akademik", "subcategory": "Kolese", "opening_hours": null, "operator": null, "osm_id": 594553077}}, {"type": "Feature", "geometry": {"type": "Point", "coordinates": [110.382978, -7.833117]}, "properties": {"name": "Gedung Baru Kampus Universitas Ahmad Dahlan", "type": "University", "category": "akademik", "subcategory": "Universitas", "opening_hours": null, "operator": null, "osm_id": 1036196336}}, {"type": "Feature", "geometry": {"type": "Point", "coordinates": [110.385568, -7.784678]}, "properties": {"name": "Institut Sains dan Teknologi AKPRIND", "type": "College", "category": "akademik", "subcategory": "Kolese", "opening_hours": null, "operator": null, "osm_id": 120772216}}, {"type": "Feature", "geometry": {"type": "Point", "coordinates": [110.385508, -7.783709]}, "properties": {"name": "LPP", "type": "College", "category": "akademik", "subcategory": "Kolese", "opening_hours": null, "operator": null, "osm_id": 120853051}}, {"type": "Feature", "geometry": {"type": "Point", "coordinates": [110.407131, -7.781739]}, "properties": {"name": "Universitas Respati Yogyakarta", "type": "University", "category": "akademik", "subcategory": "Universitas", "opening_hours": null, "operator": null, "osm_id": 531073329}}, {"type": "Feature", "geometry": {"type": "Point", "coordinates": [110.406987, -7.781438]}, "properties": {"name": "Akademi Komunikasi Indonesia", "type": "College", "category": "akademik", "subcategory": "Kolese", "opening_hours": null, "operator": null, "osm_id": 362199732}}, {"type": "Feature", "geometry": {"type": "Point", "coordinates": [110.383735, -7.7845]}, "properties": {"name": "AA YKPN", "type": "College", "category": "akademik", "subcategory": "Kolese", "opening_hours": null, "operator": null, "osm_id": 120853055}}, {"type": "Feature", "geometry": {"type": "Point", "coordinates": [110.394028, -7.791996]}, "properties": {"name": "Gedung Ganesha STPMD APMD Yogyakarta", "type": "College", "category": "akademik", "subcategory": "Kolese", "opening_hours": null, "operator": null, "osm_id": 594852419}}, {"type": "Feature", "geometry": {"type": "Point", "coordinates": [110.417134, -7.797838]}, "properties": {"name": "Institut Teknologi Dirgantara Adisutjipto", "type": "College", "category": "akademik", "subcategory": "Kolese", "opening_hours": null, "operator": null, "osm_id": 1316442789}}, {"type": "Feature", "geometry": {"type": "Point", "coordinates": [110.394318, -7.79148]}, "properties": {"name": "Sekolah Tinggi Pembangunan Masyarakat Desa \"APMD\"", "type": "College", "category": "akademik", "subcategory": "Kolese", "opening_hours": null, "operator": null, "osm_id": 594852418}}, {"type": "Feature", "geometry": {"type": "Point", "coordinates": [110.354894, -7.817057]}, "properties": {"name": "Kampus UUP 2 FIP UNY", "type": "University", "category": "akademik", "subcategory": "Universitas", "opening_hours": null, "operator": null, "osm_id": 414540684}}, {"type": "Feature", "geometry": {"type": "Point", "coordinates": [110.355314, -7.81661]}, "properties": {"name": "Kampus UUP 2 FIP UNY", "type": "University", "category": "akademik", "subcategory": "Universitas", "opening_hours": null, "operator": null, "osm_id": 536681448}}, {"type": "Feature", "geometry": {"type": "Point", "coordinates": [110.38837, -7.787121]}, "properties": {"name": "Kampus 3 Institut Sains & Teknologi AKPRIND Yogyakarta", "type": "University", "category": "akademik", "subcategory": "Universitas", "opening_hours": null, "operator": null, "osm_id": 1012955074}}, {"type": "Feature", "geometry": {"type": "Point", "coordinates": [110.378268, -7.786299]}, "properties": {"name": "Universitas Kristen Duta Wacana", "type": "University", "category": "akademik", "subcategory": "Universitas", "opening_hours": null, "operator": null, "osm_id": 591473481}}, {"type": "Feature", "geometry": {"type": "Point", "coordinates": [110.438219, -7.614871]}, "properties": {"name": "Sekolah Tinggi Teologi Kadesi", "type": "College", "category": "akademik", "subcategory": "Kolese", "opening_hours": null, "operator": null, "osm_id": 261201088}}, {"type": "Feature", "geometry": {"type": "Point", "coordinates": [110.438183, -7.614663]}, "properties": {"name": "College", "type": "College", "category": "akademik", "subcategory": "Kolese", "opening_hours": null, "operator": null, "osm_id": 261202871}}, {"type": "Feature", "geometry": {"type": "Point", "coordinates": [110.438181, -7.615225]}, "properties": {"name": "College", "type": "College", "category": "akademik", "subcategory": "Kolese", "opening_hours": null, "operator": null, "osm_id": 261203024}}, {"type": "Feature", "geometry": {"type": "Point", "coordinates": [110.389405, -7.808364]}, "properties": {"name": "UAD Kampus 3", "type": "University", "category": "akademik", "subcategory": "Universitas", "opening_hours": null, "operator": null, "osm_id": 270034724}}, {"type": "Feature", "geometry": {"type": "Point", "coordinates": [110.398315, -7.806929]}, "properties": {"name": "Institut Teknologi Yogyakarta", "type": "College", "category": "akademik", "subcategory": "Kolese", "opening_hours": null, "operator": null, "osm_id": 595380139}}, {"type": "Feature", "geometry": {"type": "Point", "coordinates": [110.380971, -7.806551]}, "properties": {"name": "Fakultas Pertanian Universitas Sarjanawiyata Tamansiswa", "type": "University", "category": "akademik", "subcategory": "Universitas", "opening_hours": null, "operator": null, "osm_id": 594852451}}, {"type": "Feature", "geometry": {"type": "Point", "coordinates": [110.392347, -7.801633]}, "properties": {"name": "Universitas Sarjanawiyata Tamansiswa Kampus 1", "type": "University", "category": "akademik", "subcategory": "Universitas", "opening_hours": null, "operator": null, "osm_id": 270038887}}, {"type": "Feature", "geometry": {"type": "Point", "coordinates": [110.387845, -7.800992]}, "properties": {"name": "Fakultas Teknik Universitas Sarjanawiyata Tamansiswa Yogyakarta", "type": "College", "category": "akademik", "subcategory": "Kolese", "opening_hours": null, "operator": null, "osm_id": 594421995}}, {"type": "Feature", "geometry": {"type": "Point", "coordinates": [110.388503, -7.801239]}, "properties": {"name": "Fakultas Ekonomi Universitas Sarjanawiyata Tamansiswa Yogyakarta", "type": "College", "category": "akademik", "subcategory": "Kolese", "opening_hours": null, "operator": null, "osm_id": 594422022}}, {"type": "Feature", "geometry": {"type": "Point", "coordinates": [110.391421, -7.804441]}, "properties": {"name": "Universitas Teknologi Yogyakarta Kampus 3", "type": "University", "category": "akademik", "subcategory": "Universitas", "opening_hours": null, "operator": null, "osm_id": 594073283}}, {"type": "Feature", "geometry": {"type": "Point", "coordinates": [110.380488, -7.804999]}, "properties": {"name": "Laboratorium Terpadu UST", "type": "College", "category": "akademik", "subcategory": "Kolese", "opening_hours": null, "operator": null, "osm_id": 279486738}}, {"type": "Feature", "geometry": {"type": "Point", "coordinates": [110.35517, -7.748552]}, "properties": {"name": "UTY Kampus 1", "type": "University", "category": "akademik", "subcategory": "Universitas", "opening_hours": null, "operator": null, "osm_id": 297308286}}, {"type": "Feature", "geometry": {"type": "Point", "coordinates": [110.414141, -7.687389]}, "properties": {"name": "Universitas Islam Indonesia", "type": "University", "category": "akademik", "subcategory": "Universitas", "opening_hours": null, "operator": null, "osm_id": 1011120230}}, {"type": "Feature", "geometry": {"type": "Point", "coordinates": [110.333609, -7.768275]}, "properties": {"name": "Universitas aisyiyah", "type": "College", "category": "akademik", "subcategory": "Kolese", "opening_hours": null, "operator": null, "osm_id": 363838088}}, {"type": "Feature", "geometry": {"type": "Point", "coordinates": [110.357433, -7.784012]}, "properties": {"name": "Universitas Janabadra", "type": "University", "category": "akademik", "subcategory": "Universitas", "opening_hours": null, "operator": null, "osm_id": 933732169}}, {"type": "Feature", "geometry": {"type": "Point", "coordinates": [110.374807, -7.782147]}, "properties": {"name": "Pasca Sarjana Hukum UII", "type": "University", "category": "akademik", "subcategory": "Universitas", "opening_hours": null, "operator": null, "osm_id": 121120205}}, {"type": "Feature", "geometry": {"type": "Point", "coordinates": [110.343218, -7.781224]}, "properties": {"name": "Poltekkes Kemenkes Yogyakarta", "type": "University", "category": "akademik", "subcategory": "Universitas", "opening_hours": null, "operator": null, "osm_id": 613233452}}, {"type": "Feature", "geometry": {"type": "Point", "coordinates": [110.369539, -7.788763]}, "properties": {"name": "Universitas Sanata Dharma Kampus V", "type": "University", "category": "akademik", "subcategory": "Universitas", "opening_hours": null, "operator": null, "osm_id": 591513002}}, {"type": "Feature", "geometry": {"type": "Point", "coordinates": [110.363507, -7.790368]}, "properties": {"name": "Akademi Pariwisata Yogyakarta", "type": "College", "category": "akademik", "subcategory": "Kolese", "opening_hours": null, "operator": null, "osm_id": 201299443}}, {"type": "Feature", "geometry": {"type": "Point", "coordinates": [110.403983, -7.749978]}, "properties": {"name": "SDN Sarikarya", "type": "School", "category": "akademik", "subcategory": "Sekolah", "opening_hours": null, "operator": null, "osm_id": 535644945}}, {"type": "Feature", "geometry": {"type": "Point", "coordinates": [110.410032, -7.768186]}, "properties": {"name": "PSPP Yogyakarta", "type": "College", "category": "akademik", "subcategory": "Kolese", "opening_hours": null, "operator": null, "osm_id": 1016426643}}, {"type": "Feature", "geometry": {"type": "Point", "coordinates": [110.410014, -7.761888]}, "properties": {"name": "Gedung Perpustakaan Pusat", "type": "University", "category": "akademik", "subcategory": "Universitas", "opening_hours": null, "operator": null, "osm_id": 121833817}}, {"type": "Feature", "geometry": {"type": "Point", "coordinates": [110.321672, -7.810687]}, "properties": {"name": "University Muhammadiyah Yogyakarta", "type": "University", "category": "akademik", "subcategory": "Universitas", "opening_hours": null, "operator": null, "osm_id": 818720725}}, {"type": "Feature", "geometry": {"type": "Point", "coordinates": [110.343983, -7.783263]}, "properties": {"name": "Sekolah Tinggi Pertanahan Nasional", "type": "College", "category": "akademik", "subcategory": "Kolese", "opening_hours": null, "operator": null, "osm_id": 320100457}}, {"type": "Feature", "geometry": {"type": "Point", "coordinates": [110.392872, -7.819526]}, "properties": {"name": "Universitas Cokroaminoto Yogyakarta", "type": "University", "category": "akademik", "subcategory": "Universitas", "opening_hours": null, "operator": null, "osm_id": 121676961}}, {"type": "Feature", "geometry": {"type": "Point", "coordinates": [110.362161, -7.833447]}, "properties": {"name": "Akademi Teknik Kulit", "type": "University", "category": "akademik", "subcategory": "Universitas", "opening_hours": null, "operator": null, "osm_id": 359259135}}, {"type": "Feature", "geometry": {"type": "Point", "coordinates": [110.413858, -7.763028]}, "properties": {"name": "Universitas Mercu Buana Yogyakarta", "type": "University", "category": "akademik", "subcategory": "Universitas", "opening_hours": null, "operator": null, "osm_id": 463270423}}, {"type": "Feature", "geometry": {"type": "Point", "coordinates": [110.409228, -7.762164]}, "properties": {"name": "Gedung Rektorat", "type": "University", "category": "akademik", "subcategory": "Universitas", "opening_hours": null, "operator": null, "osm_id": 121833832}}, {"type": "Feature", "geometry": {"type": "Point", "coordinates": [110.410182, -7.762489]}, "properties": {"name": "Rumah Kaca Fakultas Pertanian UPNVY", "type": "University", "category": "akademik", "subcategory": "Universitas", "opening_hours": null, "operator": null, "osm_id": 393958140}}, {"type": "Feature", "geometry": {"type": "Point", "coordinates": [110.410761, -7.761915]}, "properties": {"name": "Gedung Prodi Agroteknologi-FP UPNVY", "type": "University", "category": "akademik", "subcategory": "Universitas", "opening_hours": null, "operator": null, "osm_id": 121833834}}, {"type": "Feature", "geometry": {"type": "Point", "coordinates": [110.408782, -7.759716]}, "properties": {"name": "Universitas AMIKOM Yogyakarta", "type": "University", "category": "akademik", "subcategory": "Universitas", "opening_hours": null, "operator": null, "osm_id": 536055161}}, {"type": "Feature", "geometry": {"type": "Point", "coordinates": [110.407719, -7.762793]}, "properties": {"name": "Gedung Prodi Ekonomi Pembangunan-FE UPNVY", "type": "University", "category": "akademik", "subcategory": "Universitas", "opening_hours": null, "operator": null, "osm_id": 121833835}}, {"type": "Feature", "geometry": {"type": "Point", "coordinates": [110.407396, -7.763182]}, "properties": {"name": "Gedung UKM UPNVY", "type": "University", "category": "akademik", "subcategory": "Universitas", "opening_hours": null, "operator": null, "osm_id": 121833804}}, {"type": "Feature", "geometry": {"type": "Point", "coordinates": [110.408101, -7.762247]}, "properties": {"name": "Dekanat Fak. Ekonomi UPNVY", "type": "University", "category": "akademik", "subcategory": "Universitas", "opening_hours": null, "operator": null, "osm_id": 121833819}}, {"type": "Feature", "geometry": {"type": "Point", "coordinates": [110.410702, -7.762343]}, "properties": {"name": "Gedung Prodi Agribisnis-FP UPNVY", "type": "University", "category": "akademik", "subcategory": "Universitas", "opening_hours": null, "operator": null, "osm_id": 121833830}}, {"type": "Feature", "geometry": {"type": "Point", "coordinates": [110.410977, -7.763222]}, "properties": {"name": "Gedung Jurusan Teknik Kimia-FTI UPNVY", "type": "University", "category": "akademik", "subcategory": "Universitas", "opening_hours": null, "operator": null, "osm_id": 121833810}}, {"type": "Feature", "geometry": {"type": "Point", "coordinates": [110.410599, -7.762571]}, "properties": {"name": "Gedung Dekanat Fak. Pertanian UPNVY", "type": "University", "category": "akademik", "subcategory": "Universitas", "opening_hours": null, "operator": null, "osm_id": 121833803}}, {"type": "Feature", "geometry": {"type": "Point", "coordinates": [110.410283, -7.763576]}, "properties": {"name": "Gedung Dekanat Fak. Teknologi Mineral UPNVY", "type": "University", "category": "akademik", "subcategory": "Universitas", "opening_hours": null, "operator": null, "osm_id": 121833824}}, {"type": "Feature", "geometry": {"type": "Point", "coordinates": [110.409728, -7.763445]}, "properties": {"name": "Gedung Prodi Teknik Perminyakan-FTM UPNVY", "type": "University", "category": "akademik", "subcategory": "Universitas", "opening_hours": null, "operator": null, "osm_id": 121833828}}, {"type": "Feature", "geometry": {"type": "Point", "coordinates": [110.408335, -7.763356]}, "properties": {"name": "Gd. Genset UPNVY", "type": "University", "category": "akademik", "subcategory": "Universitas", "opening_hours": null, "operator": null, "osm_id": 393934103}}, {"type": "Feature", "geometry": {"type": "Point", "coordinates": [110.409201, -7.763615]}, "properties": {"name": "Rumah Dinas UPNVY", "type": "University", "category": "akademik", "subcategory": "Universitas", "opening_hours": null, "operator": null, "osm_id": 121834172}}, {"type": "Feature", "geometry": {"type": "Point", "coordinates": [110.355065, -7.819248]}, "properties": {"name": "STIKES AL-ISLAM YOGYAKARTA", "type": "College", "category": "akademik", "subcategory": "Kolese", "opening_hours": null, "operator": null, "osm_id": 626073017}}, {"type": "Feature", "geometry": {"type": "Point", "coordinates": [110.361622, -7.816965]}, "properties": {"name": "Program Studi Pasca Sarjana, Insitut Seni Indonesia Yogyakarta", "type": "University", "category": "akademik", "subcategory": "Universitas", "opening_hours": null, "operator": "Kementrian Pendidikan dan Kebudayaan Republik Indonesia", "osm_id": 352739926}}, {"type": "Feature", "geometry": {"type": "Point", "coordinates": [110.355574, -7.816934]}, "properties": {"name": "Kampus UUP 2 FIP UNY", "type": "University", "category": "akademik", "subcategory": "Universitas", "opening_hours": null, "operator": null, "osm_id": 414540683}}, {"type": "Feature", "geometry": {"type": "Point", "coordinates": [110.355289, -7.816878]}, "properties": {"name": "Kampus UUP 2 FIP UNY", "type": "University", "category": "akademik", "subcategory": "Universitas", "opening_hours": null, "operator": null, "osm_id": 536681452}}, {"type": "Feature", "geometry": {"type": "Point", "coordinates": [110.355521, -7.816646]}, "properties": {"name": "Kampus UUP 2 FIP UNY", "type": "University", "category": "akademik", "subcategory": "Universitas", "opening_hours": null, "operator": null, "osm_id": 536681451}}, {"type": "Feature", "geometry": {"type": "Point", "coordinates": [110.355327, -7.816495]}, "properties": {"name": "Kampus UUP 2 FIP UNY", "type": "University", "category": "akademik", "subcategory": "Universitas", "opening_hours": null, "operator": null, "osm_id": 536681447}}, {"type": "Feature", "geometry": {"type": "Point", "coordinates": [110.355296, -7.816701]}, "properties": {"name": "Kampus UUP 2 FIP UNY", "type": "University", "category": "akademik", "subcategory": "Universitas", "opening_hours": null, "operator": null, "osm_id": 536681450}}, {"type": "Feature", "geometry": {"type": "Point", "coordinates": [110.372889, -7.795004]}, "properties": {"name": "STIE Isti Ekatana Upaweda", "type": "College", "category": "akademik", "subcategory": "Kolese", "opening_hours": null, "operator": null, "osm_id": 592001369}}, {"type": "Feature", "geometry": {"type": "Point", "coordinates": [110.409002, -7.760612]}, "properties": {"name": "Sekolah Tinggi Ilmu Kesehatan Guna Bangsa", "type": "College", "category": "akademik", "subcategory": "Kolese", "opening_hours": null, "operator": null, "osm_id": 537039043}}, {"type": "Feature", "geometry": {"type": "Point", "coordinates": [110.392085, -7.759802]}, "properties": {"name": "Politeknik Kesehatan Permata Indonesia", "type": "College", "category": "akademik", "subcategory": "Kolese", "opening_hours": null, "operator": null, "osm_id": 132682967}}, {"type": "Feature", "geometry": {"type": "Point", "coordinates": [110.355694, -7.85248]}, "properties": {"name": "Institut Seni Indonesia Yogyakarta", "type": "University", "category": "akademik", "subcategory": "Universitas", "opening_hours": null, "operator": null, "osm_id": 121872177}}, {"type": "Feature", "geometry": {"type": "Point", "coordinates": [110.368741, -7.838253]}, "properties": {"name": "STTKD Yogyakarta", "type": "College", "category": "akademik", "subcategory": "Kolese", "opening_hours": null, "operator": null, "osm_id": 536142341}}, {"type": "Feature", "geometry": {"type": "Point", "coordinates": [110.372231, -7.737018]}, "properties": {"name": "APTA", "type": "University", "category": "akademik", "subcategory": "Universitas", "opening_hours": null, "operator": null, "osm_id": 533294415}}, {"type": "Feature", "geometry": {"type": "Point", "coordinates": [110.376813, -7.737346]}, "properties": {"name": "STIEM UKPN APTA", "type": "College", "category": "akademik", "subcategory": "Kolese", "opening_hours": null, "operator": null, "osm_id": 533294417}}, {"type": "Feature", "geometry": {"type": "Point", "coordinates": [110.324699, -7.802613]}, "properties": {"name": "BSI Yogyakarta", "type": "University", "category": "akademik", "subcategory": "Universitas", "opening_hours": null, "operator": null, "osm_id": 530392830}}, {"type": "Feature", "geometry": {"type": "Point", "coordinates": [110.382293, -7.776227]}, "properties": {"name": "B27", "type": "University", "category": "akademik", "subcategory": "Universitas", "opening_hours": null, "operator": null, "osm_id": 120904188}}, {"type": "Feature", "geometry": {"type": "Point", "coordinates": [110.387648, -7.773535]}, "properties": {"name": "Fakultas Ilmu Sosial, Hukum, dan Ilmu Politik (FISHIPOL) UNY", "type": "University", "category": "akademik", "subcategory": "Universitas", "opening_hours": null, "operator": null, "osm_id": 340182370}}, {"type": "Feature", "geometry": {"type": "Point", "coordinates": [110.385764, -7.774376]}, "properties": {"name": "Universitas Negeri Yogyakarta", "type": "University", "category": "akademik", "subcategory": "Universitas", "opening_hours": null, "operator": null, "osm_id": 189172294}}, {"type": "Feature", "geometry": {"type": "Point", "coordinates": [110.388164, -7.774659]}, "properties": {"name": "Fakultas Ilmu Pendidikan (FIP) UNY", "type": "University", "category": "akademik", "subcategory": "Universitas", "opening_hours": null, "operator": null, "osm_id": 1018512356}}, {"type": "Feature", "geometry": {"type": "Point", "coordinates": [110.37806, -7.770669]}, "properties": {"name": "Universitas Gadjah Mada", "type": "University", "category": "akademik", "subcategory": "Universitas", "opening_hours": null, "operator": null, "osm_id": 778464135}}, {"type": "Feature", "geometry": {"type": "Point", "coordinates": [110.371631, -7.764868]}, "properties": {"name": "Laboratorium Teknik Kimia", "type": "University", "category": "akademik", "subcategory": "Universitas", "opening_hours": null, "operator": null, "osm_id": 120381232}}, {"type": "Feature", "geometry": {"type": "Point", "coordinates": [110.426989, -7.700033]}, "properties": {"name": "Balai Besar Pengembangan Penjaminan Mutu Pendidikan Vokasi Seni dan Budaya", "type": "College", "category": "akademik", "subcategory": "Kolese", "opening_hours": null, "operator": null, "osm_id": 1083121017}}, {"type": "Feature", "geometry": {"type": "Point", "coordinates": [110.388975, -7.805909]}, "properties": {"name": "Universitas Teknologi Yogyakarta Kampus 2", "type": "University", "category": "akademik", "subcategory": "Universitas", "opening_hours": null, "operator": null, "osm_id": 270035710}}, {"type": "Feature", "geometry": {"type": "Point", "coordinates": [110.382564, -7.820536]}, "properties": {"name": "Akademi Kesehatan Sosial AKK Yogyakarta", "type": "College", "category": "akademik", "subcategory": "Kolese", "opening_hours": null, "operator": null, "osm_id": 536690388}}, {"type": "Feature", "geometry": {"type": "Point", "coordinates": [110.355563, -7.816463]}, "properties": {"name": "Kampus UUP 2 FIP UNY", "type": "University", "category": "akademik", "subcategory": "Universitas", "opening_hours": null, "operator": null, "osm_id": 414540680}}, {"type": "Feature", "geometry": {"type": "Point", "coordinates": [110.163963, -7.854396]}, "properties": {"name": "Gedung Layanan Akademik UNY", "type": "University", "category": "akademik", "subcategory": "Universitas", "opening_hours": null, "operator": null, "osm_id": 536282210}}, {"type": "Feature", "geometry": {"type": "Point", "coordinates": [110.174978, -7.856445]}, "properties": {"name": "IKIP PGRI Wates", "type": "College", "category": "akademik", "subcategory": "Kolese", "opening_hours": null, "operator": null, "osm_id": 536296880}}, {"type": "Feature", "geometry": {"type": "Point", "coordinates": [110.355978, -7.852894]}, "properties": {"name": "University", "type": "University", "category": "akademik", "subcategory": "Universitas", "opening_hours": null, "operator": null, "osm_id": 520699395}}, {"type": "Feature", "geometry": {"type": "Point", "coordinates": [110.386443, -7.773184]}, "properties": {"name": "Fakultas Ekonomi dan Bisnis (FEB) UNY", "type": "University", "category": "akademik", "subcategory": "Universitas", "opening_hours": null, "operator": null, "osm_id": 340182369}}, {"type": "Feature", "geometry": {"type": "Point", "coordinates": [110.395174, -7.785911]}, "properties": {"name": "UIN Sunan Kalijaga", "type": "University", "category": "akademik", "subcategory": "Universitas", "opening_hours": null, "operator": null, "osm_id": 1083677146}}, {"type": "Feature", "geometry": {"type": "Point", "coordinates": [110.372442, -7.737133]}, "properties": {"name": "APTA", "type": "University", "category": "akademik", "subcategory": "Universitas", "opening_hours": null, "operator": null, "osm_id": 533294416}}, {"type": "Feature", "geometry": {"type": "Point", "coordinates": [110.414715, -7.780966]}, "properties": {"name": "Gedung St. Don Bosko UAJY", "type": "University", "category": "akademik", "subcategory": "Universitas", "opening_hours": null, "operator": null, "osm_id": 120816329}}, {"type": "Feature", "geometry": {"type": "Point", "coordinates": [110.413619, -7.780409]}, "properties": {"name": "Kampus II UAJY Gedung St. Thomas Aquinas", "type": "University", "category": "akademik", "subcategory": "Universitas", "opening_hours": null, "operator": null, "osm_id": 120816479}}, {"type": "Feature", "geometry": {"type": "Point", "coordinates": [110.408383, -7.76272]}, "properties": {"name": "Prodi Manajemen-FE UPNVY", "type": "University", "category": "akademik", "subcategory": "Universitas", "opening_hours": null, "operator": null, "osm_id": 121833838}}, {"type": "Feature", "geometry": {"type": "Point", "coordinates": [110.409948, -7.7632]}, "properties": {"name": "Gedung Prodi Teknik Geologi-FTM UPNVY", "type": "University", "category": "akademik", "subcategory": "Universitas", "opening_hours": null, "operator": null, "osm_id": 121833814}}, {"type": "Feature", "geometry": {"type": "Point", "coordinates": [110.410044, -7.762873]}, "properties": {"name": "Gedung Teknik Pertambangan Fakultas Teknologi MIneral UPN \"VETERAN\" Yogyakarta", "type": "University", "category": "akademik", "subcategory": "Universitas", "opening_hours": null, "operator": null, "osm_id": 121833813}}, {"type": "Feature", "geometry": {"type": "Point", "coordinates": [110.407696, -7.762316]}, "properties": {"name": "Prodi Akuntansi-FE UPNVY", "type": "University", "category": "akademik", "subcategory": "Universitas", "opening_hours": null, "operator": null, "osm_id": 121833821}}, {"type": "Feature", "geometry": {"type": "Point", "coordinates": [110.415108, -7.782462]}, "properties": {"name": "UPN Veteran Yogyakarta Kampus II", "type": "University", "category": "akademik", "subcategory": "Universitas", "opening_hours": null, "operator": null, "osm_id": 394232175}}, {"type": "Feature", "geometry": {"type": "Point", "coordinates": [110.380542, -7.808376]}, "properties": {"name": "Universitas Sarjanawiyata Tamansiswa Kampus 3", "type": "University", "category": "akademik", "subcategory": "Universitas", "opening_hours": null, "operator": null, "osm_id": 595380132}}, {"type": "Feature", "geometry": {"type": "Point", "coordinates": [110.354939, -7.816644]}, "properties": {"name": "Kampus UUP 2 FIP UNY", "type": "University", "category": "akademik", "subcategory": "Universitas", "opening_hours": null, "operator": null, "osm_id": 414540678}}, {"type": "Feature", "geometry": {"type": "Point", "coordinates": [110.357619, -7.849742]}, "properties": {"name": "Akademi Kebidanan Yogyakarta", "type": "University", "category": "akademik", "subcategory": "Universitas", "opening_hours": null, "operator": null, "osm_id": 120837759}}, {"type": "Feature", "geometry": {"type": "Point", "coordinates": [110.379659, -7.826257]}, "properties": {"name": "Universitas Ahmad Dahlan Kampus 5", "type": "College", "category": "akademik", "subcategory": "Kolese", "opening_hours": null, "operator": null, "osm_id": 595380115}}, {"type": "Feature", "geometry": {"type": "Point", "coordinates": [110.387372, -7.820521]}, "properties": {"name": "Universitas Ahmad Dahlan Kampus 2", "type": "College", "category": "akademik", "subcategory": "Kolese", "opening_hours": null, "operator": null, "osm_id": 594985438}}, {"type": "Feature", "geometry": {"type": "Point", "coordinates": [110.415561, -7.779245]}, "properties": {"name": "Universitas Atma Jaya Yogyakarta - Kampus 3", "type": "University", "category": "akademik", "subcategory": "Universitas", "opening_hours": null, "operator": null, "osm_id": 120817384}}, {"type": "Feature", "geometry": {"type": "Point", "coordinates": [110.376657, -7.819577]}, "properties": {"name": "Universitas Nadhlatul Ulama Yogyakarta", "type": "College", "category": "akademik", "subcategory": "Kolese", "opening_hours": null, "operator": null, "osm_id": 594985478}}, {"type": "Feature", "geometry": {"type": "Point", "coordinates": [110.389058, -7.822168]}, "properties": {"name": "Universitas Achmad Dahlan", "type": "University", "category": "akademik", "subcategory": "Universitas", "opening_hours": null, "operator": null, "osm_id": 536690247}}, {"type": "Feature", "geometry": {"type": "Point", "coordinates": [110.377885, -7.822163]}, "properties": {"name": "STIE Widya Wiwaha", "type": "College", "category": "akademik", "subcategory": "Kolese", "opening_hours": null, "operator": null, "osm_id": 594852338}}, {"type": "Feature", "geometry": {"type": "Point", "coordinates": [110.416825, -7.797468]}, "properties": {"name": "Sekolah Tinggi Adi Sucipto", "type": "College", "category": "akademik", "subcategory": "Kolese", "opening_hours": null, "operator": null, "osm_id": 123332806}}, {"type": "Feature", "geometry": {"type": "Point", "coordinates": [110.377608, -7.766337]}, "properties": {"name": "Fakultas Geografi UGM", "type": "College", "category": "akademik", "subcategory": "Kolese", "opening_hours": null, "operator": "Universitas Gadjah Mada", "osm_id": 491025140}}, {"type": "Feature", "geometry": {"type": "Point", "coordinates": [110.375791, -7.784185]}, "properties": {"name": "STIKES Bethesda YAKKUM", "type": "College", "category": "akademik", "subcategory": "Kolese", "opening_hours": null, "operator": null, "osm_id": 123595454}}, {"type": "Feature", "geometry": {"type": "Point", "coordinates": [110.322753, -7.815844]}, "properties": {"name": "University", "type": "University", "category": "akademik", "subcategory": "Universitas", "opening_hours": null, "operator": null, "osm_id": 818719601}}, {"type": "Feature", "geometry": {"type": "Point", "coordinates": [110.338104, -7.893464]}, "properties": {"name": "STiKIP Catur Sakti", "type": "University", "category": "akademik", "subcategory": "Universitas", "opening_hours": null, "operator": "Yayasan Pembangunan Catur Sakti", "osm_id": 1127952109}}, {"type": "Feature", "geometry": {"type": "Point", "coordinates": [110.17503, -7.856121]}, "properties": {"name": "IKIP PGRI Wates", "type": "College", "category": "akademik", "subcategory": "Kolese", "opening_hours": null, "operator": null, "osm_id": 536296881}}, {"type": "Feature", "geometry": {"type": "Point", "coordinates": [110.42155, -7.75494]}, "properties": {"name": "Universitas Sanata Dharma (Kampus III)", "type": "University", "category": "akademik", "subcategory": "Universitas", "opening_hours": null, "operator": null, "osm_id": 258039052}}, {"type": "Feature", "geometry": {"type": "Point", "coordinates": [110.164446, -7.854082]}, "properties": {"name": "UNY Kampus Wates", "type": "University", "category": "akademik", "subcategory": "Universitas", "opening_hours": null, "operator": null, "osm_id": 536282219}}, {"type": "Feature", "geometry": {"type": "Point", "coordinates": [110.164381, -7.853679]}, "properties": {"name": "Universitas Negeri Yogyakarta Kampus Wates", "type": "University", "category": "akademik", "subcategory": "Universitas", "opening_hours": null, "operator": null, "osm_id": 887812149}}, {"type": "Feature", "geometry": {"type": "Point", "coordinates": [110.174815, -7.856716]}, "properties": {"name": "IKIP PGRI Wates", "type": "College", "category": "akademik", "subcategory": "Kolese", "opening_hours": null, "operator": null, "osm_id": 536296878}}, {"type": "Feature", "geometry": {"type": "Point", "coordinates": [110.352236, -7.894226]}, "properties": {"name": "Akademi Keperawatan Karya Bakti Husada", "type": "College", "category": "akademik", "subcategory": "Kolese", "opening_hours": null, "operator": null, "osm_id": 534570465}}, {"type": "Feature", "geometry": {"type": "Point", "coordinates": [110.32382, -7.80505]}, "properties": {"name": "STIKES Jenderal Ahmad Yani Yogyakarta", "type": "University", "category": "akademik", "subcategory": "Universitas", "opening_hours": null, "operator": null, "osm_id": 530392886}}, {"type": "Feature", "geometry": {"type": "Point", "coordinates": [110.355206, -7.803525]}, "properties": {"name": "STIKES 'Aisyiyah Yogyakarta", "type": "College", "category": "akademik", "subcategory": "Kolese", "opening_hours": null, "operator": null, "osm_id": 122961980}}, {"type": "Feature", "geometry": {"type": "Point", "coordinates": [110.270697, -7.808729]}, "properties": {"name": "Universitas Mercu Buana Yogyakarta. Kampus 1 Sedayu", "type": "University", "category": "akademik", "subcategory": "Universitas", "opening_hours": null, "operator": null, "osm_id": 340887675}}, {"type": "Feature", "geometry": {"type": "Point", "coordinates": [110.341311, -7.805721]}, "properties": {"name": "Universitas PGRI", "type": "College", "category": "akademik", "subcategory": "Kolese", "opening_hours": null, "operator": null, "osm_id": 316775135}}, {"type": "Feature", "geometry": {"type": "Point", "coordinates": [110.382829, -7.832708]}, "properties": {"name": "Asrama Kampus Universitas Ahmad Dahlan (UAD)", "type": "University", "category": "akademik", "subcategory": "Universitas", "opening_hours": null, "operator": null, "osm_id": 1036196338}}, {"type": "Feature", "geometry": {"type": "Point", "coordinates": [110.381888, -7.832837]}, "properties": {"name": "Asrama Kampus Universitas Ahmad Dahlan (UAD)", "type": "University", "category": "akademik", "subcategory": "Universitas", "opening_hours": null, "operator": null, "osm_id": 1036196337}}, {"type": "Feature", "geometry": {"type": "Point", "coordinates": [110.391168, -7.742564]}, "properties": {"name": "Skolastikat SCJ (Sacro Corde Jesu)", "type": "University", "category": "akademik", "subcategory": "Universitas", "opening_hours": null, "operator": null, "osm_id": 165406689}}, {"type": "Feature", "geometry": {"type": "Point", "coordinates": [110.391578, -7.774999]}, "properties": {"name": "Universitas Sanata Dharma, Mrican", "type": "University", "category": "akademik", "subcategory": "Universitas", "opening_hours": null, "operator": null, "osm_id": 18390404}}, {"type": "Feature", "geometry": {"type": "Point", "coordinates": [110.409056, -7.762511]}, "properties": {"name": "Kampus Pusat UPN \"Veteran\" Yogyakarta", "type": "University", "category": "akademik", "subcategory": "Universitas", "opening_hours": null, "operator": null, "osm_id": 15268129}}, {"type": "Feature", "geometry": {"type": "Point", "coordinates": [110.394578, -7.763163]}, "properties": {"name": "Universitas Mercu Buana", "type": "University", "category": "akademik", "subcategory": "Universitas", "opening_hours": null, "operator": null, "osm_id": 14216782}}]}