{"type":"FeatureCollection","features":[{"type":"Feature","geometry":{"type":"Point","coordinates":[110.5126,-8.00148]},"properties":{"name":"Bank BRI Paliyan","type":"Bank","category":"atm_bank","subcategory":"Bank","opening_hours":null,"operator":null,"osm_id":2706521139}},{"type":"Feature","geometry":{"type":"Point","coordinates":[110.40556,-7.75959]},"properties":{"name":"ATM BCA","type":"Atm","category":"atm_bank","subcategory":"ATM","opening_hours":null,"operator":"Bank Central Asia","osm_id":10575687788}},{"type":"Feature","geometry":{"type":"Point","coordinates":[110.40781,-7.75936]},"properties":{"name":"ATM Mandiri","type":"Atm","category":"atm_bank","subcategory":"ATM","opening_hours":null,"operator":"Bank Mandiri","osm_id":10574328765}},{"type":"Feature","geometry":{"type":"Point","coordinates":[110.38102,-7.76819]},"properties":{"name":"ATM Mandiri","type":"Atm","category":"atm_bank","subcategory":"ATM","opening_hours":null,"operator":null,"osm_id":3624563110}},{"type":"Feature","geometry":{"type":"Point","coordinates":[110.37722,-7.76688]},"properties":{"name":"Atm","type":"Atm","category":"atm_bank","subcategory":"ATM","opening_hours":null,"operator":"BNI","osm_id":6762036383}},{"type":"Feature","geometry":{"type":"Point","coordinates":[110.36918,-7.76062]},"properties":{"name":"Atm","type":"Atm","category":"atm_bank","subcategory":"ATM","opening_hours":null,"operator":"Bank Central Asia","osm_id":6780256426}},{"type":"Feature","geometry":{"type":"Point","coordinates":[110.36917,-7.76064]},"properties":{"name":"Atm","type":"Atm","category":"atm_bank","subcategory":"ATM","opening_hours":null,"operator":"BNI","osm_id":8570430266}},{"type":"Feature","geometry":{"type":"Point","coordinates":[110.36211,-7.76079]},"properties":{"name":"BNI","type":"Bank","category":"atm_bank","subcategory":"Bank","opening_hours":"Mo-Fr 08:00-15:30","operator":"bank BNI","osm_id":8580526594}},{"type":"Feature","geometry":{"type":"Point","coordinates":[110.35511,-7.74708]},"properties":{"name":"Atm","type":"Atm","category":"atm_bank","subcategory":"ATM","opening_hours":null,"operator":null,"osm_id":5328447827}},{"type":"Feature","geometry":{"type":"Point","coordinates":[110.39049,-7.82369]},"properties":{"name":"Atm","type":"Atm","category":"atm_bank","subcategory":"ATM","opening_hours":null,"operator":"Bank Central Asia","osm_id":11124053058}},{"type":"Feature","geometry":{"type":"Point","coordinates":[110.39036,-7.8254]},"properties":{"name":"Atm","type":"Atm","category":"atm_bank","subcategory":"ATM","opening_hours":null,"operator":"Bank Mandiri","osm_id":11124089892}},{"type":"Feature","geometry":{"type":"Point","coordinates":[110.36794,-7.82133]},"properties":{"name":"CIMB Niaga Parangtritis","type":"Bank","category":"atm_bank","subcategory":"Bank","opening_hours":"Mo-Fr 08:00-15:00","operator":null,"osm_id":3487503060}},{"type":"Feature","geometry":{"type":"Point","coordinates":[110.36087,-7.82498]},"properties":{"name":"Bank BRI","type":"Bank","category":"atm_bank","subcategory":"Bank","opening_hours":null,"operator":null,"osm_id":5812363156}},{"type":"Feature","geometry":{"type":"Point","coordinates":[110.46228,-7.77544]},"properties":{"name":"ATM BNI","type":"Atm","category":"atm_bank","subcategory":"ATM","opening_hours":null,"operator":"BNI","osm_id":9722452564}},{"type":"Feature","geometry":{"type":"Point","coordinates":[110.46979,-7.76886]},"properties":{"name":"Bank Mandiri","type":"Bank","category":"atm_bank","subcategory":"Bank","opening_hours":"Mo-Fr 08:00-15:00","operator":null,"osm_id":9794157705}},{"type":"Feature","geometry":{"type":"Point","coordinates":[110.45877,-7.77672]},"properties":{"name":"ATM Muamalat","type":"Atm","category":"atm_bank","subcategory":"ATM","opening_hours":null,"operator":"Bank Muamalat","osm_id":10574328763}},{"type":"Feature","geometry":{"type":"Point","coordinates":[110.44608,-7.69984]},"properties":{"name":"Bank BRI","type":"Bank","category":"atm_bank","subcategory":"Bank","opening_hours":null,"operator":null,"osm_id":13229401286}},{"type":"Feature","geometry":{"type":"Point","coordinates":[110.44218,-7.75262]},"properties":{"name":"ATM Mandiri","type":"Atm","category":"atm_bank","subcategory":"ATM","opening_hours":null,"operator":"Bank Mandiri","osm_id":10574348393}},{"type":"Feature","geometry":{"type":"Point","coordinates":[110.43356,-7.75544]},"properties":{"name":"Bank BPD DIY","type":"Bank","category":"atm_bank","subcategory":"Bank","opening_hours":null,"operator":null,"osm_id":9671832265}},{"type":"Feature","geometry":{"type":"Point","coordinates":[110.34084,-7.80635]},"properties":{"name":"Atm","type":"Atm","category":"atm_bank","subcategory":"ATM","opening_hours":null,"operator":null,"osm_id":7097548708}},{"type":"Feature","geometry":{"type":"Point","coordinates":[110.33501,-7.7776]},"properties":{"name":"Bank Mandiri KCP Godean","type":"Bank","category":"atm_bank","subcategory":"Bank","opening_hours":"Mo-Th 08:00-15:00; Fr 08:00-15:00","operator":null,"osm_id":13366320401}},{"type":"Feature","geometry":{"type":"Point","coordinates":[110.3608,-7.77915]},"properties":{"name":"Bank Danatama Syariah","type":"Bank","category":"atm_bank","subcategory":"Bank","opening_hours":null,"operator":null,"osm_id":5646828235}},{"type":"Feature","geometry":{"type":"Point","coordinates":[110.36222,-7.783]},"properties":{"name":"ATM Mandiri","type":"Atm","category":"atm_bank","subcategory":"ATM","opening_hours":"24/7","operator":"Bank Mandiri","osm_id":10162632361}},{"type":"Feature","geometry":{"type":"Point","coordinates":[110.3872,-7.7778]},"properties":{"name":"Bank Mandiri","type":"Bank","category":"atm_bank","subcategory":"Bank","opening_hours":"Mo-Fr 08:00-15:00","operator":null,"osm_id":4335939790}},{"type":"Feature","geometry":{"type":"Point","coordinates":[110.39048,-7.76951]},"properties":{"name":"ATM Bank BRI","type":"Atm","category":"atm_bank","subcategory":"ATM","opening_hours":null,"operator":"BRI","osm_id":5334474741}},{"type":"Feature","geometry":{"type":"Point","coordinates":[110.38709,-7.76803]},"properties":{"name":"Atm","type":"Atm","category":"atm_bank","subcategory":"ATM","opening_hours":"Mo-Su 07:00-21:00","operator":"Bank BRI Bank BNI Bank Mandiri","osm_id":4331952804}},{"type":"Feature","geometry":{"type":"Point","coordinates":[110.39843,-7.78305]},"properties":{"name":"Bank Syariah Indonesia","type":"Bank","category":"atm_bank","subcategory":"Bank","opening_hours":null,"operator":null,"osm_id":3473046922}},{"type":"Feature","geometry":{"type":"Point","coordinates":[110.41616,-7.78395]},"properties":{"name":"Atm","type":"Atm","category":"atm_bank","subcategory":"ATM","opening_hours":"24/7","operator":"BRI","osm_id":4416177491}},{"type":"Feature","geometry":{"type":"Point","coordinates":[110.41191,-7.77412]},"properties":{"name":"Bank","type":"Bank","category":"atm_bank","subcategory":"Bank","opening_hours":null,"operator":null,"osm_id":4585536385}},{"type":"Feature","geometry":{"type":"Point","coordinates":[110.41221,-7.76004]},"properties":{"name":"Bank Syariah Indonesia","type":"Bank","category":"atm_bank","subcategory":"Bank","opening_hours":null,"operator":null,"osm_id":9861459931}},{"type":"Feature","geometry":{"type":"Point","coordinates":[110.4143,-7.77975]},"properties":{"name":"Bank Central Asia","type":"Bank","category":"atm_bank","subcategory":"Bank","opening_hours":null,"operator":null,"osm_id":9863810919}},{"type":"Feature","geometry":{"type":"Point","coordinates":[110.41715,-7.67635]},"properties":{"name":"Atm BNI","type":"Atm","category":"atm_bank","subcategory":"ATM","opening_hours":null,"operator":"BNI","osm_id":11549934238}},{"type":"Feature","geometry":{"type":"Point","coordinates":[110.37869,-7.78574]},"properties":{"name":"Atm","type":"Atm","category":"atm_bank","subcategory":"ATM","opening_hours":null,"operator":null,"osm_id":9200943207}},{"type":"Feature","geometry":{"type":"Point","coordinates":[110.3787,-7.7857]},"properties":{"name":"Atm","type":"Atm","category":"atm_bank","subcategory":"ATM","opening_hours":null,"operator":null,"osm_id":9200943208}},{"type":"Feature","geometry":{"type":"Point","coordinates":[110.37632,-7.81417]},"properties":{"name":"Atm","type":"Atm","category":"atm_bank","subcategory":"ATM","opening_hours":null,"operator":"Bank Mandiri","osm_id":13543416946}},{"type":"Feature","geometry":{"type":"Point","coordinates":[110.37525,-7.81578]},"properties":{"name":"Bank Syariah Indonesia","type":"Bank","category":"atm_bank","subcategory":"Bank","opening_hours":null,"operator":"PT Bank Syariah Indonesia (Persero) Tbk","osm_id":13580320614}},{"type":"Feature","geometry":{"type":"Point","coordinates":[110.37421,-7.75157]},"properties":{"name":"ATM BRI","type":"Atm","category":"atm_bank","subcategory":"ATM","opening_hours":null,"operator":null,"osm_id":5358201520}},{"type":"Feature","geometry":{"type":"Point","coordinates":[110.38041,-7.76125]},"properties":{"name":"Bank Syariah Indonesia","type":"Bank","category":"atm_bank","subcategory":"Bank","opening_hours":"Mo-Fr 08:00-16:00","operator":null,"osm_id":3396442817}},{"type":"Feature","geometry":{"type":"Point","coordinates":[110.36169,-7.75679]},"properties":{"name":"Bank BPD DIY","type":"Bank","category":"atm_bank","subcategory":"Bank","opening_hours":null,"operator":null,"osm_id":1848022439}},{"type":"Feature","geometry":{"type":"Point","coordinates":[110.36806,-7.82227]},"properties":{"name":"BNI","type":"Bank","category":"atm_bank","subcategory":"Bank","opening_hours":null,"operator":null,"osm_id":1654012033}},{"type":"Feature","geometry":{"type":"Point","coordinates":[110.37074,-7.78901]},"properties":{"name":"Atm","type":"Atm","category":"atm_bank","subcategory":"ATM","opening_hours":null,"operator":null,"osm_id":7811256794}},{"type":"Feature","geometry":{"type":"Point","coordinates":[110.37868,-7.78582]},"properties":{"name":"Atm","type":"Atm","category":"atm_bank","subcategory":"ATM","opening_hours":null,"operator":null,"osm_id":9200943209}},{"type":"Feature","geometry":{"type":"Point","coordinates":[110.07271,-7.88637]},"properties":{"name":"Bank Nusamba Temon","type":"Bank","category":"atm_bank","subcategory":"Bank","opening_hours":null,"operator":null,"osm_id":2751362426}},{"type":"Feature","geometry":{"type":"Point","coordinates":[110.41033,-7.68717]},"properties":{"name":"BMT","type":"Bank","category":"atm_bank","subcategory":"Bank","opening_hours":"Mo-Sa 08:00-18:00","operator":"Fakultas Ilmu Agama Islam","osm_id":8818414691}},{"type":"Feature","geometry":{"type":"Point","coordinates":[110.41868,-7.68732]},"properties":{"name":"ATM Center","type":"Atm","category":"atm_bank","subcategory":"ATM","opening_hours":null,"operator":"BSI, ATM Bersama, Bank Bukopin","osm_id":3204053561}},{"type":"Feature","geometry":{"type":"Point","coordinates":[110.40106,-7.78137]},"properties":{"name":"Bank Mandiri","type":"Atm","category":"atm_bank","subcategory":"ATM","opening_hours":null,"operator":"Bank Mandiri","osm_id":5911946785}},{"type":"Feature","geometry":{"type":"Point","coordinates":[110.40106,-7.78146]},"properties":{"name":"BNI","type":"Atm","category":"atm_bank","subcategory":"ATM","opening_hours":null,"operator":"BNI","osm_id":5911946885}},{"type":"Feature","geometry":{"type":"Point","coordinates":[110.60122,-7.96377]},"properties":{"name":"Atm","type":"Atm","category":"atm_bank","subcategory":"ATM","opening_hours":null,"operator":null,"osm_id":10020007918}},{"type":"Feature","geometry":{"type":"Point","coordinates":[110.43637,-7.78311]},"properties":{"name":"Atm","type":"Atm","category":"atm_bank","subcategory":"ATM","opening_hours":null,"operator":"Bank Mandiri","osm_id":2024663664}},{"type":"Feature","geometry":{"type":"Point","coordinates":[110.43727,-7.78533]},"properties":{"name":"BNI ATM","type":"Atm","category":"atm_bank","subcategory":"ATM","opening_hours":null,"operator":"BNI","osm_id":11546904535}},{"type":"Feature","geometry":{"type":"Point","coordinates":[110.4372,-7.78561]},"properties":{"name":"Mandiri ATM","type":"Atm","category":"atm_bank","subcategory":"ATM","opening_hours":null,"operator":"Bank Mandiri","osm_id":11546904534}},{"type":"Feature","geometry":{"type":"Point","coordinates":[110.39044,-7.78338]},"properties":{"name":"Nobu National Bank","type":"Bank","category":"atm_bank","subcategory":"Bank","opening_hours":null,"operator":null,"osm_id":9725919532}},{"type":"Feature","geometry":{"type":"Point","coordinates":[110.37863,-7.78335]},"properties":{"name":"ATM Mandiri","type":"Atm","category":"atm_bank","subcategory":"ATM","opening_hours":null,"operator":"Bank Mandiri","osm_id":7223888761}},{"type":"Feature","geometry":{"type":"Point","coordinates":[110.37577,-7.78216]},"properties":{"name":"ATM BCA","type":"Atm","category":"atm_bank","subcategory":"ATM","opening_hours":null,"operator":null,"osm_id":9696679761}},{"type":"Feature","geometry":{"type":"Point","coordinates":[110.37637,-7.78612]},"properties":{"name":"Atm","type":"Atm","category":"atm_bank","subcategory":"ATM","opening_hours":null,"operator":null,"osm_id":9158972450}},{"type":"Feature","geometry":{"type":"Point","coordinates":[110.48397,-7.75585]},"properties":{"name":"BPR Shinta Daya","type":"Bank","category":"atm_bank","subcategory":"Bank","opening_hours":null,"operator":"PT. Bank Perkreditan Rakyat Shinta Daya","osm_id":9728565487}},{"type":"Feature","geometry":{"type":"Point","coordinates":[110.43181,-7.76501]},"properties":{"name":"BNI","type":"Bank","category":"atm_bank","subcategory":"Bank","opening_hours":null,"operator":null,"osm_id":9807899925}},{"type":"Feature","geometry":{"type":"Point","coordinates":[110.43376,-7.75657]},"properties":{"name":"BRI","type":"Bank","category":"atm_bank","subcategory":"Bank","opening_hours":null,"operator":null,"osm_id":7152830468}},{"type":"Feature","geometry":{"type":"Point","coordinates":[110.55576,-7.9147]},"properties":{"name":"Bank BRI Gading","type":"Bank","category":"atm_bank","subcategory":"Bank","opening_hours":null,"operator":null,"osm_id":2706777222}},{"type":"Feature","geometry":{"type":"Point","coordinates":[110.37224,-7.78201]},"properties":{"name":"Atm","type":"Atm","category":"atm_bank","subcategory":"ATM","opening_hours":null,"operator":"BNI","osm_id":12513682352}},{"type":"Feature","geometry":{"type":"Point","coordinates":[110.38093,-7.75987]},"properties":{"name":"OCBC","type":"Bank","category":"atm_bank","subcategory":"Bank","opening_hours":null,"operator":null,"osm_id":3480982641}},{"type":"Feature","geometry":{"type":"Point","coordinates":[110.38018,-7.76224]},"properties":{"name":"Atm","type":"Atm","category":"atm_bank","subcategory":"ATM","opening_hours":null,"operator":"BNI","osm_id":3621544968}},{"type":"Feature","geometry":{"type":"Point","coordinates":[110.38036,-7.76171]},"properties":{"name":"Atm","type":"Atm","category":"atm_bank","subcategory":"ATM","opening_hours":"Mo-Su 07:00-22:00","operator":"Bank Central Asia","osm_id":4331936401}},{"type":"Feature","geometry":{"type":"Point","coordinates":[110.38887,-7.77736]},"properties":{"name":"Atm","type":"Atm","category":"atm_bank","subcategory":"ATM","opening_hours":null,"operator":"Bank Central Asia","osm_id":4331941413}},{"type":"Feature","geometry":{"type":"Point","coordinates":[110.41224,-7.76024]},"properties":{"name":"ATM Mandiri","type":"Atm","category":"atm_bank","subcategory":"ATM","opening_hours":null,"operator":"Bank Mandiri","osm_id":10575687787}},{"type":"Feature","geometry":{"type":"Point","coordinates":[110.40779,-7.75935]},"properties":{"name":"ATM Muamalat","type":"Atm","category":"atm_bank","subcategory":"ATM","opening_hours":null,"operator":"Bank Muamalat","osm_id":10574328764}},{"type":"Feature","geometry":{"type":"Point","coordinates":[110.41615,-7.78319]},"properties":{"name":"BNI","type":"Bank","category":"atm_bank","subcategory":"Bank","opening_hours":"Mo-Fr 10:00-15:00","operator":null,"osm_id":4416151203}},{"type":"Feature","geometry":{"type":"Point","coordinates":[110.43672,-7.78574]},"properties":{"name":"BRI ATM","type":"Atm","category":"atm_bank","subcategory":"ATM","opening_hours":null,"operator":"BRI","osm_id":11546904536}},{"type":"Feature","geometry":{"type":"Point","coordinates":[110.43821,-7.78528]},"properties":{"name":"Mandiri ATM","type":"Atm","category":"atm_bank","subcategory":"ATM","opening_hours":null,"operator":"Bank Mandiri","osm_id":11546904533}},{"type":"Feature","geometry":{"type":"Point","coordinates":[110.43666,-7.78588]},"properties":{"name":"BTN ATM","type":"Atm","category":"atm_bank","subcategory":"ATM","opening_hours":null,"operator":"BTN","osm_id":11546904537}},{"type":"Feature","geometry":{"type":"Point","coordinates":[110.43697,-7.78574]},"properties":{"name":"BCA, CIMB, Maybank, BNI ATM","type":"Atm","category":"atm_bank","subcategory":"ATM","opening_hours":null,"operator":null,"osm_id":11546904538}},{"type":"Feature","geometry":{"type":"Point","coordinates":[110.44924,-7.74714]},"properties":{"name":"Atm","type":"Atm","category":"atm_bank","subcategory":"ATM","opening_hours":null,"operator":"Mandiri, BRI Syariah, BNI","osm_id":4851278884}},{"type":"Feature","geometry":{"type":"Point","coordinates":[110.43261,-7.76163]},"properties":{"name":"Bank BPD DIY Kantor Cabang Pembantu Maguwoharjo","type":"Bank","category":"atm_bank","subcategory":"Bank","opening_hours":null,"operator":null,"osm_id":7150888831}},{"type":"Feature","geometry":{"type":"Point","coordinates":[110.43344,-7.75858]},"properties":{"name":"BTN","type":"Bank","category":"atm_bank","subcategory":"Bank","opening_hours":null,"operator":null,"osm_id":7165962984}},{"type":"Feature","geometry":{"type":"Point","coordinates":[110.43257,-7.76171]},"properties":{"name":"Atm","type":"Atm","category":"atm_bank","subcategory":"ATM","opening_hours":"24/7","operator":"Bank BPD DIY","osm_id":13206761701}},{"type":"Feature","geometry":{"type":"Point","coordinates":[110.36771,-7.8206]},"properties":{"name":"BPD DIY","type":"Bank","category":"atm_bank","subcategory":"Bank","opening_hours":null,"operator":null,"osm_id":2295350041}},{"type":"Feature","geometry":{"type":"Point","coordinates":[110.37564,-7.77945]},"properties":{"name":"Atm","type":"Atm","category":"atm_bank","subcategory":"ATM","opening_hours":"24/7","operator":"BNI","osm_id":4331965089}},{"type":"Feature","geometry":{"type":"Point","coordinates":[110.36864,-7.7828]},"properties":{"name":"ATM Bank BNI","type":"Atm","category":"atm_bank","subcategory":"ATM","opening_hours":null,"operator":"BNI","osm_id":5334474700}},{"type":"Feature","geometry":{"type":"Point","coordinates":[110.47396,-7.8374]},"properties":{"name":"BRI","type":"Bank","category":"atm_bank","subcategory":"Bank","opening_hours":null,"operator":null,"osm_id":1836615814}},{"type":"Feature","geometry":{"type":"Point","coordinates":[110.39046,-7.76951]},"properties":{"name":"ATM Bank Mandiri","type":"Atm","category":"atm_bank","subcategory":"ATM","opening_hours":null,"operator":"Bank Mandiri","osm_id":5334474702}},{"type":"Feature","geometry":{"type":"Point","coordinates":[110.3915,-7.76817]},"properties":{"name":"Maybank","type":"Bank","category":"atm_bank","subcategory":"Bank","opening_hours":null,"operator":null,"osm_id":5646696185}},{"type":"Feature","geometry":{"type":"Point","coordinates":[110.39155,-7.76802]},"properties":{"name":"Bank Mega","type":"Bank","category":"atm_bank","subcategory":"Bank","opening_hours":null,"operator":null,"osm_id":5650705917}},{"type":"Feature","geometry":{"type":"Point","coordinates":[110.37983,-7.7728]},"properties":{"name":"ATM Muamalat","type":"Atm","category":"atm_bank","subcategory":"ATM","opening_hours":"24/7","operator":"Bank Muamalat","osm_id":5377642441}},{"type":"Feature","geometry":{"type":"Point","coordinates":[110.37771,-7.77592]},"properties":{"name":"Bank Tabungan Negara","type":"Bank","category":"atm_bank","subcategory":"Bank","opening_hours":null,"operator":null,"osm_id":9222644145}},{"type":"Feature","geometry":{"type":"Point","coordinates":[110.37498,-7.77647]},"properties":{"name":"Atm","type":"Atm","category":"atm_bank","subcategory":"ATM","opening_hours":null,"operator":null,"osm_id":7265447258}},{"type":"Feature","geometry":{"type":"Point","coordinates":[110.37889,-7.7701]},"properties":{"name":"ATM Bank Mandiri","type":"Atm","category":"atm_bank","subcategory":"ATM","opening_hours":null,"operator":"Bank Mandiri","osm_id":2712135087}},{"type":"Feature","geometry":{"type":"Point","coordinates":[110.40152,-7.724]},"properties":{"name":"Bank UGM","type":"Bank","category":"atm_bank","subcategory":"Bank","opening_hours":null,"operator":null,"osm_id":5155561867}},{"type":"Feature","geometry":{"type":"Point","coordinates":[110.36534,-7.79814]},"properties":{"name":"BRI","type":"Bank","category":"atm_bank","subcategory":"Bank","opening_hours":null,"operator":null,"osm_id":11554863668}},{"type":"Feature","geometry":{"type":"Point","coordinates":[110.36218,-7.81785]},"properties":{"name":"Atm","type":"Atm","category":"atm_bank","subcategory":"ATM","opening_hours":null,"operator":"BRI","osm_id":5500798424}},{"type":"Feature","geometry":{"type":"Point","coordinates":[110.35948,-7.80778]},"properties":{"name":"Bank BRI","type":"Atm","category":"atm_bank","subcategory":"ATM","opening_hours":null,"operator":"BRI","osm_id":3630420096}},{"type":"Feature","geometry":{"type":"Point","coordinates":[110.3518,-7.80017]},"properties":{"name":"Atm","type":"Atm","category":"atm_bank","subcategory":"ATM","opening_hours":null,"operator":null,"osm_id":7097569582}},{"type":"Feature","geometry":{"type":"Point","coordinates":[110.37346,-7.78848]},"properties":{"name":"ATM Bukopin","type":"Atm","category":"atm_bank","subcategory":"ATM","opening_hours":null,"operator":"Bank Bukopin","osm_id":4740344829}},{"type":"Feature","geometry":{"type":"Point","coordinates":[110.37346,-7.78851]},"properties":{"name":"ATM Cimb Niaga","type":"Atm","category":"atm_bank","subcategory":"ATM","opening_hours":null,"operator":"CIMB Niaga","osm_id":7860365103}},{"type":"Feature","geometry":{"type":"Point","coordinates":[110.36358,-7.79025]},"properties":{"name":"Atm","type":"Atm","category":"atm_bank","subcategory":"ATM","opening_hours":"24/7","operator":"Bank CIMB Niaga","osm_id":5333505329}},{"type":"Feature","geometry":{"type":"Point","coordinates":[110.36358,-7.79024]},"properties":{"name":"Atm","type":"Atm","category":"atm_bank","subcategory":"ATM","opening_hours":"24/7","operator":"Bank BRI","osm_id":5333505330}},{"type":"Feature","geometry":{"type":"Point","coordinates":[110.36427,-7.79004]},"properties":{"name":"Atm","type":"Atm","category":"atm_bank","subcategory":"ATM","opening_hours":null,"operator":"Bank INA","osm_id":13081372301}},{"type":"Feature","geometry":{"type":"Point","coordinates":[110.36184,-7.76638]},"properties":{"name":"Atm","type":"Atm","category":"atm_bank","subcategory":"ATM","opening_hours":"24/7","operator":"Bank BPD DIY","osm_id":3676041271}},{"type":"Feature","geometry":{"type":"Point","coordinates":[110.37345,-7.78853]},"properties":{"name":"ATM BRI","type":"Atm","category":"atm_bank","subcategory":"ATM","opening_hours":null,"operator":"BRI","osm_id":4740344828}},{"type":"Feature","geometry":{"type":"Point","coordinates":[110.36477,-7.79014]},"properties":{"name":"Atm","type":"Atm","category":"atm_bank","subcategory":"ATM","opening_hours":null,"operator":"BRI","osm_id":13081385101}},{"type":"Feature","geometry":{"type":"Point","coordinates":[110.40857,-7.78389]},"properties":{"name":"Bank Central Asia","type":"Bank","category":"atm_bank","subcategory":"Bank","opening_hours":null,"operator":null,"osm_id":9697450886}},{"type":"Feature","geometry":{"type":"Point","coordinates":[110.60364,-7.97101]},"properties":{"name":"Atm","type":"Atm","category":"atm_bank","subcategory":"ATM","opening_hours":null,"operator":null,"osm_id":10020007926}},{"type":"Feature","geometry":{"type":"Point","coordinates":[110.37604,-7.79019]},"properties":{"name":"Bank BRI","type":"Atm","category":"atm_bank","subcategory":"ATM","opening_hours":null,"operator":"BRI","osm_id":5869844352}},{"type":"Feature","geometry":{"type":"Point","coordinates":[110.37309,-7.78977]},"properties":{"name":"BRI","type":"Atm","category":"atm_bank","subcategory":"ATM","opening_hours":"24/7","operator":"BRI","osm_id":5358301209}},{"type":"Feature","geometry":{"type":"Point","coordinates":[110.37306,-7.78977]},"properties":{"name":"BNI","type":"Atm","category":"atm_bank","subcategory":"ATM","opening_hours":"24/7","operator":"BNI","osm_id":5358301613}},{"type":"Feature","geometry":{"type":"Point","coordinates":[110.39822,-7.80391]},"properties":{"name":"Atm","type":"Atm","category":"atm_bank","subcategory":"ATM","opening_hours":null,"operator":null,"osm_id":12918408679}},{"type":"Feature","geometry":{"type":"Point","coordinates":[110.38223,-7.91671]},"properties":{"name":"Mandiri","type":"Atm","category":"atm_bank","subcategory":"ATM","opening_hours":null,"operator":null,"osm_id":3451607265}},{"type":"Feature","geometry":{"type":"Point","coordinates":[110.36613,-7.81431]},"properties":{"name":"BNI","type":"Bank","category":"atm_bank","subcategory":"Bank","opening_hours":null,"operator":null,"osm_id":3256672761}},{"type":"Feature","geometry":{"type":"Point","coordinates":[110.36791,-7.82168]},"properties":{"name":"BRI","type":"Bank","category":"atm_bank","subcategory":"Bank","opening_hours":null,"operator":null,"osm_id":1654009389}},{"type":"Feature","geometry":{"type":"Point","coordinates":[110.14778,-7.85859]},"properties":{"name":"Atm","type":"Atm","category":"atm_bank","subcategory":"ATM","opening_hours":null,"operator":"Bank BRI","osm_id":8244509477}},{"type":"Feature","geometry":{"type":"Point","coordinates":[110.36284,-7.734]},"properties":{"name":"Bank BPR","type":"Bank","category":"atm_bank","subcategory":"Bank","opening_hours":null,"operator":null,"osm_id":1847955063}},{"type":"Feature","geometry":{"type":"Point","coordinates":[110.33867,-7.6804]},"properties":{"name":"Atm","type":"Atm","category":"atm_bank","subcategory":"ATM","opening_hours":null,"operator":"BNI","osm_id":2004721163}},{"type":"Feature","geometry":{"type":"Point","coordinates":[110.38985,-7.73396]},"properties":{"name":"ATM BNI","type":"Atm","category":"atm_bank","subcategory":"ATM","opening_hours":null,"operator":"BNI","osm_id":3230045808}},{"type":"Feature","geometry":{"type":"Point","coordinates":[110.40467,-7.71853]},"properties":{"name":"BPD Diy","type":"Bank","category":"atm_bank","subcategory":"Bank","opening_hours":null,"operator":null,"osm_id":4242257790}},{"type":"Feature","geometry":{"type":"Point","coordinates":[110.36326,-7.73353]},"properties":{"name":"Bank BPD","type":"Bank","category":"atm_bank","subcategory":"Bank","opening_hours":null,"operator":null,"osm_id":1847954814}},{"type":"Feature","geometry":{"type":"Point","coordinates":[110.36357,-7.72899]},"properties":{"name":"Bank Danagung Syariah","type":"Bank","category":"atm_bank","subcategory":"Bank","opening_hours":null,"operator":null,"osm_id":5068779580}},{"type":"Feature","geometry":{"type":"Point","coordinates":[110.30878,-7.71986]},"properties":{"name":"Bank BRI","type":"Bank","category":"atm_bank","subcategory":"Bank","opening_hours":null,"operator":null,"osm_id":1363502864}},{"type":"Feature","geometry":{"type":"Point","coordinates":[110.14777,-7.85863]},"properties":{"name":"Atm","type":"Atm","category":"atm_bank","subcategory":"ATM","opening_hours":null,"operator":"Bank BPD DIY","osm_id":8244509476}},{"type":"Feature","geometry":{"type":"Point","coordinates":[110.14779,-7.85856]},"properties":{"name":"Atm","type":"Atm","category":"atm_bank","subcategory":"ATM","opening_hours":null,"operator":"Bank Mandiri","osm_id":8244509478}},{"type":"Feature","geometry":{"type":"Point","coordinates":[110.43457,-7.73897]},"properties":{"name":"Arta Agung Yogyakarta","type":"Bank","category":"atm_bank","subcategory":"Bank","opening_hours":null,"operator":null,"osm_id":9742624196}},{"type":"Feature","geometry":{"type":"Point","coordinates":[110.35506,-7.74689]},"properties":{"name":"ATM Center UTY","type":"Bank","category":"atm_bank","subcategory":"Bank","opening_hours":"24/7","operator":null,"osm_id":5800198004}},{"type":"Feature","geometry":{"type":"Point","coordinates":[110.35369,-7.74692]},"properties":{"name":"Atm","type":"Atm","category":"atm_bank","subcategory":"ATM","opening_hours":null,"operator":null,"osm_id":5328446016}},{"type":"Feature","geometry":{"type":"Point","coordinates":[110.32284,-7.78197]},"properties":{"name":"atm CIMB niaga","type":"Atm","category":"atm_bank","subcategory":"ATM","opening_hours":null,"operator":null,"osm_id":7229840161}},{"type":"Feature","geometry":{"type":"Point","coordinates":[110.32286,-7.78203]},"properties":{"name":"atm mandiri","type":"Atm","category":"atm_bank","subcategory":"ATM","opening_hours":null,"operator":"bank mandiri","osm_id":7229842886}},{"type":"Feature","geometry":{"type":"Point","coordinates":[110.34825,-7.92949]},"properties":{"name":"ATM Bukopin; BTN","type":"Atm","category":"atm_bank","subcategory":"ATM","opening_hours":null,"operator":null,"osm_id":3521357132}},{"type":"Feature","geometry":{"type":"Point","coordinates":[110.60213,-7.97286]},"properties":{"name":"Atm","type":"Atm","category":"atm_bank","subcategory":"ATM","opening_hours":null,"operator":null,"osm_id":10020007924}},{"type":"Feature","geometry":{"type":"Point","coordinates":[110.60384,-7.97074]},"properties":{"name":"Atm","type":"Atm","category":"atm_bank","subcategory":"ATM","opening_hours":null,"operator":null,"osm_id":10020007925}},{"type":"Feature","geometry":{"type":"Point","coordinates":[110.60544,-7.97025]},"properties":{"name":"Atm","type":"Atm","category":"atm_bank","subcategory":"ATM","opening_hours":null,"operator":null,"osm_id":10020007927}},{"type":"Feature","geometry":{"type":"Point","coordinates":[110.60181,-7.96677]},"properties":{"name":"Atm","type":"Atm","category":"atm_bank","subcategory":"ATM","opening_hours":null,"operator":null,"osm_id":10020007922}},{"type":"Feature","geometry":{"type":"Point","coordinates":[110.41606,-7.66471]},"properties":{"name":"Koperasi Simpan Pinjam Mitra Sejahtera","type":"Bank","category":"atm_bank","subcategory":"Bank","opening_hours":null,"operator":null,"osm_id":3254790971}},{"type":"Feature","geometry":{"type":"Point","coordinates":[110.41675,-7.66505]},"properties":{"name":"BPR Swadharma Artha Nusa","type":"Bank","category":"atm_bank","subcategory":"Bank","opening_hours":null,"operator":null,"osm_id":3254790964}},{"type":"Feature","geometry":{"type":"Point","coordinates":[110.47093,-7.76828]},"properties":{"name":"BPR BDE","type":"Bank","category":"atm_bank","subcategory":"Bank","opening_hours":null,"operator":null,"osm_id":10117839219}},{"type":"Feature","geometry":{"type":"Point","coordinates":[110.47272,-7.76537]},"properties":{"name":"ATM BCA","type":"Atm","category":"atm_bank","subcategory":"ATM","opening_hours":null,"operator":"Bank Central Asia","osm_id":10574328762}},{"type":"Feature","geometry":{"type":"Point","coordinates":[110.44955,-7.7757]},"properties":{"name":"ATM BRI","type":"Atm","category":"atm_bank","subcategory":"ATM","opening_hours":null,"operator":null,"osm_id":9696647130}},{"type":"Feature","geometry":{"type":"Point","coordinates":[110.602,-7.96695]},"properties":{"name":"Atm","type":"Atm","category":"atm_bank","subcategory":"ATM","opening_hours":null,"operator":null,"osm_id":10020007921}},{"type":"Feature","geometry":{"type":"Point","coordinates":[110.60117,-7.96646]},"properties":{"name":"Atm","type":"Atm","category":"atm_bank","subcategory":"ATM","opening_hours":null,"operator":null,"osm_id":10020007919}},{"type":"Feature","geometry":{"type":"Point","coordinates":[110.60196,-7.96493]},"properties":{"name":"Atm","type":"Atm","category":"atm_bank","subcategory":"ATM","opening_hours":null,"operator":null,"osm_id":10076508903}},{"type":"Feature","geometry":{"type":"Point","coordinates":[110.39185,-7.83805]},"properties":{"name":"Atm","type":"Atm","category":"atm_bank","subcategory":"ATM","opening_hours":null,"operator":null,"osm_id":3451607271}},{"type":"Feature","geometry":{"type":"Point","coordinates":[110.35628,-7.78221]},"properties":{"name":"Atm","type":"Atm","category":"atm_bank","subcategory":"ATM","opening_hours":"24/7","operator":"Bank BPD DIY","osm_id":5330275797}},{"type":"Feature","geometry":{"type":"Point","coordinates":[110.48391,-7.75621]},"properties":{"name":"ATM Mandiri","type":"Atm","category":"atm_bank","subcategory":"ATM","opening_hours":null,"operator":"Bank Mandiri","osm_id":9728592131}},{"type":"Feature","geometry":{"type":"Point","coordinates":[110.41424,-7.77832]},"properties":{"name":"Bank","type":"Bank","category":"atm_bank","subcategory":"Bank","opening_hours":null,"operator":null,"osm_id":4585536361}},{"type":"Feature","geometry":{"type":"Point","coordinates":[110.38557,-7.77345]},"properties":{"name":"Atm","type":"Atm","category":"atm_bank","subcategory":"ATM","opening_hours":"24/7","operator":"Bank BNI Bank BRI","osm_id":3396431277}},{"type":"Feature","geometry":{"type":"Point","coordinates":[110.3608,-7.77901]},"properties":{"name":"Bank Mayapada","type":"Bank","category":"atm_bank","subcategory":"Bank","opening_hours":null,"operator":null,"osm_id":5646828234}},{"type":"Feature","geometry":{"type":"Point","coordinates":[110.33955,-7.84611]},"properties":{"name":"BPD DIY","type":"Atm","category":"atm_bank","subcategory":"ATM","opening_hours":null,"operator":null,"osm_id":3632291324}},{"type":"Feature","geometry":{"type":"Point","coordinates":[110.48199,-7.84831]},"properties":{"name":"Bank BRI Patuk","type":"Bank","category":"atm_bank","subcategory":"Bank","opening_hours":null,"operator":null,"osm_id":2706517846}},{"type":"Feature","geometry":{"type":"Point","coordinates":[110.44845,-7.75283]},"properties":{"name":"ATM BCA","type":"Atm","category":"atm_bank","subcategory":"ATM","opening_hours":null,"operator":"Bank Central Asia","osm_id":10574328761}},{"type":"Feature","geometry":{"type":"Point","coordinates":[110.43461,-7.75058]},"properties":{"name":"ATM BCA","type":"Atm","category":"atm_bank","subcategory":"ATM","opening_hours":null,"operator":"Bank Central Asia","osm_id":10574327324}},{"type":"Feature","geometry":{"type":"Point","coordinates":[110.41102,-7.76284]},"properties":{"name":"BANK BNI Cabang UPN","type":"Atm","category":"atm_bank","subcategory":"ATM","opening_hours":null,"operator":"BNI","osm_id":1769415222}},{"type":"Feature","geometry":{"type":"Point","coordinates":[110.40229,-7.75802]},"properties":{"name":"ATM BPD DIY","type":"Bank","category":"atm_bank","subcategory":"Bank","opening_hours":null,"operator":null,"osm_id":5421803377}},{"type":"Feature","geometry":{"type":"Point","coordinates":[110.40231,-7.75797]},"properties":{"name":"Bank Syariah Mandiri","type":"Bank","category":"atm_bank","subcategory":"Bank","opening_hours":null,"operator":null,"osm_id":4590296597}},{"type":"Feature","geometry":{"type":"Point","coordinates":[110.40855,-7.75974]},"properties":{"name":"Bank Muamalat","type":"Bank","category":"atm_bank","subcategory":"Bank","opening_hours":null,"operator":null,"osm_id":10574328766}},{"type":"Feature","geometry":{"type":"Point","coordinates":[110.3742,-7.75162]},"properties":{"name":"ATM BNI","type":"Atm","category":"atm_bank","subcategory":"ATM","opening_hours":null,"operator":null,"osm_id":5358201519}},{"type":"Feature","geometry":{"type":"Point","coordinates":[110.14824,-7.69764]},"properties":{"name":"Badan Usaha Binanun Babar Anyar Desa Kebonharjo. Usaha Simpan Pinjam","type":"Bank","category":"atm_bank","subcategory":"Bank","opening_hours":null,"operator":"Direktur BUMdesa","osm_id":6404104186}},{"type":"Feature","geometry":{"type":"Point","coordinates":[110.38054,-7.77044]},"properties":{"name":"Atm","type":"Atm","category":"atm_bank","subcategory":"ATM","opening_hours":"24/7","operator":"Bank Mandiri","osm_id":4329096830}},{"type":"Feature","geometry":{"type":"Point","coordinates":[110.38204,-7.77029]},"properties":{"name":"Atm","type":"Atm","category":"atm_bank","subcategory":"ATM","opening_hours":null,"operator":"Bank BNI","osm_id":4329102292}},{"type":"Feature","geometry":{"type":"Point","coordinates":[110.38021,-7.77284]},"properties":{"name":"Bank Muamalat","type":"Bank","category":"atm_bank","subcategory":"Bank","opening_hours":"Mo-Fr 09:00-15:00","operator":null,"osm_id":9905902975}},{"type":"Feature","geometry":{"type":"Point","coordinates":[110.41764,-7.66706]},"properties":{"name":"BPR Bhakti Daya Ekonomi Yogyakarta","type":"Bank","category":"atm_bank","subcategory":"Bank","opening_hours":null,"operator":null,"osm_id":3254790962}},{"type":"Feature","geometry":{"type":"Point","coordinates":[110.41973,-7.66416]},"properties":{"name":"BPR Danagung Bhakti","type":"Bank","category":"atm_bank","subcategory":"Bank","opening_hours":null,"operator":null,"osm_id":3254790963}},{"type":"Feature","geometry":{"type":"Point","coordinates":[110.42061,-7.66146]},"properties":{"name":"BPD DIY Cabang Pakem","type":"Bank","category":"atm_bank","subcategory":"Bank","opening_hours":null,"operator":null,"osm_id":3254790961}},{"type":"Feature","geometry":{"type":"Point","coordinates":[110.38851,-7.77527]},"properties":{"name":"BPD DIY","type":"Bank","category":"atm_bank","subcategory":"Bank","opening_hours":null,"operator":null,"osm_id":3473955063}},{"type":"Feature","geometry":{"type":"Point","coordinates":[110.38464,-7.75287]},"properties":{"name":"ATM CIMB NIAGA","type":"Atm","category":"atm_bank","subcategory":"ATM","opening_hours":null,"operator":null,"osm_id":3214992027}},{"type":"Feature","geometry":{"type":"Point","coordinates":[110.38462,-7.75293]},"properties":{"name":"ATM BCA","type":"Atm","category":"atm_bank","subcategory":"ATM","opening_hours":null,"operator":null,"osm_id":3214992025}},{"type":"Feature","geometry":{"type":"Point","coordinates":[110.38434,-7.75333]},"properties":{"name":"Permata Bank","type":"Bank","category":"atm_bank","subcategory":"Bank","opening_hours":null,"operator":null,"osm_id":3472798343}},{"type":"Feature","geometry":{"type":"Point","coordinates":[110.38305,-7.75494]},"properties":{"name":"Atm","type":"Atm","category":"atm_bank","subcategory":"ATM","opening_hours":null,"operator":null,"osm_id":2880899572}},{"type":"Feature","geometry":{"type":"Point","coordinates":[110.32812,-7.88815]},"properties":{"name":"Bank Mandiri","type":"Bank","category":"atm_bank","subcategory":"Bank","opening_hours":null,"operator":null,"osm_id":5151652799}},{"type":"Feature","geometry":{"type":"Point","coordinates":[110.42446,-7.78312]},"properties":{"name":"Maybank","type":"Atm","category":"atm_bank","subcategory":"ATM","opening_hours":null,"operator":"Maybank","osm_id":4590639017}},{"type":"Feature","geometry":{"type":"Point","coordinates":[110.39018,-7.78335]},"properties":{"name":"Bank Banten","type":"Bank","category":"atm_bank","subcategory":"Bank","opening_hours":null,"operator":null,"osm_id":9748489276}},{"type":"Feature","geometry":{"type":"Point","coordinates":[110.39344,-7.79081]},"properties":{"name":"Atm","type":"Atm","category":"atm_bank","subcategory":"ATM","opening_hours":null,"operator":null,"osm_id":3633799348}},{"type":"Feature","geometry":{"type":"Point","coordinates":[110.38361,-7.78336]},"properties":{"name":"Bank Sinarmas","type":"Bank","category":"atm_bank","subcategory":"Bank","opening_hours":null,"operator":null,"osm_id":9725912657}},{"type":"Feature","geometry":{"type":"Point","coordinates":[110.37869,-7.78572]},"properties":{"name":"Atm","type":"Atm","category":"atm_bank","subcategory":"ATM","opening_hours":null,"operator":null,"osm_id":9200943212}},{"type":"Feature","geometry":{"type":"Point","coordinates":[110.3787,-7.78567]},"properties":{"name":"Atm","type":"Atm","category":"atm_bank","subcategory":"ATM","opening_hours":null,"operator":null,"osm_id":9200943214}},{"type":"Feature","geometry":{"type":"Point","coordinates":[110.27097,-7.81236]},"properties":{"name":"Bank BRI","type":"Bank","category":"atm_bank","subcategory":"Bank","opening_hours":null,"operator":null,"osm_id":11554886725}},{"type":"Feature","geometry":{"type":"Point","coordinates":[110.40978,-7.77041]},"properties":{"name":"Bank Mandiri","type":"Bank","category":"atm_bank","subcategory":"Bank","opening_hours":null,"operator":null,"osm_id":1769415220}},{"type":"Feature","geometry":{"type":"Point","coordinates":[110.41006,-7.77001]},"properties":{"name":"Bank Mandiri","type":"Bank","category":"atm_bank","subcategory":"Bank","opening_hours":null,"operator":null,"osm_id":3621532229}},{"type":"Feature","geometry":{"type":"Point","coordinates":[110.37873,-7.78269]},"properties":{"name":"atm bukopin","type":"Atm","category":"atm_bank","subcategory":"ATM","opening_hours":null,"operator":null,"osm_id":7223882469}},{"type":"Feature","geometry":{"type":"Point","coordinates":[110.39748,-7.78307]},"properties":{"name":"BRI","type":"Atm","category":"atm_bank","subcategory":"ATM","opening_hours":null,"operator":"BRI","osm_id":3473046915}},{"type":"Feature","geometry":{"type":"Point","coordinates":[110.39298,-7.7829]},"properties":{"name":"BRI","type":"Bank","category":"atm_bank","subcategory":"Bank","opening_hours":null,"operator":null,"osm_id":5639198682}},{"type":"Feature","geometry":{"type":"Point","coordinates":[110.39466,-7.786]},"properties":{"name":"Atm","type":"Atm","category":"atm_bank","subcategory":"ATM","opening_hours":null,"operator":"BRI","osm_id":7167320028}},{"type":"Feature","geometry":{"type":"Point","coordinates":[110.39466,-7.78593]},"properties":{"name":"Atm","type":"Atm","category":"atm_bank","subcategory":"ATM","opening_hours":null,"operator":"BNI","osm_id":7167320029}},{"type":"Feature","geometry":{"type":"Point","coordinates":[110.39466,-7.78606]},"properties":{"name":"Atm","type":"Atm","category":"atm_bank","subcategory":"ATM","opening_hours":null,"operator":"Bank Mandiri","osm_id":7167320030}},{"type":"Feature","geometry":{"type":"Point","coordinates":[110.37706,-7.76496]},"properties":{"name":"Atm","type":"Atm","category":"atm_bank","subcategory":"ATM","opening_hours":null,"operator":"BNI","osm_id":6763073362}},{"type":"Feature","geometry":{"type":"Point","coordinates":[110.37874,-7.78269]},"properties":{"name":"ATM BRI","type":"Atm","category":"atm_bank","subcategory":"ATM","opening_hours":null,"operator":"BRI","osm_id":7223885832}},{"type":"Feature","geometry":{"type":"Point","coordinates":[110.36625,-7.79907]},"properties":{"name":"BCA","type":"Atm","category":"atm_bank","subcategory":"ATM","opening_hours":"24/7","operator":"Bank Central Asia","osm_id":10162598408}},{"type":"Feature","geometry":{"type":"Point","coordinates":[110.37222,-7.782]},"properties":{"name":"Atm","type":"Atm","category":"atm_bank","subcategory":"ATM","opening_hours":null,"operator":"Bank Mandiri","osm_id":6780256427}},{"type":"Feature","geometry":{"type":"Point","coordinates":[110.36186,-7.76433]},"properties":{"name":"Atm","type":"Atm","category":"atm_bank","subcategory":"ATM","opening_hours":"24/7","operator":"BNI","osm_id":5358411038}},{"type":"Feature","geometry":{"type":"Point","coordinates":[110.36145,-7.76535]},"properties":{"name":"Atm","type":"Atm","category":"atm_bank","subcategory":"ATM","opening_hours":null,"operator":"BNI","osm_id":6897179972}},{"type":"Feature","geometry":{"type":"Point","coordinates":[110.36126,-7.77692]},"properties":{"name":"BRI","type":"Bank","category":"atm_bank","subcategory":"Bank","opening_hours":null,"operator":null,"osm_id":4851279296}},{"type":"Feature","geometry":{"type":"Point","coordinates":[110.3691,-7.8109]},"properties":{"name":"BCA","type":"Atm","category":"atm_bank","subcategory":"ATM","opening_hours":null,"operator":"Bank Central Asia","osm_id":3214932241}},{"type":"Feature","geometry":{"type":"Point","coordinates":[110.37117,-7.81488]},"properties":{"name":"Atm","type":"Atm","category":"atm_bank","subcategory":"ATM","opening_hours":"24/7","operator":"BNI","osm_id":5330154635}},{"type":"Feature","geometry":{"type":"Point","coordinates":[110.37117,-7.81485]},"properties":{"name":"Atm","type":"Atm","category":"atm_bank","subcategory":"ATM","opening_hours":"24/7","operator":"BRI","osm_id":5330154638}},{"type":"Feature","geometry":{"type":"Point","coordinates":[110.36933,-7.81908]},"properties":{"name":"BNI","type":"Atm","category":"atm_bank","subcategory":"ATM","opening_hours":null,"operator":"BNI","osm_id":3585118449}},{"type":"Feature","geometry":{"type":"Point","coordinates":[110.34494,-7.82754]},"properties":{"name":"BRI","type":"Bank","category":"atm_bank","subcategory":"Bank","opening_hours":null,"operator":null,"osm_id":3582721697}},{"type":"Feature","geometry":{"type":"Point","coordinates":[110.35402,-7.78938]},"properties":{"name":"Atm","type":"Atm","category":"atm_bank","subcategory":"ATM","opening_hours":"24/7","operator":"Bank Mandiri","osm_id":5330281408}},{"type":"Feature","geometry":{"type":"Point","coordinates":[110.35576,-7.81931]},"properties":{"name":"Mandiri","type":"Atm","category":"atm_bank","subcategory":"ATM","opening_hours":null,"operator":"Bank Mandiri","osm_id":3585204024}},{"type":"Feature","geometry":{"type":"Point","coordinates":[110.35567,-7.82017]},"properties":{"name":"Atm","type":"Atm","category":"atm_bank","subcategory":"ATM","opening_hours":null,"operator":"CIMB Niaga","osm_id":5803899868}},{"type":"Feature","geometry":{"type":"Point","coordinates":[110.35561,-7.82014]},"properties":{"name":"Atm","type":"Atm","category":"atm_bank","subcategory":"ATM","opening_hours":null,"operator":"Bank Mandiri","osm_id":5803907166}},{"type":"Feature","geometry":{"type":"Point","coordinates":[110.35126,-7.81239]},"properties":{"name":"BNI","type":"Atm","category":"atm_bank","subcategory":"ATM","opening_hours":null,"operator":"BNI","osm_id":7229274579}},{"type":"Feature","geometry":{"type":"Point","coordinates":[110.35213,-7.79865]},"properties":{"name":"Bank Syariah Indonesia","type":"Bank","category":"atm_bank","subcategory":"Bank","opening_hours":null,"operator":null,"osm_id":5652883445}},{"type":"Feature","geometry":{"type":"Point","coordinates":[110.3409,-7.80636]},"properties":{"name":"BNI","type":"Atm","category":"atm_bank","subcategory":"ATM","opening_hours":null,"operator":"BNI","osm_id":7097549225}},{"type":"Feature","geometry":{"type":"Point","coordinates":[110.34901,-7.80081]},"properties":{"name":"BNI","type":"Atm","category":"atm_bank","subcategory":"ATM","opening_hours":null,"operator":"BNI","osm_id":7097568304}},{"type":"Feature","geometry":{"type":"Point","coordinates":[110.35233,-7.78149]},"properties":{"name":"Atm","type":"Atm","category":"atm_bank","subcategory":"ATM","opening_hours":"24/7","operator":"Bank Central Asia","osm_id":4798161022}},{"type":"Feature","geometry":{"type":"Point","coordinates":[110.33299,-7.77731]},"properties":{"name":"BTN","type":"Bank","category":"atm_bank","subcategory":"Bank","opening_hours":null,"operator":null,"osm_id":7229231455}},{"type":"Feature","geometry":{"type":"Point","coordinates":[110.34304,-7.77991]},"properties":{"name":"atm bank danamon","type":"Atm","category":"atm_bank","subcategory":"ATM","opening_hours":null,"operator":"Bank Danamon","osm_id":7229303958}},{"type":"Feature","geometry":{"type":"Point","coordinates":[110.32035,-7.80142]},"properties":{"name":"BNI","type":"Bank","category":"atm_bank","subcategory":"Bank","opening_hours":null,"operator":null,"osm_id":12648753604}},{"type":"Feature","geometry":{"type":"Point","coordinates":[110.3526,-7.7968]},"properties":{"name":"Atm","type":"Atm","category":"atm_bank","subcategory":"ATM","opening_hours":null,"operator":"BNI","osm_id":4678550490}},{"type":"Feature","geometry":{"type":"Point","coordinates":[110.3423,-7.8068]},"properties":{"name":"ATM Mandiri Indomaret Sonosewu","type":"Atm","category":"atm_bank","subcategory":"ATM","opening_hours":null,"operator":"Bank Mandiri","osm_id":2360646863}},{"type":"Feature","geometry":{"type":"Point","coordinates":[110.34087,-7.80635]},"properties":{"name":"BRI","type":"Atm","category":"atm_bank","subcategory":"ATM","opening_hours":null,"operator":"BRI","osm_id":7097544861}},{"type":"Feature","geometry":{"type":"Point","coordinates":[110.35063,-7.80716]},"properties":{"name":"BNI","type":"Atm","category":"atm_bank","subcategory":"ATM","opening_hours":null,"operator":"BNI","osm_id":11555004975}},{"type":"Feature","geometry":{"type":"Point","coordinates":[110.3428,-7.7794]},"properties":{"name":"atm bank muamalat","type":"Atm","category":"atm_bank","subcategory":"ATM","opening_hours":null,"operator":"Bank Muamalat","osm_id":7229265274}},{"type":"Feature","geometry":{"type":"Point","coordinates":[110.36138,-7.78304]},"properties":{"name":"ATM Bukopin Diponegoro","type":"Atm","category":"atm_bank","subcategory":"ATM","opening_hours":"24/7","operator":"Bank Bukopin","osm_id":10162632360}},{"type":"Feature","geometry":{"type":"Point","coordinates":[110.47177,-7.83619]},"properties":{"name":"BPD DIY","type":"Bank","category":"atm_bank","subcategory":"Bank","opening_hours":null,"operator":null,"osm_id":1836614815}},{"type":"Feature","geometry":{"type":"Point","coordinates":[110.35356,-7.83328]},"properties":{"name":"Bank BRI","type":"Bank","category":"atm_bank","subcategory":"Bank","opening_hours":null,"operator":null,"osm_id":9811870694}},{"type":"Feature","geometry":{"type":"Point","coordinates":[110.36796,-7.82114]},"properties":{"name":"Bank Mega Syariah","type":"Bank","category":"atm_bank","subcategory":"Bank","opening_hours":null,"operator":null,"osm_id":3487503075}},{"type":"Feature","geometry":{"type":"Point","coordinates":[110.35512,-7.82296]},"properties":{"name":"BNI","type":"Atm","category":"atm_bank","subcategory":"ATM","opening_hours":null,"operator":"BNI","osm_id":3585204023}},{"type":"Feature","geometry":{"type":"Point","coordinates":[110.3558,-7.81785]},"properties":{"name":"BCA","type":"Atm","category":"atm_bank","subcategory":"ATM","opening_hours":null,"operator":"Bank Central Asia","osm_id":3585204025}},{"type":"Feature","geometry":{"type":"Point","coordinates":[110.39919,-7.72744]},"properties":{"name":"BNI","type":"Atm","category":"atm_bank","subcategory":"ATM","opening_hours":null,"operator":"BNI","osm_id":1769203938}},{"type":"Feature","geometry":{"type":"Point","coordinates":[110.41928,-7.66683]},"properties":{"name":"BRI","type":"Bank","category":"atm_bank","subcategory":"Bank","opening_hours":null,"operator":null,"osm_id":3254790965}},{"type":"Feature","geometry":{"type":"Point","coordinates":[110.41985,-7.66397]},"properties":{"name":"Bank Syariah Indonesia","type":"Bank","category":"atm_bank","subcategory":"Bank","opening_hours":null,"operator":null,"osm_id":3254790966}},{"type":"Feature","geometry":{"type":"Point","coordinates":[110.40119,-7.72452]},"properties":{"name":"BNI Sepeda Motor","type":"Atm","category":"atm_bank","subcategory":"ATM","opening_hours":null,"operator":"BNI","osm_id":5155561864}},{"type":"Feature","geometry":{"type":"Point","coordinates":[110.40943,-7.71088]},"properties":{"name":"BNI","type":"Atm","category":"atm_bank","subcategory":"ATM","opening_hours":null,"operator":"BNI","osm_id":11554846162}},{"type":"Feature","geometry":{"type":"Point","coordinates":[110.35457,-7.70838]},"properties":{"name":"CIMB Niaga","type":"Atm","category":"atm_bank","subcategory":"ATM","opening_hours":null,"operator":"CIMB Niaga","osm_id":5345049657}},{"type":"Feature","geometry":{"type":"Point","coordinates":[110.36286,-7.74157]},"properties":{"name":"Bank Syariah Indonesia","type":"Bank","category":"atm_bank","subcategory":"Bank","opening_hours":null,"operator":null,"osm_id":1847973283}},{"type":"Feature","geometry":{"type":"Point","coordinates":[110.3625,-7.75056]},"properties":{"name":"Atm","type":"Atm","category":"atm_bank","subcategory":"ATM","opening_hours":null,"operator":"CIMB Niaga","osm_id":5358427873}},{"type":"Feature","geometry":{"type":"Point","coordinates":[110.36249,-7.75056]},"properties":{"name":"Atm","type":"Atm","category":"atm_bank","subcategory":"ATM","opening_hours":null,"operator":"BNI","osm_id":5358427875}},{"type":"Feature","geometry":{"type":"Point","coordinates":[110.36048,-7.74752]},"properties":{"name":"ATM BNI","type":"Atm","category":"atm_bank","subcategory":"ATM","opening_hours":null,"operator":"BNI","osm_id":5358201621}},{"type":"Feature","geometry":{"type":"Point","coordinates":[110.37351,-7.82492]},"properties":{"name":"BNI","type":"Atm","category":"atm_bank","subcategory":"ATM","opening_hours":null,"operator":"BNI","osm_id":9002833928}},{"type":"Feature","geometry":{"type":"Point","coordinates":[110.3635,-7.79837]},"properties":{"name":"ATM BRI KOREM 072 Pamungkas","type":"Bank","category":"atm_bank","subcategory":"Bank","opening_hours":null,"operator":"BRI","osm_id":10162598409}},{"type":"Feature","geometry":{"type":"Point","coordinates":[110.36932,-7.80784]},"properties":{"name":"Bank Mayapada","type":"Bank","category":"atm_bank","subcategory":"Bank","opening_hours":null,"operator":null,"osm_id":5674572221}},{"type":"Feature","geometry":{"type":"Point","coordinates":[110.35908,-7.80784]},"properties":{"name":"Bank BPD DIY","type":"Atm","category":"atm_bank","subcategory":"ATM","opening_hours":null,"operator":null,"osm_id":3630365007}},{"type":"Feature","geometry":{"type":"Point","coordinates":[110.36949,-7.80577]},"properties":{"name":"Atm","type":"Atm","category":"atm_bank","subcategory":"ATM","opening_hours":null,"operator":null,"osm_id":6899433804}},{"type":"Feature","geometry":{"type":"Point","coordinates":[110.36426,-7.79391]},"properties":{"name":"Mandiri","type":"Atm","category":"atm_bank","subcategory":"ATM","opening_hours":null,"operator":null,"osm_id":4058092603}},{"type":"Feature","geometry":{"type":"Point","coordinates":[110.36307,-7.79367]},"properties":{"name":"BRI","type":"Atm","category":"atm_bank","subcategory":"ATM","opening_hours":null,"operator":null,"osm_id":4058093642}},{"type":"Feature","geometry":{"type":"Point","coordinates":[110.36248,-7.80118]},"properties":{"name":"BRI","type":"Atm","category":"atm_bank","subcategory":"ATM","opening_hours":"24/7","operator":"BRI","osm_id":4851278413}},{"type":"Feature","geometry":{"type":"Point","coordinates":[110.36285,-7.79923]},"properties":{"name":"BRI","type":"Atm","category":"atm_bank","subcategory":"ATM","opening_hours":null,"operator":null,"osm_id":4058092602}},{"type":"Feature","geometry":{"type":"Point","coordinates":[110.33044,-7.7996]},"properties":{"name":"bank BPD DIY","type":"Bank","category":"atm_bank","subcategory":"Bank","opening_hours":null,"operator":null,"osm_id":5406254451}},{"type":"Feature","geometry":{"type":"Point","coordinates":[110.43892,-7.78317]},"properties":{"name":"Bank Woori Bersaudara","type":"Bank","category":"atm_bank","subcategory":"Bank","opening_hours":null,"operator":null,"osm_id":9697406460}},{"type":"Feature","geometry":{"type":"Point","coordinates":[110.44534,-7.78329]},"properties":{"name":"Bank Sinarmas","type":"Bank","category":"atm_bank","subcategory":"Bank","opening_hours":null,"operator":null,"osm_id":10049357513}},{"type":"Feature","geometry":{"type":"Point","coordinates":[110.36926,-7.76032]},"properties":{"name":"Atm","type":"Atm","category":"atm_bank","subcategory":"ATM","opening_hours":"24/7","operator":"Bank Danamon","osm_id":10776096369}},{"type":"Feature","geometry":{"type":"Point","coordinates":[110.05919,-7.89803]},"properties":{"name":"Atm","type":"Atm","category":"atm_bank","subcategory":"ATM","opening_hours":null,"operator":"BRI","osm_id":10770127710}},{"type":"Feature","geometry":{"type":"Point","coordinates":[110.05888,-7.89794]},"properties":{"name":"Atm","type":"Atm","category":"atm_bank","subcategory":"ATM","opening_hours":null,"operator":"Bank Mandiri","osm_id":10770127711}},{"type":"Feature","geometry":{"type":"Point","coordinates":[110.05907,-7.89799]},"properties":{"name":"Atm","type":"Atm","category":"atm_bank","subcategory":"ATM","opening_hours":null,"operator":"CIMB Niaga","osm_id":10770127712}},{"type":"Feature","geometry":{"type":"Point","coordinates":[110.0593,-7.89806]},"properties":{"name":"Atm","type":"Atm","category":"atm_bank","subcategory":"ATM","opening_hours":null,"operator":"BNI","osm_id":10770127715}},{"type":"Feature","geometry":{"type":"Point","coordinates":[110.36293,-7.80119]},"properties":{"name":"BRI","type":"Bank","category":"atm_bank","subcategory":"Bank","opening_hours":null,"operator":null,"osm_id":4851278412}},{"type":"Feature","geometry":{"type":"Point","coordinates":[110.36453,-7.80171]},"properties":{"name":"ATM BNI KCU Yogyakarta","type":"Atm","category":"atm_bank","subcategory":"ATM","opening_hours":"24/7","operator":"BNI","osm_id":10162598410}},{"type":"Feature","geometry":{"type":"Point","coordinates":[110.32654,-7.73219]},"properties":{"name":"Bank","type":"Bank","category":"atm_bank","subcategory":"Bank","opening_hours":"Su-Fr 08:00-16:00","operator":null,"osm_id":11388890569}},{"type":"Feature","geometry":{"type":"Point","coordinates":[110.36379,-7.78928]},"properties":{"name":"Atm","type":"Atm","category":"atm_bank","subcategory":"ATM","opening_hours":null,"operator":"BNI","osm_id":5912823387}},{"type":"Feature","geometry":{"type":"Point","coordinates":[110.31009,-7.72338]},"properties":{"name":"mandiri","type":"Atm","category":"atm_bank","subcategory":"ATM","opening_hours":null,"operator":"Bank Mandiri","osm_id":7229296743}},{"type":"Feature","geometry":{"type":"Point","coordinates":[110.35455,-7.70842]},"properties":{"name":"Mandiri","type":"Atm","category":"atm_bank","subcategory":"ATM","opening_hours":null,"operator":"Bank Mandiri","osm_id":5345049656}},{"type":"Feature","geometry":{"type":"Point","coordinates":[110.38016,-7.76235]},"properties":{"name":"Atm","type":"Atm","category":"atm_bank","subcategory":"ATM","opening_hours":null,"operator":"Bank Syariah Indonesia","osm_id":4692662406}},{"type":"Feature","geometry":{"type":"Point","coordinates":[110.37933,-7.76377]},"properties":{"name":"Atm","type":"Atm","category":"atm_bank","subcategory":"ATM","opening_hours":null,"operator":"Bank Central Asia","osm_id":5860330685}},{"type":"Feature","geometry":{"type":"Point","coordinates":[110.36253,-7.75056]},"properties":{"name":"Atm","type":"Atm","category":"atm_bank","subcategory":"ATM","opening_hours":null,"operator":"Bank Central Asia","osm_id":5358427874}},{"type":"Feature","geometry":{"type":"Point","coordinates":[110.36251,-7.75056]},"properties":{"name":"Atm","type":"Atm","category":"atm_bank","subcategory":"ATM","opening_hours":null,"operator":"BRI","osm_id":5358427876}},{"type":"Feature","geometry":{"type":"Point","coordinates":[110.36198,-7.75961]},"properties":{"name":"Bank Danamon","type":"Bank","category":"atm_bank","subcategory":"Bank","opening_hours":null,"operator":null,"osm_id":12505660633}},{"type":"Feature","geometry":{"type":"Point","coordinates":[110.38467,-7.7529]},"properties":{"name":"ATM BII","type":"Atm","category":"atm_bank","subcategory":"ATM","opening_hours":null,"operator":null,"osm_id":3214992026}},{"type":"Feature","geometry":{"type":"Point","coordinates":[110.39218,-7.73965]},"properties":{"name":"ATM BNI","type":"Atm","category":"atm_bank","subcategory":"ATM","opening_hours":null,"operator":null,"osm_id":3214984450}},{"type":"Feature","geometry":{"type":"Point","coordinates":[110.38464,-7.75292]},"properties":{"name":"ATM BNI","type":"Atm","category":"atm_bank","subcategory":"ATM","opening_hours":null,"operator":null,"osm_id":3214992024}},{"type":"Feature","geometry":{"type":"Point","coordinates":[110.38632,-7.79033]},"properties":{"name":"Atm","type":"Atm","category":"atm_bank","subcategory":"ATM","opening_hours":null,"operator":"BRI","osm_id":7167322677}},{"type":"Feature","geometry":{"type":"Point","coordinates":[110.40318,-7.7988]},"properties":{"name":"Atm","type":"Atm","category":"atm_bank","subcategory":"ATM","opening_hours":null,"operator":"Bank Mandiri","osm_id":7390387002}},{"type":"Feature","geometry":{"type":"Point","coordinates":[110.37429,-7.81582]},"properties":{"name":"Atm","type":"Atm","category":"atm_bank","subcategory":"ATM","opening_hours":"24/7","operator":"BRI","osm_id":5330154632}},{"type":"Feature","geometry":{"type":"Point","coordinates":[110.36216,-7.81792]},"properties":{"name":"Atm","type":"Atm","category":"atm_bank","subcategory":"ATM","opening_hours":"24/7","operator":"BNI","osm_id":5500798423}},{"type":"Feature","geometry":{"type":"Point","coordinates":[110.36629,-7.8217]},"properties":{"name":"ATM BNI","type":"Atm","category":"atm_bank","subcategory":"ATM","opening_hours":null,"operator":null,"osm_id":3487503056}},{"type":"Feature","geometry":{"type":"Point","coordinates":[110.35485,-7.82426]},"properties":{"name":"ATM BPD","type":"Atm","category":"atm_bank","subcategory":"ATM","opening_hours":null,"operator":null,"osm_id":3585204022}},{"type":"Feature","geometry":{"type":"Point","coordinates":[110.35625,-7.81355]},"properties":{"name":"BRI","type":"Bank","category":"atm_bank","subcategory":"Bank","opening_hours":null,"operator":null,"osm_id":7097544869}},{"type":"Feature","geometry":{"type":"Point","coordinates":[110.36358,-7.79021]},"properties":{"name":"Atm","type":"Atm","category":"atm_bank","subcategory":"ATM","opening_hours":"24/7","operator":"Bank BCA","osm_id":5333505328}},{"type":"Feature","geometry":{"type":"Point","coordinates":[110.36358,-7.79023]},"properties":{"name":"Atm","type":"Atm","category":"atm_bank","subcategory":"ATM","opening_hours":"24/7","operator":"Bank BNI","osm_id":5333489152}},{"type":"Feature","geometry":{"type":"Point","coordinates":[110.37339,-7.78332]},"properties":{"name":"Maybank","type":"Bank","category":"atm_bank","subcategory":"Bank","opening_hours":null,"operator":null,"osm_id":362024636}},{"type":"Feature","geometry":{"type":"Point","coordinates":[110.37609,-7.77826]},"properties":{"name":"Bank BPD DIY Syariah","type":"Bank","category":"atm_bank","subcategory":"Bank","opening_hours":null,"operator":null,"osm_id":362133306}},{"type":"Feature","geometry":{"type":"Point","coordinates":[110.46366,-7.77471]},"properties":{"name":"BRI","type":"Bank","category":"atm_bank","subcategory":"Bank","opening_hours":null,"operator":null,"osm_id":364887743}},{"type":"Feature","geometry":{"type":"Point","coordinates":[110.37919,-7.77603]},"properties":{"name":"Bank Perkreditan Rakyat (BPR) UGM","type":"Bank","category":"atm_bank","subcategory":"Bank","opening_hours":null,"operator":null,"osm_id":362692308}},{"type":"Feature","geometry":{"type":"Point","coordinates":[110.31676,-7.9798]},"properties":{"name":"Bank Rakyat Indonesia","type":"Bank","category":"atm_bank","subcategory":"Bank","opening_hours":null,"operator":null,"osm_id":529936958}},{"type":"Feature","geometry":{"type":"Point","coordinates":[110.0737,-7.88629]},"properties":{"name":"BNI","type":"Bank","category":"atm_bank","subcategory":"Bank","opening_hours":null,"operator":"Bank Negara Indonesia","osm_id":343565240}},{"type":"Feature","geometry":{"type":"Point","coordinates":[110.3318,-7.882]},"properties":{"name":"BRI","type":"Bank","category":"atm_bank","subcategory":"Bank","opening_hours":null,"operator":null,"osm_id":534496300}},{"type":"Feature","geometry":{"type":"Point","coordinates":[110.33721,-7.77852]},"properties":{"name":"bank BNI","type":"Bank","category":"atm_bank","subcategory":"Bank","opening_hours":null,"operator":null,"osm_id":613004155}},{"type":"Feature","geometry":{"type":"Point","coordinates":[110.3261,-7.65522]},"properties":{"name":"BRI","type":"Bank","category":"atm_bank","subcategory":"Bank","opening_hours":null,"operator":null,"osm_id":367053111}},{"type":"Feature","geometry":{"type":"Point","coordinates":[110.1571,-7.86572]},"properties":{"name":"BRI Kulon Progo","type":"Bank","category":"atm_bank","subcategory":"Bank","opening_hours":null,"operator":null,"osm_id":231287787}},{"type":"Feature","geometry":{"type":"Point","coordinates":[110.43303,-7.75903]},"properties":{"name":"Bank Mandiri","type":"Bank","category":"atm_bank","subcategory":"Bank","opening_hours":null,"operator":null,"osm_id":1018484961}},{"type":"Feature","geometry":{"type":"Point","coordinates":[110.35613,-7.71366]},"properties":{"name":"Bank BNI Syariah","type":"Bank","category":"atm_bank","subcategory":"Bank","opening_hours":"Mo-Fr 08:00-15:30","operator":null,"osm_id":362016683}},{"type":"Feature","geometry":{"type":"Point","coordinates":[110.36366,-7.72898]},"properties":{"name":"Bank Danagung Syariah","type":"Bank","category":"atm_bank","subcategory":"Bank","opening_hours":null,"operator":null,"osm_id":363426918}},{"type":"Feature","geometry":{"type":"Point","coordinates":[110.33289,-7.73166]},"properties":{"name":"Bank BPD DIY","type":"Bank","category":"atm_bank","subcategory":"Bank","opening_hours":null,"operator":null,"osm_id":552506090}},{"type":"Feature","geometry":{"type":"Point","coordinates":[110.2344,-7.72697]},"properties":{"name":"BRI Unit 1 Minggir","type":"Bank","category":"atm_bank","subcategory":"Bank","opening_hours":null,"operator":"BRI","osm_id":533536065}},{"type":"Feature","geometry":{"type":"Point","coordinates":[110.46123,-7.6641]},"properties":{"name":"BRI","type":"Bank","category":"atm_bank","subcategory":"Bank","opening_hours":null,"operator":null,"osm_id":364833807}},{"type":"Feature","geometry":{"type":"Point","coordinates":[110.36273,-7.78268]},"properties":{"name":"BNI","type":"Bank","category":"atm_bank","subcategory":"Bank","opening_hours":null,"operator":null,"osm_id":121520343}},{"type":"Feature","geometry":{"type":"Point","coordinates":[110.36093,-7.77619]},"properties":{"name":"Bank UOB","type":"Bank","category":"atm_bank","subcategory":"Bank","opening_hours":null,"operator":null,"osm_id":592316892}},{"type":"Feature","geometry":{"type":"Point","coordinates":[110.41733,-7.66993]},"properties":{"name":"Bank Sleman","type":"Bank","category":"atm_bank","subcategory":"Bank","opening_hours":null,"operator":null,"osm_id":362882046}},{"type":"Feature","geometry":{"type":"Point","coordinates":[110.60099,-7.96664]},"properties":{"name":"Bank BPD DIY","type":"Bank","category":"atm_bank","subcategory":"Bank","opening_hours":null,"operator":null,"osm_id":307380881}},{"type":"Feature","geometry":{"type":"Point","coordinates":[110.37385,-7.78335]},"properties":{"name":"CIMB Niaga","type":"Bank","category":"atm_bank","subcategory":"Bank","opening_hours":null,"operator":null,"osm_id":122830050}},{"type":"Feature","geometry":{"type":"Point","coordinates":[110.60265,-7.96734]},"properties":{"name":"Bank BDG Gunungkidul","type":"Bank","category":"atm_bank","subcategory":"Bank","opening_hours":null,"operator":null,"osm_id":1094035962}},{"type":"Feature","geometry":{"type":"Point","coordinates":[110.60222,-7.96487]},"properties":{"name":"Kantor Cabang BRI Wonosari","type":"Bank","category":"atm_bank","subcategory":"Bank","opening_hours":null,"operator":null,"osm_id":486760198}},{"type":"Feature","geometry":{"type":"Point","coordinates":[110.36918,-7.79852]},"properties":{"name":"Bank Bukopin","type":"Bank","category":"atm_bank","subcategory":"Bank","opening_hours":null,"operator":null,"osm_id":121834196}},{"type":"Feature","geometry":{"type":"Point","coordinates":[110.36593,-7.79004]},"properties":{"name":"Bank BPD DIY","type":"Bank","category":"atm_bank","subcategory":"Bank","opening_hours":null,"operator":null,"osm_id":1137797388}},{"type":"Feature","geometry":{"type":"Point","coordinates":[110.3662,-7.78833]},"properties":{"name":"BCA","type":"Bank","category":"atm_bank","subcategory":"Bank","opening_hours":"Mo-Fr 08:00-15:30","operator":null,"osm_id":122793723}},{"type":"Feature","geometry":{"type":"Point","coordinates":[110.36731,-7.78438]},"properties":{"name":"Bank Muamalat","type":"Bank","category":"atm_bank","subcategory":"Bank","opening_hours":"Mo-Fr 08:00-15:30","operator":null,"osm_id":552401944}},{"type":"Feature","geometry":{"type":"Point","coordinates":[110.38766,-7.78167]},"properties":{"name":"Bank BRI Unit Gejayan","type":"Bank","category":"atm_bank","subcategory":"Bank","opening_hours":null,"operator":null,"osm_id":590705124}},{"type":"Feature","geometry":{"type":"Point","coordinates":[110.40353,-7.81057]},"properties":{"name":"ATM BNI","type":"Atm","category":"atm_bank","subcategory":"ATM","opening_hours":null,"operator":null,"osm_id":530309334}},{"type":"Feature","geometry":{"type":"Point","coordinates":[110.40559,-7.81092]},"properties":{"name":"BPR PROFIDANA","type":"Bank","category":"atm_bank","subcategory":"Bank","opening_hours":null,"operator":null,"osm_id":530026778}},{"type":"Feature","geometry":{"type":"Point","coordinates":[110.39094,-7.80232]},"properties":{"name":"Bank Syariah Indonesia","type":"Bank","category":"atm_bank","subcategory":"Bank","opening_hours":null,"operator":null,"osm_id":610699384}},{"type":"Feature","geometry":{"type":"Point","coordinates":[110.34379,-7.95635]},"properties":{"name":"BRI","type":"Bank","category":"atm_bank","subcategory":"Bank","opening_hours":null,"operator":null,"osm_id":612898069}},{"type":"Feature","geometry":{"type":"Point","coordinates":[110.40195,-7.80388]},"properties":{"name":"BRI","type":"Bank","category":"atm_bank","subcategory":"Bank","opening_hours":null,"operator":null,"osm_id":594852465}},{"type":"Feature","geometry":{"type":"Point","coordinates":[110.39349,-7.7908]},"properties":{"name":"BRI","type":"Bank","category":"atm_bank","subcategory":"Bank","opening_hours":null,"operator":null,"osm_id":587393353}},{"type":"Feature","geometry":{"type":"Point","coordinates":[110.31648,-7.98308]},"properties":{"name":"Bank BTPN","type":"Bank","category":"atm_bank","subcategory":"Bank","opening_hours":null,"operator":null,"osm_id":614919197}},{"type":"Feature","geometry":{"type":"Point","coordinates":[110.46506,-7.69905]},"properties":{"name":"BRI NGEMPLAK II","type":"Bank","category":"atm_bank","subcategory":"Bank","opening_hours":null,"operator":null,"osm_id":363964966}},{"type":"Feature","geometry":{"type":"Point","coordinates":[110.29177,-7.76748]},"properties":{"name":"Bank BPD cabang Godean","type":"Bank","category":"atm_bank","subcategory":"Bank","opening_hours":null,"operator":null,"osm_id":668175978}},{"type":"Feature","geometry":{"type":"Point","coordinates":[110.37176,-7.78469]},"properties":{"name":"Bank BTN Syariah","type":"Bank","category":"atm_bank","subcategory":"Bank","opening_hours":null,"operator":null,"osm_id":362024524}},{"type":"Feature","geometry":{"type":"Point","coordinates":[110.37258,-7.78349]},"properties":{"name":"Bank Syariah Indonesia","type":"Bank","category":"atm_bank","subcategory":"Bank","opening_hours":null,"operator":null,"osm_id":590910403}},{"type":"Feature","geometry":{"type":"Point","coordinates":[110.36606,-7.7831]},"properties":{"name":"Bank Windu","type":"Bank","category":"atm_bank","subcategory":"Bank","opening_hours":null,"operator":null,"osm_id":591457099}},{"type":"Feature","geometry":{"type":"Point","coordinates":[110.36031,-7.78499]},"properties":{"name":"Bank BPD DIY","type":"Bank","category":"atm_bank","subcategory":"Bank","opening_hours":"Mo-Sa 08:00-13:00","operator":"BPD DIY","osm_id":315370114}},{"type":"Feature","geometry":{"type":"Point","coordinates":[110.38733,-7.70847]},"properties":{"name":"BRI","type":"Bank","category":"atm_bank","subcategory":"Bank","opening_hours":null,"operator":null,"osm_id":363088900}},{"type":"Feature","geometry":{"type":"Point","coordinates":[110.37514,-7.78004]},"properties":{"name":"OCBC","type":"Bank","category":"atm_bank","subcategory":"Bank","opening_hours":null,"operator":null,"osm_id":362042289}},{"type":"Feature","geometry":{"type":"Point","coordinates":[110.37461,-7.78262]},"properties":{"name":"BTN","type":"Bank","category":"atm_bank","subcategory":"Bank","opening_hours":null,"operator":null,"osm_id":362043274}},{"type":"Feature","geometry":{"type":"Point","coordinates":[110.37569,-7.77224]},"properties":{"name":"BRI","type":"Bank","category":"atm_bank","subcategory":"Bank","opening_hours":null,"operator":null,"osm_id":121643605}},{"type":"Feature","geometry":{"type":"Point","coordinates":[110.37592,-7.77843]},"properties":{"name":"BRI","type":"Bank","category":"atm_bank","subcategory":"Bank","opening_hours":null,"operator":null,"osm_id":530843590}},{"type":"Feature","geometry":{"type":"Point","coordinates":[110.36112,-7.77349]},"properties":{"name":"Maybank","type":"Bank","category":"atm_bank","subcategory":"Bank","opening_hours":null,"operator":null,"osm_id":362881846}},{"type":"Feature","geometry":{"type":"Point","coordinates":[110.36135,-7.78974]},"properties":{"name":"BRI","type":"Bank","category":"atm_bank","subcategory":"Bank","opening_hours":null,"operator":null,"osm_id":591927710}},{"type":"Feature","geometry":{"type":"Point","coordinates":[110.41302,-7.82951]},"properties":{"name":"Bank BPD DIY","type":"Bank","category":"atm_bank","subcategory":"Bank","opening_hours":null,"operator":null,"osm_id":393965185}},{"type":"Feature","geometry":{"type":"Point","coordinates":[110.30861,-7.72142]},"properties":{"name":"Bank","type":"Bank","category":"atm_bank","subcategory":"Bank","opening_hours":"Mo-Fr 08:30-15:30","operator":"Bank BPD DIY","osm_id":121905927}},{"type":"Feature","geometry":{"type":"Point","coordinates":[110.38512,-7.75245]},"properties":{"name":"ATM Maybank","type":"Atm","category":"atm_bank","subcategory":"ATM","opening_hours":null,"operator":null,"osm_id":259544589}},{"type":"Feature","geometry":{"type":"Point","coordinates":[110.3857,-7.75103]},"properties":{"name":"Bank Mandiri - KCP Kaliurang","type":"Bank","category":"atm_bank","subcategory":"Bank","opening_hours":null,"operator":null,"osm_id":363411557}},{"type":"Feature","geometry":{"type":"Point","coordinates":[110.38466,-7.75173]},"properties":{"name":"Bank BCA KCP Kaliurang","type":"Bank","category":"atm_bank","subcategory":"Bank","opening_hours":null,"operator":null,"osm_id":259544609}},{"type":"Feature","geometry":{"type":"Point","coordinates":[110.3691,-7.81398]},"properties":{"name":"Bank Mandiri KCP Yogyakarta Katamso","type":"Bank","category":"atm_bank","subcategory":"Bank","opening_hours":null,"operator":null,"osm_id":594553072}},{"type":"Feature","geometry":{"type":"Point","coordinates":[110.38272,-7.75648]},"properties":{"name":"BRI","type":"Bank","category":"atm_bank","subcategory":"Bank","opening_hours":null,"operator":"BRI","osm_id":352269146}},{"type":"Feature","geometry":{"type":"Point","coordinates":[110.36865,-7.79896]},"properties":{"name":"Bank Mega","type":"Bank","category":"atm_bank","subcategory":"Bank","opening_hours":"Mo-Fr 08:00-15:00","operator":null,"osm_id":655127815}},{"type":"Feature","geometry":{"type":"Point","coordinates":[110.35242,-7.79652]},"properties":{"name":"BRI","type":"Bank","category":"atm_bank","subcategory":"Bank","opening_hours":null,"operator":null,"osm_id":592232568}},{"type":"Feature","geometry":{"type":"Point","coordinates":[110.36882,-7.79897]},"properties":{"name":"Bank Mandiri","type":"Bank","category":"atm_bank","subcategory":"Bank","opening_hours":"Mo-Fr 08:00-15:30","operator":"Bank Mandiri","osm_id":655127814}},{"type":"Feature","geometry":{"type":"Point","coordinates":[110.36864,-7.79926]},"properties":{"name":"UOB","type":"Bank","category":"atm_bank","subcategory":"Bank","opening_hours":null,"operator":null,"osm_id":655127816}},{"type":"Feature","geometry":{"type":"Point","coordinates":[110.36864,-7.79917]},"properties":{"name":"BRI","type":"Bank","category":"atm_bank","subcategory":"Bank","opening_hours":"Mo-Fr 08:00-15:00","operator":null,"osm_id":655127817}},{"type":"Feature","geometry":{"type":"Point","coordinates":[110.37328,-7.81974]},"properties":{"name":"Bank Syariah BDS","type":"Bank","category":"atm_bank","subcategory":"Bank","opening_hours":null,"operator":null,"osm_id":593643067}},{"type":"Feature","geometry":{"type":"Point","coordinates":[110.26593,-7.72696]},"properties":{"name":"CU Satu Hati","type":"Bank","category":"atm_bank","subcategory":"Bank","opening_hours":null,"operator":null,"osm_id":1389715788}},{"type":"Feature","geometry":{"type":"Point","coordinates":[110.36962,-7.80233]},"properties":{"name":"Bank Rakyat Indonesia","type":"Bank","category":"atm_bank","subcategory":"Bank","opening_hours":null,"operator":null,"osm_id":287420840}},{"type":"Feature","geometry":{"type":"Point","coordinates":[110.38961,-7.78291]},"properties":{"name":"BNI","type":"Bank","category":"atm_bank","subcategory":"Bank","opening_hours":null,"operator":null,"osm_id":590705126}},{"type":"Feature","geometry":{"type":"Point","coordinates":[110.37506,-7.77354]},"properties":{"name":"Bank Mandiri","type":"Bank","category":"atm_bank","subcategory":"Bank","opening_hours":null,"operator":null,"osm_id":120392837}},{"type":"Feature","geometry":{"type":"Point","coordinates":[110.40557,-7.81067]},"properties":{"name":"Bank Bantul","type":"Bank","category":"atm_bank","subcategory":"Bank","opening_hours":null,"operator":null,"osm_id":530309300}},{"type":"Feature","geometry":{"type":"Point","coordinates":[110.32421,-7.81069]},"properties":{"name":"Bank","type":"Bank","category":"atm_bank","subcategory":"Bank","opening_hours":null,"operator":null,"osm_id":818705789}},{"type":"Feature","geometry":{"type":"Point","coordinates":[110.36571,-7.80193]},"properties":{"name":"Bank Indonesia","type":"Bank","category":"atm_bank","subcategory":"Bank","opening_hours":null,"operator":null,"osm_id":1464917112}},{"type":"Feature","geometry":{"type":"Point","coordinates":[110.3759,-7.78263]},"properties":{"name":"Bank Central Asia","type":"Bank","category":"atm_bank","subcategory":"Bank","opening_hours":null,"operator":null,"osm_id":121116376}},{"type":"Feature","geometry":{"type":"Point","coordinates":[110.34029,-7.7786]},"properties":{"name":"Bank Central Asia","type":"Bank","category":"atm_bank","subcategory":"Bank","opening_hours":null,"operator":null,"osm_id":314216655}},{"type":"Feature","geometry":{"type":"Point","coordinates":[110.36902,-7.81118]},"properties":{"name":"Maybank","type":"Bank","category":"atm_bank","subcategory":"Bank","opening_hours":null,"operator":null,"osm_id":595380128}},{"type":"Feature","geometry":{"type":"Point","coordinates":[110.38275,-7.78269]},"properties":{"name":"Bank Central Asia","type":"Bank","category":"atm_bank","subcategory":"Bank","opening_hours":"Mo-Fr 08:30-14:30","operator":"BCA","osm_id":138836880}},{"type":"Feature","geometry":{"type":"Point","coordinates":[110.32538,-7.65341]},"properties":{"name":"BPD DIY","type":"Bank","category":"atm_bank","subcategory":"Bank","opening_hours":null,"operator":null,"osm_id":367052766}},{"type":"Feature","geometry":{"type":"Point","coordinates":[110.39106,-7.78258]},"properties":{"name":"BRI","type":"Bank","category":"atm_bank","subcategory":"Bank","opening_hours":null,"operator":null,"osm_id":270035714}},{"type":"Feature","geometry":{"type":"Point","coordinates":[110.3909,-7.78283]},"properties":{"name":"BNI","type":"Bank","category":"atm_bank","subcategory":"Bank","opening_hours":null,"operator":null,"osm_id":270035736}},{"type":"Feature","geometry":{"type":"Point","coordinates":[110.3518,-7.90949]},"properties":{"name":"Bank BRI, Bakulan","type":"Bank","category":"atm_bank","subcategory":"Bank","opening_hours":null,"operator":null,"osm_id":530848054}},{"type":"Feature","geometry":{"type":"Point","coordinates":[110.3858,-7.75104]},"properties":{"name":"Bank Mandiri - KCP Kaliurang","type":"Bank","category":"atm_bank","subcategory":"Bank","opening_hours":null,"operator":null,"osm_id":363411520}},{"type":"Feature","geometry":{"type":"Point","coordinates":[110.41009,-7.76093]},"properties":{"name":"Bank Sinarmas","type":"Bank","category":"atm_bank","subcategory":"Bank","opening_hours":null,"operator":null,"osm_id":363095761}},{"type":"Feature","geometry":{"type":"Point","coordinates":[110.38358,-7.73163]},"properties":{"name":"Teras BRI","type":"Bank","category":"atm_bank","subcategory":"Bank","opening_hours":null,"operator":null,"osm_id":510478137}},{"type":"Feature","geometry":{"type":"Point","coordinates":[110.33827,-7.77846]},"properties":{"name":"Bank BRI Unit Nogotirto","type":"Bank","category":"atm_bank","subcategory":"Bank","opening_hours":null,"operator":null,"osm_id":530742294}},{"type":"Feature","geometry":{"type":"Point","coordinates":[110.36882,-7.80929]},"properties":{"name":"Bank Syariah Indonesia","type":"Bank","category":"atm_bank","subcategory":"Bank","opening_hours":"Mo-Fr 08:00-15:30","operator":null,"osm_id":552417623}},{"type":"Feature","geometry":{"type":"Point","coordinates":[110.3753,-7.7795]},"properties":{"name":"Commonwealth Bank","type":"Bank","category":"atm_bank","subcategory":"Bank","opening_hours":null,"operator":null,"osm_id":362042248}},{"type":"Feature","geometry":{"type":"Point","coordinates":[110.36142,-7.78329]},"properties":{"name":"Bank Bukopin","type":"Bank","category":"atm_bank","subcategory":"Bank","opening_hours":"Mo-Fr 08:30-20:00","operator":null,"osm_id":122834180}},{"type":"Feature","geometry":{"type":"Point","coordinates":[110.15826,-7.86026]},"properties":{"name":"Bank BPD","type":"Bank","category":"atm_bank","subcategory":"Bank","opening_hours":null,"operator":null,"osm_id":231287786}},{"type":"Feature","geometry":{"type":"Point","coordinates":[110.36718,-7.78344]},"properties":{"name":"BRI","type":"Bank","category":"atm_bank","subcategory":"Bank","opening_hours":"Mo-Fr 08:00-15:30","operator":"Bank Rakyat Indonesia","osm_id":292987676}},{"type":"Feature","geometry":{"type":"Point","coordinates":[110.37331,-7.78283]},"properties":{"name":"BNI","type":"Bank","category":"atm_bank","subcategory":"Bank","opening_hours":null,"operator":null,"osm_id":1456603437}},{"type":"Feature","geometry":{"type":"Point","coordinates":[110.37799,-7.80192]},"properties":{"name":"BRI","type":"Bank","category":"atm_bank","subcategory":"Bank","opening_hours":null,"operator":null,"osm_id":535309937}},{"type":"Feature","geometry":{"type":"Point","coordinates":[110.36602,-7.80194]},"properties":{"name":"Bank Indonesia","type":"Bank","category":"atm_bank","subcategory":"Bank","opening_hours":null,"operator":null,"osm_id":283720502}},{"type":"Feature","geometry":{"type":"Point","coordinates":[110.4142,-7.7826]},"properties":{"name":"BRI","type":"Bank","category":"atm_bank","subcategory":"Bank","opening_hours":"24/7","operator":null,"osm_id":363117546}},{"type":"Feature","geometry":{"type":"Point","coordinates":[110.43304,-7.75898]},"properties":{"name":"Bank Central Asia","type":"Bank","category":"atm_bank","subcategory":"Bank","opening_hours":null,"operator":null,"osm_id":1134235829}},{"type":"Feature","geometry":{"type":"Point","coordinates":[110.37337,-7.78266]},"properties":{"name":"BNI","type":"Bank","category":"atm_bank","subcategory":"Bank","opening_hours":null,"operator":null,"osm_id":362042704}},{"type":"Feature","geometry":{"type":"Point","coordinates":[110.38512,-7.75161]},"properties":{"name":"Bank BPD DIY","type":"Bank","category":"atm_bank","subcategory":"Bank","opening_hours":null,"operator":null,"osm_id":530949798}},{"type":"Feature","geometry":{"type":"Point","coordinates":[110.38487,-7.75179]},"properties":{"name":"ATM BCA","type":"Atm","category":"atm_bank","subcategory":"ATM","opening_hours":null,"operator":null,"osm_id":530949800}},{"type":"Feature","geometry":{"type":"Point","coordinates":[110.39124,-7.78297]},"properties":{"name":"Bank Mandiri","type":"Bank","category":"atm_bank","subcategory":"Bank","opening_hours":null,"operator":null,"osm_id":270036121}},{"type":"Feature","geometry":{"type":"Point","coordinates":[110.43338,-7.75542]},"properties":{"name":"Bank","type":"Bank","category":"atm_bank","subcategory":"Bank","opening_hours":null,"operator":null,"osm_id":1469728478}},{"type":"Feature","geometry":{"type":"Point","coordinates":[110.37665,-7.65325]},"properties":{"name":"BPD Turi","type":"Bank","category":"atm_bank","subcategory":"Bank","opening_hours":null,"operator":null,"osm_id":533313482}},{"type":"Feature","geometry":{"type":"Point","coordinates":[110.37838,-7.82512]},"properties":{"name":"Kantor Kas Bank BPD/RSUD Kota Yogyakarta","type":"Bank","category":"atm_bank","subcategory":"Bank","opening_hours":null,"operator":null,"osm_id":594852385}},{"type":"Feature","geometry":{"type":"Point","coordinates":[110.41839,-7.69355]},"properties":{"name":"ATM BCA","type":"Atm","category":"atm_bank","subcategory":"ATM","opening_hours":null,"operator":null,"osm_id":530613992}},{"type":"Feature","geometry":{"type":"Point","coordinates":[110.36182,-7.78321]},"properties":{"name":"Bank Mandiri","type":"Bank","category":"atm_bank","subcategory":"Bank","opening_hours":null,"operator":null,"osm_id":121520356}},{"type":"Feature","geometry":{"type":"Point","coordinates":[110.38879,-7.78289]},"properties":{"name":"Bank Permata Syariah","type":"Bank","category":"atm_bank","subcategory":"Bank","opening_hours":null,"operator":null,"osm_id":590705125}},{"type":"Feature","geometry":{"type":"Point","coordinates":[110.36924,-7.7833]},"properties":{"name":"Bank Mandiri","type":"Bank","category":"atm_bank","subcategory":"Bank","opening_hours":null,"operator":"Bank Mandiri","osm_id":121675256}},{"type":"Feature","geometry":{"type":"Point","coordinates":[110.41048,-7.78905]},"properties":{"name":"Bank","type":"Bank","category":"atm_bank","subcategory":"Bank","opening_hours":null,"operator":null,"osm_id":668173773}},{"type":"Feature","geometry":{"type":"Point","coordinates":[110.36066,-7.78119]},"properties":{"name":"Bank BTPN","type":"Bank","category":"atm_bank","subcategory":"Bank","opening_hours":null,"operator":null,"osm_id":591469266}},{"type":"Feature","geometry":{"type":"Point","coordinates":[110.35568,-7.78224]},"properties":{"name":"BRI","type":"Bank","category":"atm_bank","subcategory":"Bank","opening_hours":null,"operator":null,"osm_id":610084358}},{"type":"Feature","geometry":{"type":"Point","coordinates":[110.39038,-7.78289]},"properties":{"name":"Bank Mandiri","type":"Bank","category":"atm_bank","subcategory":"Bank","opening_hours":null,"operator":null,"osm_id":590705127}},{"type":"Feature","geometry":{"type":"Point","coordinates":[110.37475,-7.78155]},"properties":{"name":"BRI","type":"Bank","category":"atm_bank","subcategory":"Bank","opening_hours":null,"operator":null,"osm_id":121120261}},{"type":"Feature","geometry":{"type":"Point","coordinates":[110.36016,-7.80647]},"properties":{"name":"Bank Syariah Dana Hidayatullah","type":"Bank","category":"atm_bank","subcategory":"Bank","opening_hours":null,"operator":null,"osm_id":592278609}},{"type":"Feature","geometry":{"type":"Point","coordinates":[110.3501,-7.80808]},"properties":{"name":"Bank","type":"Bank","category":"atm_bank","subcategory":"Bank","opening_hours":null,"operator":null,"osm_id":418985429}},{"type":"Feature","geometry":{"type":"Point","coordinates":[110.33365,-7.88011]},"properties":{"name":"Bank Pembangunan Daerah DIY","type":"Bank","category":"atm_bank","subcategory":"Bank","opening_hours":null,"operator":null,"osm_id":534496236}},{"type":"Feature","geometry":{"type":"Point","coordinates":[110.36848,-7.80088]},"properties":{"name":"Bank BPD DIY cabang Senopati","type":"Bank","category":"atm_bank","subcategory":"Bank","opening_hours":null,"operator":null,"osm_id":397991930}},{"type":"Feature","geometry":{"type":"Point","coordinates":[110.36897,-7.81307]},"properties":{"name":"Bank BCA","type":"Bank","category":"atm_bank","subcategory":"Bank","opening_hours":null,"operator":null,"osm_id":594852415}},{"type":"Feature","geometry":{"type":"Point","coordinates":[110.41494,-7.82259]},"properties":{"name":"BPR Ambarketawang","type":"Bank","category":"atm_bank","subcategory":"Bank","opening_hours":null,"operator":null,"osm_id":351193464}},{"type":"Feature","geometry":{"type":"Point","coordinates":[110.35036,-7.80641]},"properties":{"name":"Bank Muamalat","type":"Bank","category":"atm_bank","subcategory":"Bank","opening_hours":null,"operator":null,"osm_id":592267323}},{"type":"Feature","geometry":{"type":"Point","coordinates":[110.3866,-7.74959]},"properties":{"name":"ATM BRI","type":"Atm","category":"atm_bank","subcategory":"ATM","opening_hours":null,"operator":null,"osm_id":363411716}},{"type":"Feature","geometry":{"type":"Point","coordinates":[110.37732,-7.73584]},"properties":{"name":"Bank BNI","type":"Bank","category":"atm_bank","subcategory":"Bank","opening_hours":null,"operator":"bank BNI","osm_id":363170464}},{"type":"Feature","geometry":{"type":"Point","coordinates":[110.39382,-7.73732]},"properties":{"name":"Sinarmas","type":"Bank","category":"atm_bank","subcategory":"Bank","opening_hours":null,"operator":null,"osm_id":363664484}},{"type":"Feature","geometry":{"type":"Point","coordinates":[110.36446,-7.80151]},"properties":{"name":"BNI","type":"Bank","category":"atm_bank","subcategory":"Bank","opening_hours":"08:00-16:00","operator":null,"osm_id":6264058}}]}