{"type":"FeatureCollection","features":[{"type":"Feature","geometry":{"type":"Polygon","coordinates":[[[110.4257,-7.5207],[110.4557,-7.5307],[110.4757,-7.5507],[110.4807,-7.5707],[110.4707,-7.5907],[110.4457,-7.5957],[110.4207,-7.5907],[110.4057,-7.5707],[110.4007,-7.5507],[110.4107,-7.5307],[110.4257,-7.5207]]]},"properties":{"name":"Zona KRB III Merapi","category":"kebencanaan","subcategory":"Risiko Erupsi Merapi","type_layer":"zona_bahaya","level_risiko":"Tinggi","zona":"KRB III","radius_km":5,"deskripsi":"Zona paling berbahaya, radius 0-5 km dari puncak Merapi. Area ini terkena dampak langsung awan panas (pyroclastic flow), lontaran material vulkanik, dan lahar.","foto":"https://images.unsplash.com/photo-1588668214407-6ea9a6d8c272?w=600","sumber_data":"BPPTKG / BPBD DIY","last_updated":"2024-01-15","kontak_darurat":"+62274-515059 (BPBD DIY)","kapasitas":0,"facilities":[],"instruksi_evakuasi":"1. Segera tinggalkan zona KRB III jika ada peringatan. 2. Ikuti jalur evakuasi yang telah ditentukan (menjauhi sungai/lembah). 3. Gunakan masker N95 untuk melindungi dari abu vulkanik. 4. Menuju titik kumpul terdekat yang telah ditetapkan BPBD.","riwayat_bencana":[{"tanggal":"2010-10-26","jenis":"Erupsi","skala":"VEI 4","korban_jiwa":353,"pengungsi":350000,"kerugian_material":"Rp 4,23 Triliun","deskripsi":"Erupsi besar Merapi 2010, terbesar dalam 100 tahun terakhir.","sumber":"BNPB"},{"tanggal":"2006-06-14","jenis":"Erupsi","skala":"VEI 2","korban_jiwa":2,"pengungsi":17000,"kerugian_material":"Rp 180 Miliar","deskripsi":"Erupsi sedang, awan panas mengarah ke Kali Gendol.","sumber":"BPPTKG"},{"tanggal":"2018-05-11","jenis":"Erupsi Freatik","skala":"VEI 1","korban_jiwa":0,"pengungsi":2400,"kerugian_material":"Rp 5 Miliar","deskripsi":"Erupsi freatik dengan kolom abu setinggi 5.500 meter.","sumber":"BPPTKG"}]}},{"type":"Feature","geometry":{"type":"Polygon","coordinates":[[[110.3957,-7.5007],[110.4457,-7.5007],[110.4957,-7.5207],[110.5157,-7.5607],[110.5107,-7.6007],[110.4857,-7.6207],[110.4457,-7.6307],[110.3957,-7.6207],[110.3657,-7.6007],[110.3557,-7.5607],[110.3657,-7.5207],[110.3957,-7.5007]]]},"properties":{"name":"Zona KRB II Merapi","category":"kebencanaan","subcategory":"Risiko Erupsi Merapi","type_layer":"zona_bahaya","level_risiko":"Sedang","zona":"KRB II","radius_km":10,"deskripsi":"Zona bahaya sedang, radius 5-10 km. Terdampak hujan abu lebat, lahar dingin, dan potensi aliran piroklastik saat erupsi besar.","foto":"https://images.unsplash.com/photo-1588668214407-6ea9a6d8c272?w=600","sumber_data":"BPPTKG / BPBD DIY","last_updated":"2024-01-15","kontak_darurat":"+62274-515059 (BPBD DIY)","kapasitas":0,"facilities":[],"instruksi_evakuasi":"1. Pantau informasi BPPTKG secara berkala. 2. Siapkan tas siaga bencana (dokumen, obat, makanan). 3. Kenali rute evakuasi dan lokasi barak pengungsian terdekat.","riwayat_bencana":[{"tanggal":"2010-10-26","jenis":"Erupsi","skala":"VEI 4","korban_jiwa":353,"pengungsi":350000,"kerugian_material":"Rp 4,23 Triliun","deskripsi":"Erupsi besar Merapi 2010.","sumber":"BNPB"}]}},{"type":"Feature","geometry":{"type":"Polygon","coordinates":[[[110.3457,-7.4807],[110.4457,-7.4707],[110.5457,-7.4907],[110.5757,-7.5507],[110.5657,-7.6307],[110.5257,-7.6707],[110.4457,-7.6807],[110.3657,-7.6707],[110.3257,-7.6307],[110.3157,-7.5507],[110.3257,-7.4907],[110.3457,-7.4807]]]},"properties":{"name":"Zona KRB I Merapi","category":"kebencanaan","subcategory":"Risiko Erupsi Merapi","type_layer":"zona_bahaya","level_risiko":"Rendah","zona":"KRB I","radius_km":15,"deskripsi":"Zona waspada, radius 10-15 km. Terdampak hujan abu tipis dan lahar dingin pasca-erupsi melalui sungai-sungai yang berhulu di Merapi.","foto":"https://images.unsplash.com/photo-1588668214407-6ea9a6d8c272?w=600","sumber_data":"BPPTKG","last_updated":"2024-01-15","kontak_darurat":"+62274-515059 (BPBD DIY)","kapasitas":0,"facilities":[],"instruksi_evakuasi":"1. Ikuti perkembangan status Merapi via BPPTKG. 2. Hindari area tepian sungai saat hujan deras pasca-erupsi.","riwayat_bencana":[]}},{"type":"Feature","geometry":{"type":"LineString","coordinates":[[110.4457,-7.5707],[110.4357,-7.5907],[110.4257,-7.6107],[110.4157,-7.6407],[110.4057,-7.6707],[110.3957,-7.7007],[110.3857,-7.7307],[110.3757,-7.7607]]},"properties":{"name":"Jalur Evakuasi Merapi \u2014 Sleman Barat","category":"kebencanaan","subcategory":"Risiko Erupsi Merapi","type_layer":"jalur_evakuasi","level_risiko":"Info","deskripsi":"Jalur evakuasi utama via Jl. Kaliurang menuju Kota Yogyakarta. Jarak tempuh ~25 km, estimasi 45 menit.","sumber_data":"BPBD Sleman","last_updated":"2023-08-10","instruksi_evakuasi":"Ikuti rambu evakuasi hijau. Jangan berhenti di tepian sungai. Utamakan kendaraan roda dua untuk menghindari kemacetan.","riwayat_bencana":[]}},{"type":"Feature","geometry":{"type":"LineString","coordinates":[[110.4657,-7.5707],[110.4857,-7.5907],[110.5057,-7.6207],[110.5157,-7.6507],[110.5057,-7.6807],[110.4957,-7.7107]]},"properties":{"name":"Jalur Evakuasi Merapi \u2014 Sleman Timur","category":"kebencanaan","subcategory":"Risiko Erupsi Merapi","type_layer":"jalur_evakuasi","level_risiko":"Info","deskripsi":"Jalur evakuasi via Prambanan menuju Klaten. Jarak ~20 km, estimasi 35 menit.","sumber_data":"BPBD Sleman","last_updated":"2023-08-10","instruksi_evakuasi":"Ikuti Jl. Solo-Yogya ke arah timur. Berkumpul di Stadion Prambanan.","riwayat_bencana":[]}},{"type":"Feature","geometry":{"type":"Point","coordinates":[110.4078,-7.7158]},"properties":{"name":"Barak Pengungsian Stadion Maguwoharjo","category":"kebencanaan","subcategory":"Risiko Erupsi Merapi","type_layer":"titik_pengungsian","level_risiko":"Info","deskripsi":"Stadion utama Sleman, kapasitas besar untuk pengungsi Merapi.","foto":"https://images.unsplash.com/photo-1540747913346-19e32dc3e97e?w=600","kapasitas":2000,"facilities":["Tenda Darurat","Air Bersih","MCK","Dapur Umum","Posko Kesehatan"],"sumber_data":"BPBD DIY","last_updated":"2024-03-01","kontak_darurat":"+62274-515059 (BPBD DIY)","instruksi_evakuasi":"Datang ke posko terdekat, lapor ke petugas, ikuti arahan penempatan tenda.","riwayat_bencana":[]}},{"type":"Feature","geometry":{"type":"Point","coordinates":[110.4124,-7.6277]},"properties":{"name":"Barak Pengungsian Balai Desa Umbulharjo","category":"kebencanaan","subcategory":"Risiko Erupsi Merapi","type_layer":"titik_pengungsian","level_risiko":"Info","deskripsi":"Titik pengungsian terdekat dari lereng Merapi sisi selatan.","foto":"https://images.unsplash.com/photo-1569025690938-a00729c9e1f9?w=600","kapasitas":500,"facilities":["Tenda Darurat","Air Bersih","MCK","Dapur Umum"],"sumber_data":"BPBD DIY","last_updated":"2024-03-01","kontak_darurat":"+62274-515059 (BPBD DIY)","instruksi_evakuasi":"Datang ke posko terdekat, lapor ke petugas, ikuti arahan penempatan tenda.","riwayat_bencana":[]}},{"type":"Feature","geometry":{"type":"Point","coordinates":[110.384,-7.7842]},"properties":{"name":"Posko Pengungsian GOR Amongrogo","category":"kebencanaan","subcategory":"Risiko Erupsi Merapi","type_layer":"titik_pengungsian","level_risiko":"Info","deskripsi":"Gedung olahraga besar di pusat kota, digunakan saat erupsi 2010.","foto":"https://images.unsplash.com/photo-1540747913346-19e32dc3e97e?w=600","kapasitas":3000,"facilities":["Tenda Darurat","Air Bersih","MCK","Dapur Umum","Posko Kesehatan","Logistik"],"sumber_data":"BPBD DIY","last_updated":"2024-03-01","kontak_darurat":"+62274-515059 (BPBD DIY)","instruksi_evakuasi":"Datang ke posko terdekat, lapor ke petugas, ikuti arahan penempatan tenda.","riwayat_bencana":[]}},{"type":"Feature","geometry":{"type":"Point","coordinates":[110.47,-7.752]},"properties":{"name":"Barak Pengungsian Prambanan","category":"kebencanaan","subcategory":"Risiko Erupsi Merapi","type_layer":"titik_pengungsian","level_risiko":"Info","deskripsi":"Titik pengungsian untuk warga lereng timur Merapi.","foto":"https://images.unsplash.com/photo-1569025690938-a00729c9e1f9?w=600","kapasitas":800,"facilities":["Tenda Darurat","Air Bersih","MCK"],"sumber_data":"BPBD DIY","last_updated":"2024-03-01","kontak_darurat":"+62274-515059 (BPBD DIY)","instruksi_evakuasi":"Datang ke posko terdekat, lapor ke petugas, ikuti arahan penempatan tenda.","riwayat_bencana":[]}},{"type":"Feature","geometry":{"type":"Polygon","coordinates":[[[110.34,-7.87],[110.38,-7.865],[110.39,-7.89],[110.37,-7.91],[110.34,-7.905],[110.32,-7.89],[110.34,-7.87]]]},"properties":{"name":"Zona Rawan Banjir Bantul","category":"kebencanaan","subcategory":"Rawan Banjir","type_layer":"rawan_banjir","level_risiko":"Tinggi","deskripsi":"Kawasan dataran rendah Bantul yang sering terdampak banjir dari luapan Sungai Opak dan Sungai Progo saat musim hujan.","foto":"https://images.unsplash.com/photo-1547683905-f686c993aae5?w=600","sumber_data":"BPBD Bantul / BMKG","last_updated":"2024-02-20","kontak_darurat":"+62274-367233 (BPBD Bantul)","instruksi_evakuasi":"1. Pindahkan barang berharga ke tempat tinggi. 2. Segera evakuasi jika ketinggian air >50cm. 3. Hubungi BPBD Bantul.","riwayat_bencana":[{"tanggal":"2024-01-05","jenis":"Banjir","skala":"Sedang","korban_jiwa":0,"pengungsi":1200,"kerugian_material":"Rp 2,8 Miliar","deskripsi":"Banjir akibat hujan lebat merendam 5 desa.","sumber":"BPBD Bantul"},{"tanggal":"2023-02-18","jenis":"Banjir","skala":"Besar","korban_jiwa":1,"pengungsi":3500,"kerugian_material":"Rp 7,1 Miliar","deskripsi":"Banjir besar merendam 12 desa di Bantul.","sumber":"BNPB"}],"facilities":[],"kapasitas":0}},{"type":"Feature","geometry":{"type":"Polygon","coordinates":[[[110.35,-7.78],[110.38,-7.775],[110.385,-7.795],[110.365,-7.81],[110.345,-7.805],[110.335,-7.79],[110.35,-7.78]]]},"properties":{"name":"Zona Rawan Banjir Kota Yogyakarta","category":"kebencanaan","subcategory":"Rawan Banjir","type_layer":"rawan_banjir","level_risiko":"Sedang","deskripsi":"Area perkotaan dengan drainase terbatas. Banjir genangan terjadi saat curah hujan >100mm/hari.","foto":"https://images.unsplash.com/photo-1547683905-f686c993aae5?w=600","sumber_data":"BPBD Kota Yogyakarta","last_updated":"2024-02-20","kontak_darurat":"+62274-551215","instruksi_evakuasi":"Hindari jalan yang tergenang. Matikan listrik jika air masuk rumah.","riwayat_bencana":[{"tanggal":"2024-01-12","jenis":"Banjir Genangan","skala":"Ringan","korban_jiwa":0,"pengungsi":200,"kerugian_material":"Rp 500 Juta","deskripsi":"Genangan air setinggi 30-50 cm di beberapa titik.","sumber":"BPBD Kota"}],"facilities":[],"kapasitas":0}},{"type":"Feature","geometry":{"type":"Polygon","coordinates":[[[110.28,-7.82],[110.42,-7.815],[110.45,-7.86],[110.43,-7.92],[110.32,-7.93],[110.26,-7.88],[110.28,-7.82]]]},"properties":{"name":"Zona Rawan Gempa Bantul-Kota","category":"kebencanaan","subcategory":"Rawan Gempa","type_layer":"zona_bahaya","level_risiko":"Tinggi","deskripsi":"Zona patahan aktif yang menyebabkan gempa 2006 (M 6.3). Potensi gempa dangkal dengan kerusakan tinggi.","foto":"https://images.unsplash.com/photo-1504701954957-2010ec3bcec1?w=600","sumber_data":"BMKG / Pusgen Kemen PUPR","last_updated":"2023-11-01","kontak_darurat":"+62274-515059 (BPBD DIY)","instruksi_evakuasi":"1. Drop, Cover, Hold On. 2. Jauhi bangunan tinggi. 3. Setelah gempa, periksa jalur gas & listrik.","riwayat_bencana":[{"tanggal":"2006-05-27","jenis":"Gempa Bumi","skala":"M 6.3","korban_jiwa":5749,"pengungsi":600000,"kerugian_material":"Rp 29,1 Triliun","deskripsi":"Gempa dahsyat Bantul 2006, salah satu bencana terbesar di DIY.","sumber":"BNPB"}],"facilities":[],"kapasitas":0}},{"type":"Feature","geometry":{"type":"Polygon","coordinates":[[[110.52,-7.92],[110.58,-7.91],[110.61,-7.95],[110.59,-7.98],[110.54,-7.99],[110.51,-7.96],[110.52,-7.92]]]},"properties":{"name":"Zona Rawan Longsor Gunungkidul Utara","category":"kebencanaan","subcategory":"Rawan Longsor","type_layer":"zona_bahaya","level_risiko":"Sedang","deskripsi":"Perbukitan karst Gunungkidul dengan kemiringan >40\u00b0 rawan longsor saat musim hujan.","foto":"https://images.unsplash.com/photo-1504701954957-2010ec3bcec1?w=600","sumber_data":"BPBD Gunungkidul","last_updated":"2024-01-30","kontak_darurat":"+62274-391942 (BPBD Gunungkidul)","instruksi_evakuasi":"Hindari tebing terjal saat hujan deras. Perhatikan retakan tanah sebagai tanda awal.","riwayat_bencana":[{"tanggal":"2023-12-15","jenis":"Longsor","skala":"Kecil","korban_jiwa":0,"pengungsi":45,"kerugian_material":"Rp 300 Juta","deskripsi":"Longsor menutup jalan desa di Kecamatan Patuk.","sumber":"BPBD Gunungkidul"}],"facilities":[],"kapasitas":0}},{"type":"Feature","geometry":{"type":"Polygon","coordinates":[[[110.5,-7.95],[110.65,-7.94],[110.68,-8.02],[110.62,-8.08],[110.52,-8.07],[110.48,-8.01],[110.5,-7.95]]]},"properties":{"name":"Zona Rawan Kekeringan Gunungkidul Selatan","category":"kebencanaan","subcategory":"Rawan Kekeringan","type_layer":"zona_bahaya","level_risiko":"Tinggi","deskripsi":"Kawasan karst dengan cadangan air tanah terbatas. Kekeringan terjadi setiap musim kemarau (Juni-Oktober).","foto":"https://images.unsplash.com/photo-1504701954957-2010ec3bcec1?w=600","sumber_data":"BPBD Gunungkidul / PDAM","last_updated":"2024-04-01","kontak_darurat":"+62274-391942 (BPBD Gunungkidul)","instruksi_evakuasi":"Hemat penggunaan air. Hubungi BPBD untuk distribusi air bersih.","riwayat_bencana":[{"tanggal":"2023-09-01","jenis":"Kekeringan","skala":"Besar","korban_jiwa":0,"pengungsi":0,"kerugian_material":"Rp 1,5 Miliar","deskripsi":"42 desa di Gunungkidul mengalami krisis air bersih.","sumber":"BPBD Gunungkidul"}],"facilities":[],"kapasitas":0}}]}