{"type":"FeatureCollection","features":[{"type":"Feature","geometry":{"type":"Polygon","coordinates":[[[110.355,-7.775],[110.385,-7.77],[110.39,-7.795],[110.37,-7.81],[110.35,-7.805],[110.34,-7.79],[110.355,-7.775]]]},"properties":{"name":"Zona Rawan Genangan Pusat Kota","category":"lingkungan","subcategory":"Kerentanan Drainase Kota","type_layer":"zona_bahaya","level_risiko":"Sedang","deskripsi":"Area pusat kota Yogyakarta dengan kapasitas drainase terbatas. Genangan terjadi saat curah hujan >60mm/jam.","foto":"https://images.unsplash.com/photo-1547683905-f686c993aae5?w=600","sumber_data":"Dinas PU Kota Yogyakarta","last_updated":"2024-03-15","facilities":[],"kapasitas":0,"riwayat_bencana":[]}},{"type":"Feature","geometry":{"type":"Point","coordinates":[110.397,-7.805]},"properties":{"name":"Hutan Kota Gembira Loka","category":"lingkungan","subcategory":"Tutupan Lahan & RTH","type_layer":"titik_lingkungan","level_risiko":"Info","deskripsi":"Ruang terbuka hijau seluas 20 ha, habitat satwa dan paru-paru kota.","foto":"https://images.unsplash.com/photo-1448375240586-882707db888b?w=600","sumber_data":"DLH DIY","last_updated":"2024-02-01","facilities":[],"kapasitas":0,"riwayat_bencana":[]}},{"type":"Feature","geometry":{"type":"Point","coordinates":[110.364,-7.799]},"properties":{"name":"RTH Alun-Alun Utara","category":"lingkungan","subcategory":"Tutupan Lahan & RTH","type_layer":"titik_lingkungan","level_risiko":"Info","deskripsi":"Taman bersejarah dengan pohon beringin kembar, luas 1,5 ha.","foto":"https://images.unsplash.com/photo-1448375240586-882707db888b?w=600","sumber_data":"DLH DIY","last_updated":"2024-02-01","facilities":[],"kapasitas":0,"riwayat_bencana":[]}},{"type":"Feature","geometry":{"type":"Point","coordinates":[110.355,-7.725]},"properties":{"name":"Taman Denggung Sleman","category":"lingkungan","subcategory":"Tutupan Lahan & RTH","type_layer":"titik_lingkungan","level_risiko":"Info","deskripsi":"RTH terbesar di Sleman, pusat kegiatan olahraga masyarakat.","foto":"https://images.unsplash.com/photo-1448375240586-882707db888b?w=600","sumber_data":"DLH DIY","last_updated":"2024-02-01","facilities":[],"kapasitas":0,"riwayat_bencana":[]}},{"type":"Feature","geometry":{"type":"Point","coordinates":[110.4082,-7.9329]},"properties":{"name":"Hutan Pinus Mangunan","category":"lingkungan","subcategory":"Tutupan Lahan & RTH","type_layer":"titik_lingkungan","level_risiko":"Info","deskripsi":"Hutan konservasi seluas 500 ha, penyangga air dan pencegah longsor.","foto":"https://images.unsplash.com/photo-1448375240586-882707db888b?w=600","sumber_data":"DLH DIY","last_updated":"2024-02-01","facilities":[],"kapasitas":0,"riwayat_bencana":[]}},{"type":"Feature","geometry":{"type":"Point","coordinates":[110.398,-7.802]},"properties":{"name":"Kebun Raya Gembiraloka","category":"lingkungan","subcategory":"Tutupan Lahan & RTH","type_layer":"titik_lingkungan","level_risiko":"Info","deskripsi":"Koleksi flora dan fauna, fungsi konservasi dan edukasi lingkungan.","foto":"https://images.unsplash.com/photo-1448375240586-882707db888b?w=600","sumber_data":"DLH DIY","last_updated":"2024-02-01","facilities":[],"kapasitas":0,"riwayat_bencana":[]}},{"type":"Feature","geometry":{"type":"Point","coordinates":[110.34,-7.75]},"properties":{"name":"Stasiun BMKG Mlati (ISPU Baik)","category":"lingkungan","subcategory":"Kualitas Udara","type_layer":"titik_lingkungan","level_risiko":"Info","deskripsi":"AQI rata-rata 45 (Baik). Pemantauan PM2.5, PM10, SO2, NO2, O3.","foto":"https://images.unsplash.com/photo-1530349312469-7c40faab9d44?w=600","sumber_data":"BMKG / DLH DIY","last_updated":"2024-04-01","facilities":[],"kapasitas":0,"riwayat_bencana":[]}},{"type":"Feature","geometry":{"type":"Point","coordinates":[110.365,-7.795]},"properties":{"name":"Stasiun DLH Kota Yogyakarta (ISPU Sedang)","category":"lingkungan","subcategory":"Kualitas Udara","type_layer":"titik_lingkungan","level_risiko":"Info","deskripsi":"AQI rata-rata 65 (Sedang). Polusi kendaraan di area komersial.","foto":"https://images.unsplash.com/photo-1530349312469-7c40faab9d44?w=600","sumber_data":"BMKG / DLH DIY","last_updated":"2024-04-01","facilities":[],"kapasitas":0,"riwayat_bencana":[]}},{"type":"Feature","geometry":{"type":"Point","coordinates":[110.33,-7.89]},"properties":{"name":"Stasiun DLH Bantul (ISPU Baik)","category":"lingkungan","subcategory":"Kualitas Udara","type_layer":"titik_lingkungan","level_risiko":"Info","deskripsi":"AQI rata-rata 35 (Baik). Lingkungan pedesaan dengan tutupan hijau tinggi.","foto":"https://images.unsplash.com/photo-1530349312469-7c40faab9d44?w=600","sumber_data":"BMKG / DLH DIY","last_updated":"2024-04-01","facilities":[],"kapasitas":0,"riwayat_bencana":[]}},{"type":"Feature","geometry":{"type":"Point","coordinates":[110.41,-7.65]},"properties":{"name":"Mata Air Tuk Bening, Sleman","category":"lingkungan","subcategory":"Sumber Air Bersih","type_layer":"titik_lingkungan","level_risiko":"Info","deskripsi":"Mata air alami debit 50 liter/detik, sumber PDAM Sleman.","foto":"https://images.unsplash.com/photo-1470071459604-3b5ec3a7fe05?w=600","sumber_data":"PDAM / DLH DIY","last_updated":"2024-01-15","facilities":[],"kapasitas":0,"riwayat_bencana":[]}},{"type":"Feature","geometry":{"type":"Point","coordinates":[110.54,-7.86]},"properties":{"name":"Embung Nglanggeran","category":"lingkungan","subcategory":"Sumber Air Bersih","type_layer":"titik_lingkungan","level_risiko":"Info","deskripsi":"Embung penampung air hujan untuk irigasi dan cadangan air musim kemarau.","foto":"https://images.unsplash.com/photo-1470071459604-3b5ec3a7fe05?w=600","sumber_data":"PDAM / DLH DIY","last_updated":"2024-01-15","facilities":[],"kapasitas":0,"riwayat_bencana":[]}},{"type":"Feature","geometry":{"type":"Point","coordinates":[110.58,-7.82]},"properties":{"name":"Sumur Artesis Gedangsari","category":"lingkungan","subcategory":"Sumber Air Bersih","type_layer":"titik_lingkungan","level_risiko":"Info","deskripsi":"Sumur dalam 120m untuk pasokan air bersih 3 desa di Gunungkidul.","foto":"https://images.unsplash.com/photo-1470071459604-3b5ec3a7fe05?w=600","sumber_data":"PDAM / DLH DIY","last_updated":"2024-01-15","facilities":[],"kapasitas":0,"riwayat_bencana":[]}},{"type":"Feature","geometry":{"type":"Point","coordinates":[110.59,-7.96]},"properties":{"name":"SPAM IKK Wonosari","category":"lingkungan","subcategory":"Sumber Air Bersih","type_layer":"titik_lingkungan","level_risiko":"Info","deskripsi":"Instalasi pengolahan air minum kapasitas 40 liter/detik untuk Wonosari.","foto":"https://images.unsplash.com/photo-1470071459604-3b5ec3a7fe05?w=600","sumber_data":"PDAM / DLH DIY","last_updated":"2024-01-15","facilities":[],"kapasitas":0,"riwayat_bencana":[]}},{"type":"Feature","geometry":{"type":"Point","coordinates":[110.435,-7.835]},"properties":{"name":"TPA Piyungan","category":"lingkungan","subcategory":"Persebaran Sampah & TPA","type_layer":"titik_lingkungan","level_risiko":"Info","deskripsi":"TPA regional terbesar di DIY, melayani Kota, Sleman, dan Bantul. Kapasitas hampir penuh.","foto":"https://images.unsplash.com/photo-1532996122724-e3c354a0b15b?w=600","sumber_data":"DLH DIY","last_updated":"2024-02-01","facilities":[],"kapasitas":0,"riwayat_bencana":[]}},{"type":"Feature","geometry":{"type":"Point","coordinates":[110.27,-7.77]},"properties":{"name":"TPST 3R Moyudan","category":"lingkungan","subcategory":"Persebaran Sampah & TPA","type_layer":"titik_lingkungan","level_risiko":"Info","deskripsi":"Tempat pengolahan sampah terpadu dengan sistem 3R (Reduce, Reuse, Recycle).","foto":"https://images.unsplash.com/photo-1532996122724-e3c354a0b15b?w=600","sumber_data":"DLH DIY","last_updated":"2024-02-01","facilities":[],"kapasitas":0,"riwayat_bencana":[]}},{"type":"Feature","geometry":{"type":"Point","coordinates":[110.34,-7.8]},"properties":{"name":"Bank Sampah Gemah Ripah","category":"lingkungan","subcategory":"Persebaran Sampah & TPA","type_layer":"titik_lingkungan","level_risiko":"Info","deskripsi":"Bank sampah percontohan nasional di Bantul, pionir pengelolaan sampah berbasis masyarakat.","foto":"https://images.unsplash.com/photo-1532996122724-e3c354a0b15b?w=600","sumber_data":"DLH DIY","last_updated":"2024-02-01","facilities":[],"kapasitas":0,"riwayat_bencana":[]}},{"type":"Feature","geometry":{"type":"Point","coordinates":[110.61,-7.95]},"properties":{"name":"TPA Baleharjo Wonosari","category":"lingkungan","subcategory":"Persebaran Sampah & TPA","type_layer":"titik_lingkungan","level_risiko":"Info","deskripsi":"TPA untuk wilayah Gunungkidul, kapasitas 5 ton/hari.","foto":"https://images.unsplash.com/photo-1532996122724-e3c354a0b15b?w=600","sumber_data":"DLH DIY","last_updated":"2024-02-01","facilities":[],"kapasitas":0,"riwayat_bencana":[]}},{"type":"Feature","geometry":{"type":"Point","coordinates":[110.35,-7.88]},"properties":{"name":"TPST Palbapang Bantul","category":"lingkungan","subcategory":"Persebaran Sampah & TPA","type_layer":"titik_lingkungan","level_risiko":"Info","deskripsi":"Fasilitas composting dan daur ulang sampah organik skala kecamatan.","foto":"https://images.unsplash.com/photo-1532996122724-e3c354a0b15b?w=600","sumber_data":"DLH DIY","last_updated":"2024-02-01","facilities":[],"kapasitas":0,"riwayat_bencana":[]}}]}