{
  "type": "FeatureCollection",
  "features": [
    {
      "type": "Feature",
      "geometry": {
        "type": "Point",
        "coordinates": [
          110.3658,
          -7.7928
        ]
      },
      "properties": {
        "name": "Malioboro",
        "type": "Belanja & Kuliner",
        "category": "pariwisata",
        "subcategory": "Belanja & Kuliner",
        "rating": 4.6,
        "reviews": 12430,
        "visitors_per_day": 45000,
        "opening_hours": "24 Jam",
        "ticket_price": "Gratis",
        "description": "Kawasan belanja & budaya ikonik Jogja dengan pedagang kaki lima, batik, dan kuliner.",
        "foto": "https://images.unsplash.com/photo-1584810359583-96fc3448beaa?w=600",
        "facilities": [
          "parkir",
          "restoran",
          "toilet",
          "mushola",
          "atm"
        ],
        "hourly_crowd": [
          5,
          3,
          2,
          1,
          1,
          2,
          8,
          15,
          25,
          35,
          42,
          50,
          55,
          60,
          58,
          55,
          62,
          70,
          80,
          85,
          75,
          55,
          30,
          12
        ],
        "address": "Jl. Malioboro, Sosromenduran, Gedongtengen, Kota Yogyakarta",
        "tips": "Datang sore hari untuk suasana terbaik. Tawar harga batik hingga 50%."
      }
    },
    {
      "type": "Feature",
      "geometry": {
        "type": "Point",
        "coordinates": [
          110.4914,
          -7.752
        ]
      },
      "properties": {
        "name": "Candi Prambanan",
        "type": "Budaya & Sejarah",
        "category": "pariwisata",
        "subcategory": "Budaya & Sejarah",
        "rating": 4.7,
        "reviews": 18200,
        "visitors_per_day": 8500,
        "opening_hours": "06:00–17:00",
        "ticket_price": "Rp50.000",
        "description": "Kompleks candi Hindu terbesar di Indonesia, Warisan Dunia UNESCO.",
        "foto": "https://images.unsplash.com/photo-1596402184320-417e7178b2cd?w=600",
        "facilities": [
          "parkir",
          "restoran",
          "toilet",
          "mushola",
          "toko_suvenir"
        ],
        "hourly_crowd": [
          0,
          0,
          0,
          0,
          0,
          2,
          15,
          30,
          45,
          55,
          65,
          70,
          72,
          68,
          60,
          55,
          45,
          20,
          0,
          0,
          0,
          0,
          0,
          0
        ],
        "address": "Jl. Raya Solo-Yogya No.16, Prambanan, Sleman",
        "tips": "Datang pagi untuk menghindari panas. Sewa guide untuk sejarah lengkap."
      }
    },
    {
      "type": "Feature",
      "geometry": {
        "type": "Point",
        "coordinates": [
          110.2038,
          -7.6079
        ]
      },
      "properties": {
        "name": "Candi Borobudur",
        "type": "Budaya & Sejarah",
        "category": "pariwisata",
        "subcategory": "Budaya & Sejarah",
        "rating": 4.8,
        "reviews": 25600,
        "visitors_per_day": 12000,
        "opening_hours": "06:00–17:00",
        "ticket_price": "Rp50.000",
        "description": "Candi Buddha terbesar di dunia, mahakarya arsitektur abad ke-9.",
        "foto": "https://images.unsplash.com/photo-1518002171953-a080ee817e1f?w=600",
        "facilities": [
          "parkir",
          "restoran",
          "toilet",
          "mushola",
          "toko_suvenir",
          "atm"
        ],
        "hourly_crowd": [
          2,
          0,
          0,
          0,
          0,
          10,
          25,
          45,
          60,
          70,
          78,
          82,
          80,
          75,
          68,
          60,
          50,
          25,
          0,
          0,
          0,
          0,
          0,
          0
        ],
        "address": "Jl. Badrawati, Borobudur, Magelang, Jawa Tengah",
        "tips": "Sunrise tour mulai jam 4 pagi. Bawa jaket tipis karena dingin."
      }
    },
    {
      "type": "Feature",
      "geometry": {
        "type": "Point",
        "coordinates": [
          110.3641,
          -7.8052
        ]
      },
      "properties": {
        "name": "Keraton Yogyakarta",
        "type": "Budaya & Sejarah",
        "category": "pariwisata",
        "subcategory": "Budaya & Sejarah",
        "rating": 4.5,
        "reviews": 8750,
        "visitors_per_day": 5200,
        "opening_hours": "08:00–14:00",
        "ticket_price": "Rp15.000",
        "description": "Istana resmi Kesultanan Yogyakarta, pusat budaya Jawa.",
        "foto": "https://images.unsplash.com/photo-1609688640069-d8baf3b1de7e?w=600",
        "facilities": [
          "parkir",
          "restoran",
          "toilet",
          "mushola",
          "toko_suvenir"
        ],
        "hourly_crowd": [
          0,
          0,
          0,
          0,
          0,
          0,
          0,
          5,
          25,
          45,
          60,
          65,
          62,
          55,
          15,
          0,
          0,
          0,
          0,
          0,
          0,
          0,
          0,
          0
        ],
        "address": "Jl. Rotowijayan Blok No.1, Panembahan, Kraton, Kota Yogyakarta",
        "tips": "Kunjungi saat ada latihan tari di pendopo. Pakai baju sopan."
      }
    },
    {
      "type": "Feature",
      "geometry": {
        "type": "Point",
        "coordinates": [
          110.3591,
          -7.81
        ]
      },
      "properties": {
        "name": "Taman Sari",
        "type": "Budaya & Sejarah",
        "category": "pariwisata",
        "subcategory": "Budaya & Sejarah",
        "rating": 4.4,
        "reviews": 9120,
        "visitors_per_day": 4800,
        "opening_hours": "09:00–15:00",
        "ticket_price": "Rp15.000",
        "description": "Bekas taman kerajaan dan kolam pemandian Kesultanan.",
        "foto": "https://images.unsplash.com/photo-1596786009843-2b3e9c3e1a77?w=600",
        "facilities": [
          "parkir",
          "toilet",
          "mushola",
          "toko_suvenir"
        ],
        "hourly_crowd": [
          0,
          0,
          0,
          0,
          0,
          0,
          0,
          0,
          5,
          20,
          40,
          55,
          60,
          58,
          50,
          15,
          0,
          0,
          0,
          0,
          0,
          0,
          0,
          0
        ],
        "address": "Jl. Taman, Kraton, Kota Yogyakarta",
        "tips": "Sewa guide lokal di pintu masuk untuk cerita sejarah menarik."
      }
    },
    {
      "type": "Feature",
      "geometry": {
        "type": "Point",
        "coordinates": [
          110.3286,
          -8.0254
        ]
      },
      "properties": {
        "name": "Pantai Parangtritis",
        "type": "Alam & Petualangan",
        "category": "pariwisata",
        "subcategory": "Alam & Petualangan",
        "rating": 4.3,
        "reviews": 7800,
        "visitors_per_day": 15000,
        "opening_hours": "24 Jam",
        "ticket_price": "Rp10.000",
        "description": "Pantai legendaris selatan Jogja dengan sunset menakjubkan.",
        "foto": "https://images.unsplash.com/photo-1507525428034-b723cf961d3e?w=600",
        "facilities": [
          "parkir",
          "restoran",
          "toilet",
          "mushola"
        ],
        "hourly_crowd": [
          2,
          1,
          1,
          0,
          0,
          3,
          8,
          12,
          20,
          25,
          30,
          35,
          40,
          50,
          55,
          60,
          70,
          75,
          65,
          45,
          25,
          12,
          5,
          3
        ],
        "address": "Parangtritis, Kretek, Bantul",
        "tips": "Jangan berenang, ombak sangat kuat. Coba naik delman pantai."
      }
    },
    {
      "type": "Feature",
      "geometry": {
        "type": "Point",
        "coordinates": [
          110.6121,
          -8.1513
        ]
      },
      "properties": {
        "name": "Pantai Indrayanti",
        "type": "Alam & Petualangan",
        "category": "pariwisata",
        "subcategory": "Alam & Petualangan",
        "rating": 4.5,
        "reviews": 6200,
        "visitors_per_day": 8000,
        "opening_hours": "06:00–18:00",
        "ticket_price": "Rp10.000",
        "description": "Pantai pasir putih dengan tebing karang dan restoran tepi laut.",
        "foto": "https://images.unsplash.com/photo-1519046904884-53103b34b206?w=600",
        "facilities": [
          "parkir",
          "restoran",
          "toilet"
        ],
        "hourly_crowd": [
          0,
          0,
          0,
          0,
          0,
          2,
          10,
          18,
          30,
          40,
          50,
          58,
          62,
          60,
          55,
          50,
          42,
          25,
          5,
          0,
          0,
          0,
          0,
          0
        ],
        "address": "Tepus, Gunungkidul",
        "tips": "Bawa kacamata hitam. Restoran di pantai cukup terjangkau."
      }
    },
    {
      "type": "Feature",
      "geometry": {
        "type": "Point",
        "coordinates": [
          110.64,
          -7.9533
        ]
      },
      "properties": {
        "name": "Goa Jomblang",
        "type": "Alam & Petualangan",
        "category": "pariwisata",
        "subcategory": "Alam & Petualangan",
        "rating": 4.6,
        "reviews": 4500,
        "visitors_per_day": 500,
        "opening_hours": "07:00–12:00",
        "ticket_price": "Rp500.000",
        "description": "Gua vertikal dengan cahaya surga (Heaven's Light) yang ikonik.",
        "foto": "https://images.unsplash.com/photo-1504699439244-a8de46249cc0?w=600",
        "facilities": [
          "parkir",
          "toilet",
          "guide"
        ],
        "hourly_crowd": [
          0,
          0,
          0,
          0,
          0,
          0,
          10,
          30,
          55,
          70,
          80,
          60,
          0,
          0,
          0,
          0,
          0,
          0,
          0,
          0,
          0,
          0,
          0,
          0
        ],
        "address": "Semanu, Gunungkidul",
        "tips": "Wajib booking jauh hari, kuota terbatas. Bawa baju ganti."
      }
    },
    {
      "type": "Feature",
      "geometry": {
        "type": "Point",
        "coordinates": [
          110.4457,
          -7.5407
        ]
      },
      "properties": {
        "name": "Gunung Merapi",
        "type": "Alam & Petualangan",
        "category": "pariwisata",
        "subcategory": "Alam & Petualangan",
        "rating": 4.7,
        "reviews": 5300,
        "visitors_per_day": 3000,
        "opening_hours": "24 Jam",
        "ticket_price": "Rp30.000",
        "description": "Gunung berapi paling aktif di Jawa dengan jeep adventure.",
        "foto": "https://images.unsplash.com/photo-1588668214407-6ea9a6d8c272?w=600",
        "facilities": [
          "parkir",
          "restoran",
          "toilet",
          "guide"
        ],
        "hourly_crowd": [
          15,
          5,
          2,
          1,
          5,
          15,
          25,
          35,
          45,
          50,
          55,
          50,
          45,
          40,
          38,
          35,
          30,
          25,
          20,
          18,
          15,
          12,
          10,
          8
        ],
        "address": "Cangkringan, Sleman",
        "tips": "Jeep Lava Tour pagi hari lebih sejuk. Bawa masker debu."
      }
    },
    {
      "type": "Feature",
      "geometry": {
        "type": "Point",
        "coordinates": [
          110.4082,
          -7.9329
        ]
      },
      "properties": {
        "name": "Hutan Pinus Mangunan",
        "type": "Alam & Petualangan",
        "category": "pariwisata",
        "subcategory": "Alam & Petualangan",
        "rating": 4.4,
        "reviews": 5800,
        "visitors_per_day": 6000,
        "opening_hours": "06:00–17:30",
        "ticket_price": "Rp5.000",
        "description": "Hutan pinus estetik dengan spot foto dan pemandangan kota.",
        "foto": "https://images.unsplash.com/photo-1448375240586-882707db888b?w=600",
        "facilities": [
          "parkir",
          "restoran",
          "toilet"
        ],
        "hourly_crowd": [
          0,
          0,
          0,
          0,
          0,
          5,
          20,
          35,
          45,
          50,
          55,
          50,
          48,
          45,
          42,
          38,
          30,
          15,
          0,
          0,
          0,
          0,
          0,
          0
        ],
        "address": "Mangunan, Dlingo, Bantul",
        "tips": "Pagi hari untuk kabut terbaik. Weekday lebih sepi."
      }
    },
    {
      "type": "Feature",
      "geometry": {
        "type": "Point",
        "coordinates": [
          110.507,
          -7.7653
        ]
      },
      "properties": {
        "name": "Tebing Breksi",
        "type": "Alam & Petualangan",
        "category": "pariwisata",
        "subcategory": "Alam & Petualangan",
        "rating": 4.3,
        "reviews": 4200,
        "visitors_per_day": 5500,
        "opening_hours": "06:00–18:00",
        "ticket_price": "Rp5.000",
        "description": "Bekas tambang batu yang diubah jadi amphitheater alam.",
        "foto": "https://images.unsplash.com/photo-1506905925346-21bda4d32df4?w=600",
        "facilities": [
          "parkir",
          "restoran",
          "toilet"
        ],
        "hourly_crowd": [
          0,
          0,
          0,
          0,
          0,
          2,
          10,
          20,
          30,
          35,
          40,
          42,
          45,
          50,
          55,
          60,
          55,
          30,
          5,
          0,
          0,
          0,
          0,
          0
        ],
        "address": "Sambirejo, Prambanan, Sleman",
        "tips": "Sore hari terbaik untuk sunset. Bawa air minum sendiri."
      }
    },
    {
      "type": "Feature",
      "geometry": {
        "type": "Point",
        "coordinates": [
          110.358,
          -7.8025
        ]
      },
      "properties": {
        "name": "Masjid Gedhe Kauman",
        "type": "Religi",
        "category": "pariwisata",
        "subcategory": "Religi",
        "rating": 4.5,
        "reviews": 3200,
        "visitors_per_day": 4000,
        "opening_hours": "24 Jam",
        "ticket_price": "Gratis",
        "description": "Masjid agung peninggalan Keraton Yogyakarta sejak abad ke-18.",
        "foto": "https://images.unsplash.com/photo-1585036156261-1e2ac714691d?w=600",
        "facilities": [
          "parkir",
          "toilet",
          "mushola"
        ],
        "hourly_crowd": [
          8,
          3,
          2,
          2,
          15,
          20,
          15,
          10,
          8,
          10,
          15,
          30,
          40,
          20,
          12,
          18,
          25,
          35,
          40,
          30,
          20,
          15,
          12,
          10
        ],
        "address": "Jl. Kauman No.2, Ngupasan, Gondomanan, Kota Yogyakarta",
        "tips": "Waktu dzuhur dan ashar paling tenang untuk berkunjung."
      }
    },
    {
      "type": "Feature",
      "geometry": {
        "type": "Point",
        "coordinates": [
          110.3885,
          -7.8478
        ]
      },
      "properties": {
        "name": "Gereja Ayam",
        "type": "Religi",
        "category": "pariwisata",
        "subcategory": "Religi",
        "rating": 4.2,
        "reviews": 3800,
        "visitors_per_day": 3500,
        "opening_hours": "08:00–16:00",
        "ticket_price": "Rp20.000",
        "description": "Bangunan unik berbentuk merpati/ayam di perbukitan Magelang.",
        "foto": "https://images.unsplash.com/photo-1558618666-fcd25c85f82e?w=600",
        "facilities": [
          "parkir",
          "toilet",
          "toko_suvenir"
        ],
        "hourly_crowd": [
          0,
          0,
          0,
          0,
          0,
          0,
          0,
          5,
          20,
          35,
          45,
          50,
          48,
          42,
          38,
          30,
          10,
          0,
          0,
          0,
          0,
          0,
          0,
          0
        ],
        "address": "Bukit Rhema, Magelang, Jawa Tengah",
        "tips": "Datang pagi untuk foto tanpa kerumunan. View terbaik dari atas."
      }
    },
    {
      "type": "Feature",
      "geometry": {
        "type": "Point",
        "coordinates": [
          110.4264,
          -7.5997
        ]
      },
      "properties": {
        "name": "Museum Ullen Sentalu",
        "type": "Edukasi",
        "category": "pariwisata",
        "subcategory": "Edukasi",
        "rating": 4.6,
        "reviews": 4100,
        "visitors_per_day": 2000,
        "opening_hours": "08:30–16:00",
        "ticket_price": "Rp40.000",
        "description": "Museum terbaik di Jogja, menampilkan budaya Jawa & kerajaan.",
        "foto": "https://images.unsplash.com/photo-1566127444979-b3d2b654e3d7?w=600",
        "facilities": [
          "parkir",
          "restoran",
          "toilet",
          "toko_suvenir"
        ],
        "hourly_crowd": [
          0,
          0,
          0,
          0,
          0,
          0,
          0,
          5,
          15,
          25,
          35,
          40,
          42,
          40,
          35,
          30,
          10,
          0,
          0,
          0,
          0,
          0,
          0,
          0
        ],
        "address": "Kaliurang, Hargobinangun, Pakem, Sleman",
        "tips": "Tur berpemandu wajib ikut. Tidak boleh foto di dalam museum."
      }
    },
    {
      "type": "Feature",
      "geometry": {
        "type": "Point",
        "coordinates": [
          110.3976,
          -7.7792
        ]
      },
      "properties": {
        "name": "Museum Affandi",
        "type": "Edukasi",
        "category": "pariwisata",
        "subcategory": "Edukasi",
        "rating": 4.3,
        "reviews": 2900,
        "visitors_per_day": 1500,
        "opening_hours": "09:00–16:00",
        "ticket_price": "Rp75.000",
        "description": "Museum pelukis maestro Indonesia dengan koleksi lukisan asli.",
        "foto": "https://images.unsplash.com/photo-1531243269054-5ebf6f34081e?w=600",
        "facilities": [
          "parkir",
          "toilet",
          "toko_suvenir"
        ],
        "hourly_crowd": [
          0,
          0,
          0,
          0,
          0,
          0,
          0,
          0,
          5,
          15,
          25,
          30,
          35,
          30,
          25,
          20,
          8,
          0,
          0,
          0,
          0,
          0,
          0,
          0
        ],
        "address": "Jl. Laksda Adisucipto No.167, Caturtunggal, Depok, Sleman",
        "tips": "Lihat galeri lukisan asli di lantai 2. Ada toko suvenir unik."
      }
    },
    {
      "type": "Feature",
      "geometry": {
        "type": "Point",
        "coordinates": [
          110.367,
          -7.783
        ]
      },
      "properties": {
        "name": "Tugu Yogyakarta",
        "type": "Budaya & Sejarah",
        "category": "pariwisata",
        "subcategory": "Budaya & Sejarah",
        "rating": 4.4,
        "reviews": 6500,
        "visitors_per_day": 20000,
        "opening_hours": "24 Jam",
        "ticket_price": "Gratis",
        "description": "Landmark ikonik Jogja, simbol persatuan rakyat & penguasa.",
        "foto": "https://images.unsplash.com/photo-1605112969121-f1a12277f278?w=600",
        "facilities": [
          "parkir",
          "restoran",
          "toilet"
        ],
        "hourly_crowd": [
          5,
          3,
          2,
          1,
          1,
          5,
          10,
          20,
          30,
          35,
          40,
          45,
          48,
          50,
          48,
          45,
          50,
          60,
          70,
          75,
          60,
          35,
          15,
          8
        ],
        "address": "Jl. Jend. Sudirman, Gowongan, Jetis, Kota Yogyakarta",
        "tips": "Foto malam hari saat tugu menyala. Hati-hati lalu lintas."
      }
    },
    {
      "type": "Feature",
      "geometry": {
        "type": "Point",
        "coordinates": [
          110.362,
          -7.812
        ]
      },
      "properties": {
        "name": "Alun-Alun Kidul",
        "type": "Hiburan",
        "category": "pariwisata",
        "subcategory": "Hiburan",
        "rating": 4.3,
        "reviews": 7200,
        "visitors_per_day": 18000,
        "opening_hours": "24 Jam",
        "ticket_price": "Gratis",
        "description": "Alun-alun selatan Keraton dengan wahana masangin dan becak hias.",
        "foto": "https://images.unsplash.com/photo-1596786009843-2b3e9c3e1a77?w=600",
        "facilities": [
          "parkir",
          "restoran",
          "toilet",
          "mushola"
        ],
        "hourly_crowd": [
          3,
          2,
          1,
          1,
          1,
          2,
          5,
          8,
          12,
          15,
          18,
          20,
          22,
          20,
          18,
          20,
          30,
          45,
          65,
          80,
          85,
          70,
          40,
          10
        ],
        "address": "Jl. Alun-Alun Selatan, Patehan, Kraton, Kota Yogyakarta",
        "tips": "Coba masangin malam hari. Sewa becak hias lampu LED."
      }
    },
    {
      "type": "Feature",
      "geometry": {
        "type": "Point",
        "coordinates": [
          110.397,
          -7.805
        ]
      },
      "properties": {
        "name": "Kebun Binatang Gembira Loka",
        "type": "Hiburan",
        "category": "pariwisata",
        "subcategory": "Hiburan",
        "rating": 4.2,
        "reviews": 5600,
        "visitors_per_day": 7000,
        "opening_hours": "08:00–16:00",
        "ticket_price": "Rp40.000",
        "description": "Kebun binatang tertua di Jogja dengan koleksi satwa beragam.",
        "foto": "https://images.unsplash.com/photo-1534567153574-2b12153a87f0?w=600",
        "facilities": [
          "parkir",
          "restoran",
          "toilet",
          "mushola",
          "atm"
        ],
        "hourly_crowd": [
          0,
          0,
          0,
          0,
          0,
          0,
          0,
          5,
          25,
          40,
          55,
          62,
          65,
          60,
          52,
          45,
          15,
          0,
          0,
          0,
          0,
          0,
          0,
          0
        ],
        "address": "Jl. Kebun Raya No.2, Rejowinangun, Kotagede, Kota Yogyakarta",
        "tips": "Datang pagi saat hewan aktif. Bawa topi dan sunscreen."
      }
    },
    {
      "type": "Feature",
      "geometry": {
        "type": "Point",
        "coordinates": [
          110.4178,
          -7.7258
        ]
      },
      "properties": {
        "name": "Jogja Bay Waterpark",
        "type": "Hiburan",
        "category": "pariwisata",
        "subcategory": "Hiburan",
        "rating": 4.4,
        "reviews": 4800,
        "visitors_per_day": 5000,
        "opening_hours": "09:00–17:00",
        "ticket_price": "Rp100.000",
        "description": "Waterpark terbesar di Jogja dengan wahana seru dan kolam ombak.",
        "foto": "https://images.unsplash.com/photo-1501785888041-af3ef285b470?w=600",
        "facilities": [
          "parkir",
          "restoran",
          "toilet",
          "mushola",
          "atm"
        ],
        "hourly_crowd": [
          0,
          0,
          0,
          0,
          0,
          0,
          0,
          0,
          10,
          30,
          50,
          62,
          68,
          65,
          58,
          50,
          38,
          5,
          0,
          0,
          0,
          0,
          0,
          0
        ],
        "address": "Jl. Stadion Maguwoharjo, Ngemplak, Sleman",
        "tips": "Weekday lebih murah. Bawa baju ganti dan loker tersedia."
      }
    },
    {
      "type": "Feature",
      "geometry": {
        "type": "Point",
        "coordinates": [
          110.366,
          -7.798
        ]
      },
      "properties": {
        "name": "Pasar Beringharjo",
        "type": "Belanja & Kuliner",
        "category": "pariwisata",
        "subcategory": "Belanja & Kuliner",
        "rating": 4.3,
        "reviews": 5100,
        "visitors_per_day": 25000,
        "opening_hours": "06:00–17:00",
        "ticket_price": "Gratis",
        "description": "Pasar tradisional tertua di Jogja, pusat batik dan rempah.",
        "foto": "https://images.unsplash.com/photo-1555529669-e69e7aa0ba9a?w=600",
        "facilities": [
          "parkir",
          "restoran",
          "toilet",
          "mushola",
          "atm"
        ],
        "hourly_crowd": [
          0,
          0,
          0,
          0,
          0,
          5,
          25,
          45,
          60,
          70,
          75,
          72,
          65,
          55,
          48,
          40,
          30,
          5,
          0,
          0,
          0,
          0,
          0,
          0
        ],
        "address": "Jl. Pabringan No.1, Ngupasan, Gondomanan, Kota Yogyakarta",
        "tips": "Lantai 1 batik, lantai 2 rempah. Datang pagi untuk pilihan terbaik."
      }
    },
    {
      "type": "Feature",
      "geometry": {
        "type": "Point",
        "coordinates": [
          110.3651,
          -7.8166
        ]
      },
      "properties": {
        "name": "Jalan Prawirotaman",
        "type": "Belanja & Kuliner",
        "category": "pariwisata",
        "subcategory": "Belanja & Kuliner",
        "rating": 4.4,
        "reviews": 3200,
        "visitors_per_day": 8000,
        "opening_hours": "24 Jam",
        "ticket_price": "Gratis",
        "description": "Kawasan backpacker, kafe artsy, dan galeri seni kontemporer.",
        "foto": "https://images.unsplash.com/photo-1514933651103-005eec06c04b?w=600",
        "facilities": [
          "parkir",
          "restoran",
          "toilet",
          "atm"
        ],
        "hourly_crowd": [
          5,
          3,
          2,
          1,
          1,
          2,
          5,
          8,
          15,
          22,
          28,
          32,
          35,
          30,
          28,
          32,
          40,
          50,
          65,
          72,
          68,
          50,
          25,
          10
        ],
        "address": "Jl. Prawirotaman, Brontokusuman, Mergangsan, Kota Yogyakarta",
        "tips": "Banyak kafe dan galeri seni. Malam hari paling hidup."
      }
    },
    {
      "type": "Feature",
      "geometry": {
        "type": "Point",
        "coordinates": [
          110.3622,
          -7.7816
        ]
      },
      "properties": {
        "name": "Gudeg Yu Djum",
        "type": "Belanja & Kuliner",
        "category": "pariwisata",
        "subcategory": "Belanja & Kuliner",
        "rating": 4.5,
        "reviews": 4600,
        "visitors_per_day": 3000,
        "opening_hours": "06:00–22:00",
        "ticket_price": "Rp20.000-50.000",
        "description": "Gudeg legendaris Jogja sejak 1950, cita rasa otentik.",
        "foto": "https://images.unsplash.com/photo-1504674900247-0877df9cc836?w=600",
        "facilities": [
          "parkir",
          "restoran",
          "toilet"
        ],
        "hourly_crowd": [
          0,
          0,
          0,
          0,
          0,
          5,
          20,
          35,
          30,
          25,
          30,
          40,
          55,
          45,
          35,
          30,
          35,
          50,
          62,
          55,
          40,
          25,
          10,
          2
        ],
        "address": "Jl. Kaliurang Km 4.5, Sinduadi, Mlati, Sleman",
        "tips": "Coba gudeg kering untuk oleh-oleh. Bisa beli kemasan vakum."
      }
    },
    {
      "type": "Feature",
      "geometry": {
        "type": "Point",
        "coordinates": [
          110.4593,
          -7.8541
        ]
      },
      "properties": {
        "name": "Bukit Bintang",
        "type": "Alam & Petualangan",
        "category": "pariwisata",
        "subcategory": "Alam & Petualangan",
        "rating": 4.2,
        "reviews": 3400,
        "visitors_per_day": 6000,
        "opening_hours": "17:00–24:00",
        "ticket_price": "Gratis",
        "description": "Spot malam romantis dengan pemandangan lampu kota Jogja.",
        "foto": "https://images.unsplash.com/photo-1519681393784-d120267933ba?w=600",
        "facilities": [
          "parkir",
          "restoran"
        ],
        "hourly_crowd": [
          5,
          2,
          1,
          0,
          0,
          0,
          0,
          0,
          0,
          0,
          0,
          0,
          5,
          5,
          5,
          8,
          15,
          35,
          55,
          72,
          80,
          65,
          35,
          12
        ],
        "address": "Patuk, Gunungkidul",
        "tips": "Datang setelah magrib untuk view city light terbaik."
      }
    },
    {
      "type": "Feature",
      "geometry": {
        "type": "Point",
        "coordinates": [
          110.6307,
          -7.9512
        ]
      },
      "properties": {
        "name": "Goa Pindul",
        "type": "Alam & Petualangan",
        "category": "pariwisata",
        "subcategory": "Alam & Petualangan",
        "rating": 4.5,
        "reviews": 3800,
        "visitors_per_day": 2500,
        "opening_hours": "08:00–15:00",
        "ticket_price": "Rp85.000",
        "description": "Cave tubing seru menyusuri gua stalaktit di sungai bawah tanah.",
        "foto": "https://images.unsplash.com/photo-1504699439244-a8de46249cc0?w=600",
        "facilities": [
          "parkir",
          "restoran",
          "toilet",
          "guide"
        ],
        "hourly_crowd": [
          0,
          0,
          0,
          0,
          0,
          0,
          0,
          5,
          20,
          40,
          55,
          60,
          55,
          45,
          30,
          5,
          0,
          0,
          0,
          0,
          0,
          0,
          0,
          0
        ],
        "address": "Bejiharjo, Karangmojo, Gunungkidul",
        "tips": "Bawa sandal anti slip. Durasi cave tubing sekitar 45 menit."
      }
    },
    {
      "type": "Feature",
      "geometry": {
        "type": "Point",
        "coordinates": [
          110.363,
          -7.801
        ]
      },
      "properties": {
        "name": "Museum Sonobudoyo",
        "type": "Edukasi",
        "category": "pariwisata",
        "subcategory": "Edukasi",
        "rating": 4.3,
        "reviews": 2800,
        "visitors_per_day": 1800,
        "opening_hours": "08:00–15:30",
        "ticket_price": "Rp10.000",
        "description": "Museum koleksi kebudayaan Jawa terlengkap di Yogyakarta.",
        "foto": "https://images.unsplash.com/photo-1566127444979-b3d2b654e3d7?w=600",
        "facilities": [
          "parkir",
          "toilet",
          "toko_suvenir"
        ],
        "hourly_crowd": [
          0,
          0,
          0,
          0,
          0,
          0,
          0,
          5,
          18,
          30,
          38,
          42,
          40,
          35,
          28,
          10,
          0,
          0,
          0,
          0,
          0,
          0,
          0,
          0
        ],
        "address": "Jl. Trikora No.6, Ngupasan, Gondomanan, Kota Yogyakarta",
        "tips": "Nonton wayang kulit malam Sabtu. Koleksi keris terlengkap."
      }
    },
    {
      "type": "Feature",
      "geometry": {
        "type": "Point",
        "coordinates": [
          110.489,
          -7.7705
        ]
      },
      "properties": {
        "name": "Ratu Boko",
        "type": "Budaya & Sejarah",
        "category": "pariwisata",
        "subcategory": "Budaya & Sejarah",
        "rating": 4.5,
        "reviews": 5200,
        "visitors_per_day": 3500,
        "opening_hours": "06:00–17:00",
        "ticket_price": "Rp40.000",
        "description": "Situs arkeologi kerajaan kuno dengan sunset terbaik di Jogja.",
        "foto": "https://images.unsplash.com/photo-1596402184320-417e7178b2cd?w=600",
        "facilities": [
          "parkir",
          "restoran",
          "toilet",
          "toko_suvenir"
        ],
        "hourly_crowd": [
          0,
          0,
          0,
          0,
          0,
          5,
          15,
          20,
          25,
          30,
          32,
          30,
          28,
          25,
          30,
          45,
          62,
          40,
          0,
          0,
          0,
          0,
          0,
          0
        ],
        "address": "Prambanan, Sleman",
        "tips": "Beli tiket terusan Prambanan+Ratu Boko lebih hemat. Sunset spot terbaik."
      }
    },
    {
      "type": "Feature",
      "geometry": {
        "type": "Point",
        "coordinates": [
          110.5916,
          -8.1375
        ]
      },
      "properties": {
        "name": "Puncak Kosakora",
        "type": "Alam & Petualangan",
        "category": "pariwisata",
        "subcategory": "Alam & Petualangan",
        "rating": 4.3,
        "reviews": 2100,
        "visitors_per_day": 2000,
        "opening_hours": "06:00–18:00",
        "ticket_price": "Rp10.000",
        "description": "Bukit karst dengan view laut selatan & paragliding spot.",
        "foto": "https://images.unsplash.com/photo-1506905925346-21bda4d32df4?w=600",
        "facilities": [
          "parkir",
          "toilet"
        ],
        "hourly_crowd": [
          0,
          0,
          0,
          0,
          0,
          3,
          15,
          25,
          35,
          40,
          42,
          38,
          35,
          30,
          28,
          35,
          40,
          20,
          0,
          0,
          0,
          0,
          0,
          0
        ],
        "address": "Tepus, Gunungkidul",
        "tips": "Bawa bekal sendiri. Trekking ringan sekitar 15 menit."
      }
    },
    {
      "type": "Feature",
      "geometry": {
        "type": "Point",
        "coordinates": [
          110.431,
          -7.787
        ]
      },
      "properties": {
        "name": "Museum Dirgantara",
        "type": "Edukasi",
        "category": "pariwisata",
        "subcategory": "Edukasi",
        "rating": 4.1,
        "reviews": 1900,
        "visitors_per_day": 1200,
        "opening_hours": "08:00–15:00",
        "ticket_price": "Rp10.000",
        "description": "Museum angkatan udara dengan koleksi pesawat tempur bersejarah.",
        "foto": "https://images.unsplash.com/photo-1540962351504-03099e0a754b?w=600",
        "facilities": [
          "parkir",
          "toilet",
          "toko_suvenir"
        ],
        "hourly_crowd": [
          0,
          0,
          0,
          0,
          0,
          0,
          0,
          5,
          15,
          22,
          28,
          32,
          30,
          25,
          18,
          5,
          0,
          0,
          0,
          0,
          0,
          0,
          0,
          0
        ],
        "address": "Jl. Janti, Caturtunggal, Depok, Sleman",
        "tips": "Cocok untuk anak-anak. Bisa foto di kokpit pesawat."
      }
    },
    {
      "type": "Feature",
      "geometry": {
        "type": "Point",
        "coordinates": [
          110.6462,
          -8.1548
        ]
      },
      "properties": {
        "name": "Pantai Timang",
        "type": "Alam & Petualangan",
        "category": "pariwisata",
        "subcategory": "Alam & Petualangan",
        "rating": 4.4,
        "reviews": 2600,
        "visitors_per_day": 2000,
        "opening_hours": "07:00–17:00",
        "ticket_price": "Rp15.000",
        "description": "Pantai ekstrem dengan gondola tradisional melewati laut.",
        "foto": "https://images.unsplash.com/photo-1507525428034-b723cf961d3e?w=600",
        "facilities": [
          "parkir",
          "restoran",
          "toilet"
        ],
        "hourly_crowd": [
          0,
          0,
          0,
          0,
          0,
          0,
          5,
          15,
          28,
          38,
          45,
          50,
          48,
          42,
          38,
          32,
          18,
          2,
          0,
          0,
          0,
          0,
          0,
          0
        ],
        "address": "Purwodadi, Tepus, Gunungkidul",
        "tips": "Gondola tradisional sangat mendebarkan. Bukan untuk yang takut ketinggian."
      }
    },
    {
      "type": "Feature",
      "geometry": {
        "type": "Point",
        "coordinates": [
          110.1377,
          -7.6775
        ]
      },
      "properties": {
        "name": "Kalibiru",
        "type": "Alam & Petualangan",
        "category": "pariwisata",
        "subcategory": "Alam & Petualangan",
        "rating": 4.3,
        "reviews": 3100,
        "visitors_per_day": 4500,
        "opening_hours": "06:00–17:30",
        "ticket_price": "Rp20.000",
        "description": "Wisata alam dengan spot foto di atas pohon dan waduk Sermo.",
        "foto": "https://images.unsplash.com/photo-1448375240586-882707db888b?w=600",
        "facilities": [
          "parkir",
          "restoran",
          "toilet"
        ],
        "hourly_crowd": [
          0,
          0,
          0,
          0,
          0,
          3,
          15,
          28,
          40,
          48,
          52,
          50,
          45,
          40,
          38,
          35,
          25,
          8,
          0,
          0,
          0,
          0,
          0,
          0
        ],
        "address": "Hargowilis, Kokap, Kulon Progo",
        "tips": "Antrian spot foto bisa panjang. Datang pagi weekday."
      }
    },
    {
      "type": "Feature",
      "geometry": {
        "type": "Point",
        "coordinates": [
          110.3464,
          -7.7616
        ]
      },
      "properties": {
        "name": "Sindu Kusuma Edupark",
        "type": "Hiburan",
        "category": "pariwisata",
        "subcategory": "Hiburan",
        "rating": 4.1,
        "reviews": 3500,
        "visitors_per_day": 5500,
        "opening_hours": "15:00–22:00",
        "ticket_price": "Rp35.000",
        "description": "Taman bermain modern dengan bianglala raksasa & wahana seru.",
        "foto": "https://images.unsplash.com/photo-1501785888041-af3ef285b470?w=600",
        "facilities": [
          "parkir",
          "restoran",
          "toilet",
          "mushola",
          "atm"
        ],
        "hourly_crowd": [
          0,
          0,
          0,
          0,
          0,
          0,
          0,
          0,
          0,
          0,
          0,
          0,
          0,
          0,
          8,
          20,
          35,
          50,
          65,
          72,
          68,
          50,
          25,
          5
        ],
        "address": "Jl. Jambon No.1, Sinduadi, Mlati, Sleman",
        "tips": "Beli tiket all-in lebih hemat. Bianglala saat malam sangat cantik."
      }
    },
    {
      "type": "Feature",
      "geometry": {
        "type": "Point",
        "coordinates": [
          110.3654,
          -7.8001
        ]
      },
      "properties": {
        "name": "Benteng Vredeburg",
        "type": "Budaya & Sejarah",
        "category": "pariwisata",
        "subcategory": "Budaya & Sejarah",
        "rating": 4.3,
        "reviews": 4200,
        "visitors_per_day": 3200,
        "opening_hours": "08:00–16:00",
        "ticket_price": "Rp10.000",
        "description": "Benteng peninggalan Belanda, kini museum perjuangan kemerdekaan.",
        "foto": "https://images.unsplash.com/photo-1558618666-fcd25c85f82e?w=600",
        "facilities": [
          "parkir",
          "toilet",
          "toko_suvenir"
        ],
        "hourly_crowd": [
          0,
          0,
          0,
          0,
          0,
          0,
          0,
          5,
          18,
          30,
          40,
          45,
          48,
          42,
          35,
          25,
          8,
          0,
          0,
          0,
          0,
          0,
          0,
          0
        ],
        "address": "Jl. Margo Mulyo No.6, Ngupasan, Gondomanan, Kota Yogyakarta",
        "tips": "Museum diorama di dalamnya sangat informatif. Ada WiFi gratis."
      }
    },
    {
      "type": "Feature",
      "geometry": {
        "type": "Point",
        "coordinates": [
          110.4124,
          -7.5877
        ]
      },
      "properties": {
        "name": "Desa Wisata Pentingsari",
        "type": "Edukasi",
        "category": "pariwisata",
        "subcategory": "Edukasi",
        "rating": 4.4,
        "reviews": 1800,
        "visitors_per_day": 1000,
        "opening_hours": "08:00–16:00",
        "ticket_price": "Rp25.000",
        "description": "Desa wisata edukasi dengan aktivitas bertani & kerajinan.",
        "foto": "https://images.unsplash.com/photo-1501785888041-af3ef285b470?w=600",
        "facilities": [
          "parkir",
          "restoran",
          "toilet",
          "mushola"
        ],
        "hourly_crowd": [
          0,
          0,
          0,
          0,
          0,
          0,
          0,
          5,
          15,
          25,
          35,
          40,
          38,
          32,
          25,
          15,
          2,
          0,
          0,
          0,
          0,
          0,
          0,
          0
        ],
        "address": "Pentingsari, Umbulharjo, Cangkringan, Sleman",
        "tips": "Booking terlebih dahulu untuk paket wisata edukasi kelompok."
      }
    },
    {
      "type": "Feature",
      "geometry": {
        "type": "Point",
        "coordinates": [
          110.2817,
          -8.0323
        ]
      },
      "properties": {
        "name": "Pantai Ngobaran",
        "type": "Religi",
        "category": "pariwisata",
        "subcategory": "Religi",
        "rating": 4.3,
        "reviews": 2200,
        "visitors_per_day": 3000,
        "opening_hours": "24 Jam",
        "ticket_price": "Rp5.000",
        "description": "Pantai unik dengan pura Hindu & masjid berdampingan di tebing.",
        "foto": "https://images.unsplash.com/photo-1507525428034-b723cf961d3e?w=600",
        "facilities": [
          "parkir",
          "toilet",
          "mushola"
        ],
        "hourly_crowd": [
          1,
          0,
          0,
          0,
          0,
          3,
          10,
          18,
          25,
          30,
          35,
          38,
          40,
          38,
          35,
          32,
          28,
          15,
          5,
          2,
          1,
          1,
          1,
          1
        ],
        "address": "Kanigoro, Saptosari, Gunungkidul",
        "tips": "Unik karena multi-religi. Sunset sangat indah dari tebing."
      }
    },
    {
      "type": "Feature",
      "geometry": {
        "type": "Point",
        "coordinates": [
          110.373,
          -7.7875
        ]
      },
      "properties": {
        "name": "Spot Riyadi Jogja",
        "type": "Belanja & Kuliner",
        "category": "pariwisata",
        "subcategory": "Belanja & Kuliner",
        "rating": 4.1,
        "reviews": 2400,
        "visitors_per_day": 5000,
        "opening_hours": "10:00–22:00",
        "ticket_price": "Gratis",
        "description": "Pusat kuliner dan nongkrong hits anak muda Jogja.",
        "foto": "https://images.unsplash.com/photo-1514933651103-005eec06c04b?w=600",
        "facilities": [
          "parkir",
          "restoran",
          "toilet",
          "atm"
        ],
        "hourly_crowd": [
          0,
          0,
          0,
          0,
          0,
          0,
          0,
          0,
          0,
          5,
          12,
          20,
          30,
          25,
          20,
          22,
          35,
          50,
          65,
          70,
          60,
          40,
          15,
          3
        ],
        "address": "Jl. C. Simanjuntak, Terban, Gondokusuman, Kota Yogyakarta",
        "tips": "Banyak pilihan kuliner murah. Weekend lebih ramai."
      }
    }
  ]
}